{
"type": "FeatureCollection",
"name": "gauges",
"crs": { "type": "name", "properties": { "name": "urn:ogc:def:crs:OGC:1.3:CRS84" } },
"features": [
{ "type": "Feature", "properties": { "fid": 3 }, "geometry": { "type": "Point", "coordinates": [ 36.768, 12.75 ] } },
{ "type": "Feature", "properties": { "fid": 4 }, "geometry": { "type": "Point", "coordinates": [ 36.808, 12.75 ] } },
{ "type": "Feature", "properties": { "fid": 5 }, "geometry": { "type": "Point", "coordinates": [ 36.816, 12.75 ] } },
{ "type": "Feature", "properties": { "fid": 6 }, "geometry": { "type": "Point", "coordinates": [ 36.824, 12.75 ] } },
{ "type": "Feature", "properties": { "fid": 9 }, "geometry": { "type": "Point", "coordinates": [ 36.856, 12.75 ] } },
{ "type": "Feature", "properties": { "fid": 10 }, "geometry": { "type": "Point", "coordinates": [ 36.864, 12.75 ] } },
{ "type": "Feature", "properties": { "fid": 13 }, "geometry": { "type": "Point", "coordinates": [ 36.928, 12.75 ] } },
{ "type": "Feature", "properties": { "fid": 16 }, "geometry": { "type": "Point", "coordinates": [ 37.176, 12.75 ] } },
{ "type": "Feature", "properties": { "fid": 18 }, "geometry": { "type": "Point", "coordinates": [ 37.192, 12.75 ] } },
{ "type": "Feature", "properties": { "fid": 20 }, "geometry": { "type": "Point", "coordinates": [ 37.224, 12.75 ] } },
{ "type": "Feature", "properties": { "fid": 22 }, "geometry": { "type": "Point", "coordinates": [ 37.256, 12.75 ] } },
{ "type": "Feature", "properties": { "fid": 23 }, "geometry": { "type": "Point", "coordinates": [ 37.272, 12.75 ] } },
{ "type": "Feature", "properties": { "fid": 27 }, "geometry": { "type": "Point", "coordinates": [ 37.336, 12.75 ] } },
{ "type": "Feature", "properties": { "fid": 28 }, "geometry": { "type": "Point", "coordinates": [ 37.344, 12.75 ] } },
{ "type": "Feature", "properties": { "fid": 29 }, "geometry": { "type": "Point", "coordinates": [ 37.352, 12.75 ] } },
{ "type": "Feature", "properties": { "fid": 31 }, "geometry": { "type": "Point", "coordinates": [ 37.416, 12.75 ] } },
{ "type": "Feature", "properties": { "fid": 33 }, "geometry": { "type": "Point", "coordinates": [ 37.44, 12.75 ] } },
{ "type": "Feature", "properties": { "fid": 35 }, "geometry": { "type": "Point", "coordinates": [ 37.48, 12.75 ] } },
{ "type": "Feature", "properties": { "fid": 36 }, "geometry": { "type": "Point", "coordinates": [ 37.496, 12.75 ] } },
{ "type": "Feature", "properties": { "fid": 41 }, "geometry": { "type": "Point", "coordinates": [ 37.648, 12.75 ] } },
{ "type": "Feature", "properties": { "fid": 42 }, "geometry": { "type": "Point", "coordinates": [ 37.672, 12.75 ] } },
{ "type": "Feature", "properties": { "fid": 43 }, "geometry": { "type": "Point", "coordinates": [ 37.68, 12.75 ] } },
{ "type": "Feature", "properties": { "fid": 45 }, "geometry": { "type": "Point", "coordinates": [ 37.736, 12.75 ] } },
{ "type": "Feature", "properties": { "fid": 50 }, "geometry": { "type": "Point", "coordinates": [ 37.888, 12.75 ] } },
{ "type": "Feature", "properties": { "fid": 58 }, "geometry": { "type": "Point", "coordinates": [ 38.232, 12.742 ] } },
{ "type": "Feature", "properties": { "fid": 59 }, "geometry": { "type": "Point", "coordinates": [ 36.744, 12.734 ] } },
{ "type": "Feature", "properties": { "fid": 62 }, "geometry": { "type": "Point", "coordinates": [ 36.744, 12.686 ] } },
{ "type": "Feature", "properties": { "fid": 64 }, "geometry": { "type": "Point", "coordinates": [ 36.744, 12.638 ] } },
{ "type": "Feature", "properties": { "fid": 68 }, "geometry": { "type": "Point", "coordinates": [ 38.232, 12.598 ] } },
{ "type": "Feature", "properties": { "fid": 69 }, "geometry": { "type": "Point", "coordinates": [ 36.744, 12.59 ] } },
{ "type": "Feature", "properties": { "fid": 71 }, "geometry": { "type": "Point", "coordinates": [ 36.744, 12.566 ] } },
{ "type": "Feature", "properties": { "fid": 72 }, "geometry": { "type": "Point", "coordinates": [ 38.232, 12.558 ] } },
{ "type": "Feature", "properties": { "fid": 74 }, "geometry": { "type": "Point", "coordinates": [ 36.744, 12.534 ] } },
{ "type": "Feature", "properties": { "fid": 75 }, "geometry": { "type": "Point", "coordinates": [ 38.232, 12.534 ] } },
{ "type": "Feature", "properties": { "fid": 77 }, "geometry": { "type": "Point", "coordinates": [ 36.744, 12.51 ] } },
{ "type": "Feature", "properties": { "fid": 78 }, "geometry": { "type": "Point", "coordinates": [ 38.232, 12.502 ] } },
{ "type": "Feature", "properties": { "fid": 79 }, "geometry": { "type": "Point", "coordinates": [ 36.744, 12.486 ] } },
{ "type": "Feature", "properties": { "fid": 80 }, "geometry": { "type": "Point", "coordinates": [ 38.232, 12.486 ] } },
{ "type": "Feature", "properties": { "fid": 81 }, "geometry": { "type": "Point", "coordinates": [ 36.744, 12.478 ] } },
{ "type": "Feature", "properties": { "fid": 83 }, "geometry": { "type": "Point", "coordinates": [ 36.744, 12.454 ] } },
{ "type": "Feature", "properties": { "fid": 86 }, "geometry": { "type": "Point", "coordinates": [ 38.232, 12.438 ] } },
{ "type": "Feature", "properties": { "fid": 90 }, "geometry": { "type": "Point", "coordinates": [ 36.744, 12.398 ] } },
{ "type": "Feature", "properties": { "fid": 92 }, "geometry": { "type": "Point", "coordinates": [ 38.232, 12.382 ] } },
{ "type": "Feature", "properties": { "fid": 97 }, "geometry": { "type": "Point", "coordinates": [ 36.744, 12.342 ] } },
{ "type": "Feature", "properties": { "fid": 100 }, "geometry": { "type": "Point", "coordinates": [ 36.744, 12.326 ] } },
{ "type": "Feature", "properties": { "fid": 101 }, "geometry": { "type": "Point", "coordinates": [ 38.232, 12.326 ] } },
{ "type": "Feature", "properties": { "fid": 103 }, "geometry": { "type": "Point", "coordinates": [ 36.744, 12.286 ] } },
{ "type": "Feature", "properties": { "fid": 108 }, "geometry": { "type": "Point", "coordinates": [ 36.744, 12.262 ] } },
{ "type": "Feature", "properties": { "fid": 109 }, "geometry": { "type": "Point", "coordinates": [ 38.232, 12.262 ] } },
{ "type": "Feature", "properties": { "fid": 110 }, "geometry": { "type": "Point", "coordinates": [ 36.744, 12.254 ] } },
{ "type": "Feature", "properties": { "fid": 112 }, "geometry": { "type": "Point", "coordinates": [ 38.232, 12.246 ] } },
{ "type": "Feature", "properties": { "fid": 113 }, "geometry": { "type": "Point", "coordinates": [ 36.744, 12.23 ] } },
{ "type": "Feature", "properties": { "fid": 114 }, "geometry": { "type": "Point", "coordinates": [ 36.744, 12.222 ] } },
{ "type": "Feature", "properties": { "fid": 115 }, "geometry": { "type": "Point", "coordinates": [ 38.232, 12.222 ] } },
{ "type": "Feature", "properties": { "fid": 116 }, "geometry": { "type": "Point", "coordinates": [ 36.744, 12.206 ] } },
{ "type": "Feature", "properties": { "fid": 117 }, "geometry": { "type": "Point", "coordinates": [ 36.744, 12.19 ] } },
{ "type": "Feature", "properties": { "fid": 119 }, "geometry": { "type": "Point", "coordinates": [ 38.232, 12.19 ] } },
{ "type": "Feature", "properties": { "fid": 120 }, "geometry": { "type": "Point", "coordinates": [ 38.232, 12.174 ] } },
{ "type": "Feature", "properties": { "fid": 122 }, "geometry": { "type": "Point", "coordinates": [ 36.744, 12.158 ] } },
{ "type": "Feature", "properties": { "fid": 125 }, "geometry": { "type": "Point", "coordinates": [ 38.232, 12.142 ] } },
{ "type": "Feature", "properties": { "fid": 126 }, "geometry": { "type": "Point", "coordinates": [ 38.232, 12.134 ] } },
{ "type": "Feature", "properties": { "fid": 128 }, "geometry": { "type": "Point", "coordinates": [ 36.744, 12.118 ] } },
{ "type": "Feature", "properties": { "fid": 129 }, "geometry": { "type": "Point", "coordinates": [ 38.232, 12.118 ] } },
{ "type": "Feature", "properties": { "fid": 130 }, "geometry": { "type": "Point", "coordinates": [ 36.744, 12.11 ] } },
{ "type": "Feature", "properties": { "fid": 133 }, "geometry": { "type": "Point", "coordinates": [ 38.232, 12.086 ] } },
{ "type": "Feature", "properties": { "fid": 135 }, "geometry": { "type": "Point", "coordinates": [ 36.744, 12.062 ] } },
{ "type": "Feature", "properties": { "fid": 136 }, "geometry": { "type": "Point", "coordinates": [ 36.744, 12.054 ] } },
{ "type": "Feature", "properties": { "fid": 138 }, "geometry": { "type": "Point", "coordinates": [ 36.744, 12.03 ] } },
{ "type": "Feature", "properties": { "fid": 139 }, "geometry": { "type": "Point", "coordinates": [ 38.232, 12.03 ] } },
{ "type": "Feature", "properties": { "fid": 141 }, "geometry": { "type": "Point", "coordinates": [ 36.744, 12.006 ] } },
{ "type": "Feature", "properties": { "fid": 144 }, "geometry": { "type": "Point", "coordinates": [ 38.232, 11.966 ] } },
{ "type": "Feature", "properties": { "fid": 145 }, "geometry": { "type": "Point", "coordinates": [ 36.744, 11.958 ] } },
{ "type": "Feature", "properties": { "fid": 147 }, "geometry": { "type": "Point", "coordinates": [ 38.232, 11.95 ] } },
{ "type": "Feature", "properties": { "fid": 149 }, "geometry": { "type": "Point", "coordinates": [ 36.744, 11.926 ] } },
{ "type": "Feature", "properties": { "fid": 150 }, "geometry": { "type": "Point", "coordinates": [ 38.232, 11.926 ] } },
{ "type": "Feature", "properties": { "fid": 151 }, "geometry": { "type": "Point", "coordinates": [ 36.744, 11.918 ] } },
{ "type": "Feature", "properties": { "fid": 152 }, "geometry": { "type": "Point", "coordinates": [ 38.232, 11.91 ] } },
{ "type": "Feature", "properties": { "fid": 154 }, "geometry": { "type": "Point", "coordinates": [ 38.232, 11.894 ] } },
{ "type": "Feature", "properties": { "fid": 155 }, "geometry": { "type": "Point", "coordinates": [ 38.232, 11.878 ] } },
{ "type": "Feature", "properties": { "fid": 156 }, "geometry": { "type": "Point", "coordinates": [ 36.744, 11.87 ] } },
{ "type": "Feature", "properties": { "fid": 157 }, "geometry": { "type": "Point", "coordinates": [ 36.744, 11.862 ] } },
{ "type": "Feature", "properties": { "fid": 158 }, "geometry": { "type": "Point", "coordinates": [ 38.232, 11.862 ] } },
{ "type": "Feature", "properties": { "fid": 159 }, "geometry": { "type": "Point", "coordinates": [ 36.744, 11.854 ] } },
{ "type": "Feature", "properties": { "fid": 160 }, "geometry": { "type": "Point", "coordinates": [ 38.232, 11.838 ] } },
{ "type": "Feature", "properties": { "fid": 161 }, "geometry": { "type": "Point", "coordinates": [ 38.232, 11.79 ] } },
{ "type": "Feature", "properties": { "fid": 162 }, "geometry": { "type": "Point", "coordinates": [ 38.232, 11.782 ] } },
{ "type": "Feature", "properties": { "fid": 163 }, "geometry": { "type": "Point", "coordinates": [ 36.744, 11.75 ] } },
{ "type": "Feature", "properties": { "fid": 165 }, "geometry": { "type": "Point", "coordinates": [ 36.744, 11.742 ] } },
{ "type": "Feature", "properties": { "fid": 166 }, "geometry": { "type": "Point", "coordinates": [ 36.744, 11.726 ] } },
{ "type": "Feature", "properties": { "fid": 169 }, "geometry": { "type": "Point", "coordinates": [ 36.744, 11.686 ] } },
{ "type": "Feature", "properties": { "fid": 174 }, "geometry": { "type": "Point", "coordinates": [ 38.232, 11.614 ] } },
{ "type": "Feature", "properties": { "fid": 175 }, "geometry": { "type": "Point", "coordinates": [ 36.744, 11.606 ] } },
{ "type": "Feature", "properties": { "fid": 179 }, "geometry": { "type": "Point", "coordinates": [ 38.232, 11.59 ] } },
{ "type": "Feature", "properties": { "fid": 180 }, "geometry": { "type": "Point", "coordinates": [ 36.744, 11.574 ] } },
{ "type": "Feature", "properties": { "fid": 181 }, "geometry": { "type": "Point", "coordinates": [ 38.232, 11.566 ] } },
{ "type": "Feature", "properties": { "fid": 183 }, "geometry": { "type": "Point", "coordinates": [ 38.232, 11.558 ] } },
{ "type": "Feature", "properties": { "fid": 184 }, "geometry": { "type": "Point", "coordinates": [ 36.744, 11.55 ] } },
{ "type": "Feature", "properties": { "fid": 187 }, "geometry": { "type": "Point", "coordinates": [ 36.744, 11.51 ] } },
{ "type": "Feature", "properties": { "fid": 188 }, "geometry": { "type": "Point", "coordinates": [ 36.744, 11.486 ] } },
{ "type": "Feature", "properties": { "fid": 189 }, "geometry": { "type": "Point", "coordinates": [ 38.232, 11.486 ] } },
{ "type": "Feature", "properties": { "fid": 194 }, "geometry": { "type": "Point", "coordinates": [ 38.232, 11.446 ] } },
{ "type": "Feature", "properties": { "fid": 195 }, "geometry": { "type": "Point", "coordinates": [ 36.744, 11.438 ] } },
{ "type": "Feature", "properties": { "fid": 196 }, "geometry": { "type": "Point", "coordinates": [ 36.744, 11.43 ] } },
{ "type": "Feature", "properties": { "fid": 197 }, "geometry": { "type": "Point", "coordinates": [ 38.232, 11.422 ] } },
{ "type": "Feature", "properties": { "fid": 198 }, "geometry": { "type": "Point", "coordinates": [ 36.744, 11.398 ] } },
{ "type": "Feature", "properties": { "fid": 199 }, "geometry": { "type": "Point", "coordinates": [ 38.232, 11.39 ] } },
{ "type": "Feature", "properties": { "fid": 203 }, "geometry": { "type": "Point", "coordinates": [ 36.744, 11.358 ] } },
{ "type": "Feature", "properties": { "fid": 205 }, "geometry": { "type": "Point", "coordinates": [ 36.744, 11.334 ] } },
{ "type": "Feature", "properties": { "fid": 207 }, "geometry": { "type": "Point", "coordinates": [ 36.744, 11.286 ] } },
{ "type": "Feature", "properties": { "fid": 208 }, "geometry": { "type": "Point", "coordinates": [ 36.744, 11.278 ] } },
{ "type": "Feature", "properties": { "fid": 212 }, "geometry": { "type": "Point", "coordinates": [ 36.744, 11.214 ] } },
{ "type": "Feature", "properties": { "fid": 213 }, "geometry": { "type": "Point", "coordinates": [ 36.744, 11.206 ] } },
{ "type": "Feature", "properties": { "fid": 215 }, "geometry": { "type": "Point", "coordinates": [ 36.744, 11.19 ] } },
{ "type": "Feature", "properties": { "fid": 217 }, "geometry": { "type": "Point", "coordinates": [ 36.744, 11.182 ] } },
{ "type": "Feature", "properties": { "fid": 220 }, "geometry": { "type": "Point", "coordinates": [ 38.232, 11.15 ] } },
{ "type": "Feature", "properties": { "fid": 222 }, "geometry": { "type": "Point", "coordinates": [ 36.744, 11.07 ] } },
{ "type": "Feature", "properties": { "fid": 224 }, "geometry": { "type": "Point", "coordinates": [ 36.744, 11.054 ] } },
{ "type": "Feature", "properties": { "fid": 225 }, "geometry": { "type": "Point", "coordinates": [ 36.744, 11.046 ] } },
{ "type": "Feature", "properties": { "fid": 228 }, "geometry": { "type": "Point", "coordinates": [ 36.744, 11.014 ] } },
{ "type": "Feature", "properties": { "fid": 229 }, "geometry": { "type": "Point", "coordinates": [ 36.744, 10.99 ] } },
{ "type": "Feature", "properties": { "fid": 230 }, "geometry": { "type": "Point", "coordinates": [ 36.744, 10.974 ] } },
{ "type": "Feature", "properties": { "fid": 232 }, "geometry": { "type": "Point", "coordinates": [ 36.84, 10.95 ] } },
{ "type": "Feature", "properties": { "fid": 233 }, "geometry": { "type": "Point", "coordinates": [ 36.848, 10.95 ] } },
{ "type": "Feature", "properties": { "fid": 234 }, "geometry": { "type": "Point", "coordinates": [ 36.872, 10.95 ] } },
{ "type": "Feature", "properties": { "fid": 235 }, "geometry": { "type": "Point", "coordinates": [ 36.896, 10.95 ] } },
{ "type": "Feature", "properties": { "fid": 237 }, "geometry": { "type": "Point", "coordinates": [ 36.92, 10.95 ] } },
{ "type": "Feature", "properties": { "fid": 238 }, "geometry": { "type": "Point", "coordinates": [ 36.928, 10.95 ] } },
{ "type": "Feature", "properties": { "fid": 239 }, "geometry": { "type": "Point", "coordinates": [ 36.936, 10.95 ] } },
{ "type": "Feature", "properties": { "fid": 240 }, "geometry": { "type": "Point", "coordinates": [ 36.968, 10.95 ] } },
{ "type": "Feature", "properties": { "fid": 241 }, "geometry": { "type": "Point", "coordinates": [ 36.984, 10.95 ] } },
{ "type": "Feature", "properties": { "fid": 242 }, "geometry": { "type": "Point", "coordinates": [ 36.992, 10.95 ] } },
{ "type": "Feature", "properties": { "fid": 243 }, "geometry": { "type": "Point", "coordinates": [ 37.056, 10.95 ] } },
{ "type": "Feature", "properties": { "fid": 245 }, "geometry": { "type": "Point", "coordinates": [ 37.208, 10.95 ] } },
{ "type": "Feature", "properties": { "fid": 246 }, "geometry": { "type": "Point", "coordinates": [ 37.248, 10.95 ] } },
{ "type": "Feature", "properties": { "fid": 248 }, "geometry": { "type": "Point", "coordinates": [ 37.264, 10.95 ] } },
{ "type": "Feature", "properties": { "fid": 253 }, "geometry": { "type": "Point", "coordinates": [ 37.368, 10.95 ] } },
{ "type": "Feature", "properties": { "fid": 254 }, "geometry": { "type": "Point", "coordinates": [ 37.376, 10.95 ] } },
{ "type": "Feature", "properties": { "fid": 255 }, "geometry": { "type": "Point", "coordinates": [ 37.384, 10.95 ] } },
{ "type": "Feature", "properties": { "fid": 256 }, "geometry": { "type": "Point", "coordinates": [ 37.44, 10.95 ] } },
{ "type": "Feature", "properties": { "fid": 261 }, "geometry": { "type": "Point", "coordinates": [ 37.544, 10.95 ] } },
{ "type": "Feature", "properties": { "fid": 262 }, "geometry": { "type": "Point", "coordinates": [ 37.656, 10.95 ] } }
]
}
