{
"type": "FeatureCollection",
"name": "lakes",
"crs": { "type": "name", "properties": { "name": "urn:ogc:def:crs:OGC:1.3:CRS84" } },
"features": [
{ "type": "Feature", "properties": { "waterbody_id": 154, "Lake_name": "Tana", "Country": "Ethiopia", "Continent": "Africa", "Poly_src": "SWBD", "Lake_type": 1, "Grand_id": 0, "Lake_area": 3059.340087890625, "Shore_len": 484.92999267578125, "Shore_dev": 2.470000028610229, "Vol_total": 28400.0, "Vol_res": 0.0, "Vol_src": 1, "LakeAvgLevel": 9.3000001907348633, "LakeAvgOut": 170.1510009765625, "Res_time": 1931.800048828125, "Elevation": 1786, "Slope_100": -1.0, "Wshd_area": 15133.2001953125, "Pour_long": 37.407009124755859, "Pour_lat": 11.573724746704102, "area_km2": 3047.4397950660173, "name": "Tana", "LakeArea": 3047.4397950660173, "xout": 37.408, "yout": 11.574, "Lake_b": 1.9672909468986748, "Lake_e": 2, "LakeThreshold": 0.0, "LinkedLakeLocs": 0, "LakeStorFunc": 1, "LakeOutflowFunc": 3 }, "geometry": { "type": "Polygon", "coordinates": [ [ [ 37.488616, 12.304107 ], [ 37.492475, 12.304186 ], [ 37.493886, 12.303331 ], [ 37.496114, 12.302503 ], [ 37.498336, 12.301114 ], [ 37.498655, 12.299806 ], [ 37.50085, 12.299166 ], [ 37.503051, 12.296976 ], [ 37.503586, 12.294782 ], [ 37.504148, 12.293623 ], [ 37.505231, 12.292584 ], [ 37.505812, 12.291455 ], [ 37.505847, 12.289742 ], [ 37.50473, 12.288636 ], [ 37.504395, 12.286999 ], [ 37.505553, 12.284751 ], [ 37.505831, 12.28333 ], [ 37.508855, 12.283392 ], [ 37.509552, 12.282329 ], [ 37.511573, 12.281005 ], [ 37.510836, 12.280297 ], [ 37.512051, 12.278959 ], [ 37.513829, 12.278097 ], [ 37.514759, 12.277204 ], [ 37.514697, 12.274176 ], [ 37.516108, 12.274147 ], [ 37.516925, 12.274997 ], [ 37.519404, 12.273403 ], [ 37.520531, 12.27112 ], [ 37.521381, 12.271103 ], [ 37.522193, 12.271521 ], [ 37.522497, 12.270275 ], [ 37.523898, 12.268929 ], [ 37.52388, 12.268049 ], [ 37.52453, 12.265512 ], [ 37.52306, 12.264548 ], [ 37.523047, 12.263893 ], [ 37.52472, 12.261822 ], [ 37.524385, 12.260605 ], [ 37.522819, 12.260224 ], [ 37.522355, 12.257503 ], [ 37.52278, 12.257775 ], [ 37.523547, 12.259718 ], [ 37.526891, 12.259786 ], [ 37.528191, 12.258073 ], [ 37.530553, 12.253033 ], [ 37.53028, 12.25222 ], [ 37.529164, 12.251392 ], [ 37.528058, 12.249601 ], [ 37.529029, 12.248339 ], [ 37.530497, 12.248309 ], [ 37.532752, 12.249719 ], [ 37.534375, 12.249752 ], [ 37.535003, 12.249447 ], [ 37.536845, 12.247008 ], [ 37.537686, 12.244417 ], [ 37.54017, 12.244468 ], [ 37.542146, 12.2429 ], [ 37.543608, 12.241131 ], [ 37.543587, 12.238392 ], [ 37.543906, 12.237734 ], [ 37.545531, 12.236173 ], [ 37.545837, 12.235277 ], [ 37.545275, 12.234447 ], [ 37.544511, 12.231893 ], [ 37.545525, 12.230837 ], [ 37.547446, 12.230798 ], [ 37.549067, 12.232355 ], [ 37.549643, 12.23472 ], [ 37.551114, 12.234447 ], [ 37.552732, 12.233614 ], [ 37.555003, 12.233336 ], [ 37.555275, 12.232497 ], [ 37.556669, 12.232225 ], [ 37.557986, 12.230855 ], [ 37.559169, 12.23028 ], [ 37.560068, 12.228001 ], [ 37.560816, 12.227223 ], [ 37.561949, 12.226947 ], [ 37.561549, 12.225777 ], [ 37.562222, 12.224469 ], [ 37.562698, 12.220575 ], [ 37.563422, 12.217749 ], [ 37.562986, 12.216474 ], [ 37.564416, 12.214589 ], [ 37.564841, 12.20751 ], [ 37.564426, 12.205482 ], [ 37.564466, 12.203513 ], [ 37.564058, 12.200587 ], [ 37.563058, 12.198053 ], [ 37.560636, 12.196526 ], [ 37.561645, 12.194447 ], [ 37.562757, 12.196388 ], [ 37.564169, 12.196664 ], [ 37.565996, 12.197902 ], [ 37.567523, 12.197406 ], [ 37.568892, 12.196392 ], [ 37.56943, 12.194734 ], [ 37.570029, 12.194425 ], [ 37.571874, 12.194463 ], [ 37.572265, 12.189495 ], [ 37.57169, 12.188896 ], [ 37.570839, 12.188483 ], [ 37.570825, 12.187783 ], [ 37.5722, 12.185714 ], [ 37.57419, 12.184906 ], [ 37.575782, 12.183726 ], [ 37.576128, 12.183012 ], [ 37.577062, 12.182115 ], [ 37.578607, 12.178543 ], [ 37.577905, 12.175113 ], [ 37.578555, 12.171118 ], [ 37.58029, 12.170276 ], [ 37.579714, 12.169159 ], [ 37.579757, 12.167036 ], [ 37.579436, 12.166098 ], [ 37.579453, 12.16528 ], [ 37.579164, 12.165003 ], [ 37.578889, 12.163875 ], [ 37.576947, 12.162602 ], [ 37.577404, 12.16196 ], [ 37.579645, 12.161522 ], [ 37.580136, 12.159009 ], [ 37.580852, 12.158321 ], [ 37.581653, 12.156669 ], [ 37.582936, 12.15708 ], [ 37.583644, 12.157817 ], [ 37.587172, 12.159397 ], [ 37.588416, 12.157499 ], [ 37.590793, 12.155025 ], [ 37.592261, 12.153937 ], [ 37.594382, 12.150988 ], [ 37.596114, 12.14778 ], [ 37.596419, 12.145286 ], [ 37.597503, 12.14278 ], [ 37.598336, 12.136947 ], [ 37.598664, 12.13259 ], [ 37.601401, 12.130542 ], [ 37.603778, 12.13059 ], [ 37.605055, 12.126516 ], [ 37.604343, 12.12476 ], [ 37.605322, 12.124425 ], [ 37.607115, 12.124462 ], [ 37.608881, 12.124117 ], [ 37.608882, 12.122575 ], [ 37.611734, 12.122177 ], [ 37.614376, 12.119174 ], [ 37.615726, 12.116948 ], [ 37.61821, 12.11106 ], [ 37.618666, 12.107043 ], [ 37.618126, 12.105994 ], [ 37.620253, 12.103951 ], [ 37.620831, 12.102262 ], [ 37.621254, 12.099228 ], [ 37.62222, 12.098759 ], [ 37.62112, 12.097525 ], [ 37.621097, 12.096402 ], [ 37.621921, 12.095187 ], [ 37.621624, 12.091674 ], [ 37.621681, 12.088901 ], [ 37.620621, 12.087504 ], [ 37.620228, 12.084291 ], [ 37.618053, 12.079725 ], [ 37.61778, 12.077497 ], [ 37.616102, 12.07473 ], [ 37.616119, 12.073901 ], [ 37.614529, 12.069025 ], [ 37.6134, 12.06758 ], [ 37.613058, 12.065831 ], [ 37.61195, 12.064196 ], [ 37.610849, 12.061738 ], [ 37.610852, 12.058381 ], [ 37.608272, 12.054169 ], [ 37.60721, 12.054543 ], [ 37.607225, 12.05528 ], [ 37.606811, 12.055678 ], [ 37.608331, 12.057192 ], [ 37.607593, 12.057609 ], [ 37.606386, 12.056114 ], [ 37.606053, 12.053619 ], [ 37.607775, 12.053283 ], [ 37.607039, 12.051116 ], [ 37.605574, 12.051086 ], [ 37.605019, 12.051664 ], [ 37.604557, 12.050815 ], [ 37.605275, 12.04972 ], [ 37.606108, 12.049315 ], [ 37.605382, 12.04728 ], [ 37.603689, 12.046605 ], [ 37.60299, 12.044564 ], [ 37.603608, 12.043363 ], [ 37.602804, 12.043315 ], [ 37.60185, 12.043807 ], [ 37.601119, 12.043047 ], [ 37.598902, 12.041971 ], [ 37.598336, 12.041108 ], [ 37.597246, 12.040394 ], [ 37.598149, 12.039017 ], [ 37.59973, 12.037498 ], [ 37.598282, 12.037145 ], [ 37.597382, 12.036281 ], [ 37.597805, 12.03463 ], [ 37.595876, 12.034004 ], [ 37.59538, 12.032554 ], [ 37.596386, 12.029997 ], [ 37.598606, 12.028739 ], [ 37.59864, 12.027046 ], [ 37.5982, 12.025689 ], [ 37.597233, 12.02476 ], [ 37.596948, 12.023042 ], [ 37.595561, 12.02171 ], [ 37.595183, 12.019775 ], [ 37.591791, 12.014203 ], [ 37.590588, 12.013813 ], [ 37.589377, 12.011966 ], [ 37.587282, 12.013046 ], [ 37.586425, 12.013063 ], [ 37.585053, 12.011745 ], [ 37.584031, 12.010367 ], [ 37.582827, 12.009577 ], [ 37.582225, 12.007818 ], [ 37.582497, 12.006386 ], [ 37.584823, 12.003616 ], [ 37.584431, 12.002471 ], [ 37.584462, 12.000964 ], [ 37.583053, 12.00028 ], [ 37.582746, 11.999335 ], [ 37.579447, 11.995275 ], [ 37.578603, 11.995001 ], [ 37.578622, 11.994056 ], [ 37.57381, 11.992652 ], [ 37.572223, 11.993059 ], [ 37.567743, 11.99255 ], [ 37.566965, 11.993297 ], [ 37.566958, 11.996083 ], [ 37.565592, 11.998167 ], [ 37.563657, 11.999164 ], [ 37.560837, 11.996697 ], [ 37.56111, 11.994434 ], [ 37.563175, 11.993764 ], [ 37.5643, 11.990411 ], [ 37.565553, 11.989164 ], [ 37.567231, 11.988333 ], [ 37.567214, 11.987501 ], [ 37.568336, 11.986669 ], [ 37.568325, 11.986121 ], [ 37.570836, 11.984725 ], [ 37.571176, 11.983676 ], [ 37.572745, 11.983167 ], [ 37.573141, 11.981947 ], [ 37.575134, 11.983061 ], [ 37.578058, 11.983053 ], [ 37.581516, 11.983558 ], [ 37.583564, 11.982706 ], [ 37.582791, 11.981112 ], [ 37.581032, 11.980419 ], [ 37.580025, 11.978342 ], [ 37.578899, 11.978319 ], [ 37.575665, 11.981108 ], [ 37.575413, 11.979876 ], [ 37.576088, 11.979174 ], [ 37.576904, 11.978778 ], [ 37.576947, 11.976664 ], [ 37.576403, 11.975607 ], [ 37.575977, 11.973529 ], [ 37.57703, 11.973018 ], [ 37.576591, 11.971734 ], [ 37.577083, 11.971261 ], [ 37.576669, 11.970831 ], [ 37.575661, 11.970503 ], [ 37.575016, 11.969173 ], [ 37.573701, 11.968199 ], [ 37.572866, 11.964012 ], [ 37.571682, 11.962265 ], [ 37.571664, 11.961386 ], [ 37.57222, 11.959763 ], [ 37.571947, 11.959164 ], [ 37.56891, 11.955051 ], [ 37.56722, 11.952225 ], [ 37.565836, 11.949164 ], [ 37.564003, 11.946193 ], [ 37.562287, 11.945178 ], [ 37.561407, 11.941975 ], [ 37.560097, 11.940208 ], [ 37.5576, 11.939398 ], [ 37.558168, 11.937739 ], [ 37.557037, 11.935409 ], [ 37.554997, 11.93278 ], [ 37.55471, 11.931018 ], [ 37.552505, 11.929548 ], [ 37.553053, 11.928085 ], [ 37.55278, 11.92722 ], [ 37.552104, 11.926891 ], [ 37.551669, 11.925553 ], [ 37.548875, 11.922224 ], [ 37.548892, 11.921386 ], [ 37.547802, 11.920858 ], [ 37.546382, 11.918866 ], [ 37.544492, 11.91705 ], [ 37.543875, 11.915249 ], [ 37.543892, 11.914442 ], [ 37.542797, 11.913911 ], [ 37.541892, 11.91205 ], [ 37.541088, 11.91166 ], [ 37.540294, 11.910833 ], [ 37.538287, 11.910506 ], [ 37.535375, 11.906662 ], [ 37.533886, 11.905558 ], [ 37.533908, 11.904462 ], [ 37.531982, 11.903364 ], [ 37.529904, 11.900931 ], [ 37.529167, 11.900551 ], [ 37.528595, 11.900846 ], [ 37.523311, 11.89847 ], [ 37.523353, 11.896392 ], [ 37.522536, 11.896375 ], [ 37.521755, 11.896755 ], [ 37.521269, 11.897755 ], [ 37.518381, 11.897753 ], [ 37.516379, 11.89862 ], [ 37.513893, 11.898569 ], [ 37.514843, 11.900938 ], [ 37.517214, 11.903634 ], [ 37.517248, 11.90528 ], [ 37.515972, 11.906506 ], [ 37.515303, 11.908568 ], [ 37.514463, 11.909442 ], [ 37.512808, 11.908661 ], [ 37.512226, 11.907531 ], [ 37.512186, 11.905599 ], [ 37.513406, 11.904402 ], [ 37.512909, 11.902872 ], [ 37.511546, 11.901947 ], [ 37.509739, 11.902639 ], [ 37.508592, 11.902082 ], [ 37.50689, 11.899486 ], [ 37.504189, 11.899025 ], [ 37.501636, 11.900475 ], [ 37.500375, 11.902336 ], [ 37.498947, 11.905688 ], [ 37.493203, 11.911389 ], [ 37.492174, 11.914071 ], [ 37.488107, 11.914997 ], [ 37.487204, 11.91472 ], [ 37.484726, 11.912253 ], [ 37.484703, 11.911122 ], [ 37.485569, 11.910825 ], [ 37.487204, 11.910859 ], [ 37.488293, 11.909725 ], [ 37.490348, 11.910739 ], [ 37.491681, 11.909458 ], [ 37.493539, 11.907585 ], [ 37.495125, 11.905247 ], [ 37.49565, 11.902553 ], [ 37.496766, 11.900387 ], [ 37.494142, 11.897196 ], [ 37.494186, 11.895044 ], [ 37.493648, 11.893475 ], [ 37.493336, 11.888053 ], [ 37.492225, 11.885313 ], [ 37.491392, 11.881985 ], [ 37.494364, 11.881493 ], [ 37.494989, 11.882781 ], [ 37.495405, 11.882772 ], [ 37.495863, 11.883662 ], [ 37.495842, 11.886386 ], [ 37.495281, 11.886925 ], [ 37.49525, 11.892035 ], [ 37.495914, 11.896108 ], [ 37.497876, 11.895402 ], [ 37.500695, 11.892604 ], [ 37.502775, 11.891108 ], [ 37.505223, 11.890314 ], [ 37.507496, 11.88813 ], [ 37.507546, 11.885675 ], [ 37.506386, 11.883614 ], [ 37.506402, 11.882808 ], [ 37.505543, 11.881361 ], [ 37.503789, 11.879675 ], [ 37.502788, 11.876751 ], [ 37.502735, 11.872225 ], [ 37.504692, 11.873053 ], [ 37.505224, 11.872587 ], [ 37.504561, 11.870652 ], [ 37.505816, 11.868065 ], [ 37.506666, 11.867774 ], [ 37.510181, 11.868421 ], [ 37.510831, 11.867797 ], [ 37.510275, 11.866669 ], [ 37.510003, 11.865275 ], [ 37.509447, 11.864741 ], [ 37.51008, 11.862755 ], [ 37.511286, 11.861165 ], [ 37.510282, 11.859215 ], [ 37.51027, 11.858625 ], [ 37.511093, 11.857768 ], [ 37.512737, 11.858331 ], [ 37.513324, 11.857834 ], [ 37.513353, 11.855018 ], [ 37.511947, 11.853277 ], [ 37.512507, 11.852817 ], [ 37.51472, 11.854725 ], [ 37.51629, 11.855755 ], [ 37.517975, 11.857808 ], [ 37.519565, 11.858886 ], [ 37.520311, 11.858422 ], [ 37.52027, 11.856402 ], [ 37.520668, 11.855239 ], [ 37.520042, 11.853949 ], [ 37.51822, 11.85214 ], [ 37.519164, 11.850308 ], [ 37.51855, 11.84672 ], [ 37.518893, 11.846391 ], [ 37.518601, 11.845253 ], [ 37.520204, 11.841002 ], [ 37.51777, 11.838597 ], [ 37.515026, 11.838653 ], [ 37.51472, 11.838058 ], [ 37.514428, 11.835968 ], [ 37.511947, 11.833886 ], [ 37.509997, 11.833614 ], [ 37.508919, 11.833058 ], [ 37.506931, 11.833377 ], [ 37.506992, 11.836334 ], [ 37.506142, 11.837219 ], [ 37.502716, 11.837289 ], [ 37.501279, 11.836822 ], [ 37.500558, 11.83613 ], [ 37.500831, 11.83472 ], [ 37.502497, 11.833484 ], [ 37.502019, 11.83175 ], [ 37.500404, 11.830069 ], [ 37.496821, 11.828777 ], [ 37.495063, 11.826947 ], [ 37.493515, 11.827237 ], [ 37.491664, 11.829442 ], [ 37.491319, 11.830857 ], [ 37.489997, 11.831386 ], [ 37.489492, 11.831912 ], [ 37.486698, 11.831969 ], [ 37.485826, 11.830532 ], [ 37.483892, 11.828674 ], [ 37.484985, 11.826443 ], [ 37.485019, 11.824752 ], [ 37.484447, 11.823641 ], [ 37.485275, 11.821697 ], [ 37.481599, 11.821478 ], [ 37.479231, 11.822412 ], [ 37.478336, 11.823732 ], [ 37.479442, 11.826081 ], [ 37.479163, 11.827253 ], [ 37.478059, 11.828314 ], [ 37.478384, 11.832436 ], [ 37.480275, 11.834779 ], [ 37.479754, 11.835738 ], [ 37.475631, 11.835067 ], [ 37.474183, 11.833676 ], [ 37.473871, 11.832149 ], [ 37.473914, 11.83003 ], [ 37.472855, 11.828468 ], [ 37.472482, 11.826559 ], [ 37.470836, 11.823363 ], [ 37.471503, 11.822603 ], [ 37.473062, 11.82158 ], [ 37.473044, 11.820697 ], [ 37.474101, 11.819138 ], [ 37.472246, 11.817208 ], [ 37.4681, 11.817247 ], [ 37.466669, 11.816309 ], [ 37.468331, 11.81411 ], [ 37.467911, 11.813336 ], [ 37.467202, 11.813615 ], [ 37.466408, 11.814441 ], [ 37.465304, 11.814464 ], [ 37.464182, 11.813321 ], [ 37.463087, 11.813885 ], [ 37.462514, 11.813897 ], [ 37.462048, 11.813449 ], [ 37.46328, 11.810602 ], [ 37.462225, 11.809046 ], [ 37.462656, 11.808354 ], [ 37.464365, 11.80802 ], [ 37.465761, 11.805961 ], [ 37.4662, 11.803387 ], [ 37.463127, 11.801669 ], [ 37.461885, 11.802042 ], [ 37.461045, 11.803774 ], [ 37.458096, 11.801114 ], [ 37.456131, 11.802775 ], [ 37.45557, 11.802786 ], [ 37.454569, 11.801825 ], [ 37.4528, 11.799325 ], [ 37.451947, 11.798886 ], [ 37.449604, 11.798559 ], [ 37.449164, 11.797204 ], [ 37.44778, 11.795874 ], [ 37.448137, 11.794725 ], [ 37.448738, 11.795068 ], [ 37.450102, 11.796907 ], [ 37.453614, 11.79722 ], [ 37.454789, 11.797622 ], [ 37.45625, 11.796869 ], [ 37.457338, 11.797429 ], [ 37.458886, 11.795389 ], [ 37.458614, 11.794442 ], [ 37.457683, 11.793215 ], [ 37.459997, 11.790459 ], [ 37.45833, 11.789169 ], [ 37.458325, 11.786955 ], [ 37.459486, 11.786168 ], [ 37.460803, 11.787496 ], [ 37.461655, 11.787514 ], [ 37.461958, 11.786926 ], [ 37.461925, 11.785286 ], [ 37.463331, 11.784364 ], [ 37.462995, 11.782062 ], [ 37.46117, 11.781617 ], [ 37.460552, 11.778055 ], [ 37.461108, 11.776974 ], [ 37.459997, 11.775836 ], [ 37.459582, 11.773709 ], [ 37.458614, 11.773053 ], [ 37.456778, 11.772694 ], [ 37.456342, 11.770905 ], [ 37.455275, 11.770558 ], [ 37.453569, 11.769182 ], [ 37.452253, 11.770552 ], [ 37.451681, 11.770564 ], [ 37.450847, 11.769763 ], [ 37.45028, 11.766942 ], [ 37.449183, 11.765133 ], [ 37.44912, 11.76201 ], [ 37.449721, 11.761384 ], [ 37.450803, 11.761942 ], [ 37.451941, 11.761415 ], [ 37.45198, 11.759526 ], [ 37.450837, 11.757253 ], [ 37.450825, 11.756692 ], [ 37.451576, 11.7552 ], [ 37.449785, 11.753336 ], [ 37.447597, 11.756181 ], [ 37.444485, 11.75722 ], [ 37.443871, 11.756656 ], [ 37.442169, 11.753198 ], [ 37.440773, 11.752283 ], [ 37.439983, 11.751079 ], [ 37.438615, 11.749764 ], [ 37.438578, 11.747939 ], [ 37.440553, 11.745025 ], [ 37.440278, 11.743318 ], [ 37.438822, 11.741412 ], [ 37.436525, 11.740019 ], [ 37.434696, 11.739721 ], [ 37.432548, 11.738615 ], [ 37.430386, 11.738571 ], [ 37.429143, 11.739174 ], [ 37.428118, 11.740242 ], [ 37.426648, 11.740836 ], [ 37.425853, 11.741663 ], [ 37.425036, 11.74168 ], [ 37.423903, 11.74113 ], [ 37.42346, 11.74027 ], [ 37.424169, 11.738892 ], [ 37.424444, 11.737484 ], [ 37.426669, 11.735003 ], [ 37.427532, 11.733687 ], [ 37.428614, 11.733336 ], [ 37.428886, 11.73222 ], [ 37.429997, 11.730387 ], [ 37.428603, 11.728908 ], [ 37.428902, 11.727739 ], [ 37.42888, 11.726669 ], [ 37.429419, 11.726152 ], [ 37.430557, 11.72386 ], [ 37.431942, 11.722497 ], [ 37.432643, 11.722157 ], [ 37.433907, 11.720544 ], [ 37.435291, 11.718048 ], [ 37.436081, 11.715613 ], [ 37.438052, 11.712525 ], [ 37.438042, 11.710296 ], [ 37.438338, 11.709722 ], [ 37.436963, 11.707234 ], [ 37.436403, 11.706696 ], [ 37.435825, 11.704992 ], [ 37.435846, 11.703979 ], [ 37.434442, 11.703058 ], [ 37.433058, 11.700275 ], [ 37.431936, 11.698885 ], [ 37.431958, 11.697789 ], [ 37.430862, 11.697225 ], [ 37.429272, 11.696914 ], [ 37.42773, 11.69342 ], [ 37.425439, 11.692517 ], [ 37.423948, 11.690552 ], [ 37.423509, 11.688405 ], [ 37.42493, 11.687039 ], [ 37.424365, 11.685299 ], [ 37.422503, 11.683886 ], [ 37.421158, 11.683558 ], [ 37.418339, 11.681959 ], [ 37.418025, 11.679815 ], [ 37.421086, 11.677808 ], [ 37.422125, 11.676275 ], [ 37.423053, 11.674164 ], [ 37.424447, 11.672503 ], [ 37.425273, 11.670867 ], [ 37.426634, 11.667072 ], [ 37.425558, 11.663331 ], [ 37.423058, 11.660489 ], [ 37.424892, 11.658464 ], [ 37.424447, 11.655275 ], [ 37.423467, 11.652324 ], [ 37.419813, 11.648111 ], [ 37.418409, 11.64719 ], [ 37.41791, 11.645652 ], [ 37.415892, 11.64516 ], [ 37.41528, 11.643053 ], [ 37.412734, 11.64165 ], [ 37.410558, 11.639496 ], [ 37.410909, 11.637993 ], [ 37.411386, 11.637497 ], [ 37.413415, 11.636839 ], [ 37.414431, 11.635863 ], [ 37.414997, 11.634207 ], [ 37.414305, 11.63127 ], [ 37.413637, 11.629214 ], [ 37.410739, 11.623078 ], [ 37.41028, 11.621664 ], [ 37.409714, 11.620828 ], [ 37.409739, 11.6196 ], [ 37.40832, 11.618869 ], [ 37.405859, 11.61892 ], [ 37.405003, 11.617657 ], [ 37.406968, 11.615892 ], [ 37.408719, 11.615465 ], [ 37.409719, 11.612544 ], [ 37.409779, 11.609575 ], [ 37.40863, 11.606741 ], [ 37.40967, 11.604176 ], [ 37.410542, 11.596571 ], [ 37.409615, 11.593865 ], [ 37.410398, 11.591935 ], [ 37.409398, 11.589625 ], [ 37.409453, 11.586958 ], [ 37.408929, 11.585427 ], [ 37.408832, 11.580681 ], [ 37.40926, 11.579799 ], [ 37.410822, 11.579042 ], [ 37.410874, 11.576481 ], [ 37.410499, 11.575707 ], [ 37.406961, 11.573198 ], [ 37.406806, 11.572083 ], [ 37.405683, 11.57224 ], [ 37.40674, 11.57402 ], [ 37.409716, 11.576226 ], [ 37.409747, 11.577733 ], [ 37.409112, 11.578702 ], [ 37.406947, 11.580782 ], [ 37.407617, 11.586058 ], [ 37.407037, 11.587752 ], [ 37.407712, 11.589832 ], [ 37.409164, 11.591745 ], [ 37.408892, 11.593336 ], [ 37.407413, 11.598044 ], [ 37.408316, 11.601166 ], [ 37.407428, 11.607072 ], [ 37.409038, 11.610595 ], [ 37.406392, 11.61528 ], [ 37.405362, 11.615956 ], [ 37.404447, 11.617732 ], [ 37.405292, 11.619175 ], [ 37.405264, 11.620544 ], [ 37.407358, 11.621208 ], [ 37.408586, 11.622827 ], [ 37.408902, 11.625409 ], [ 37.411965, 11.631355 ], [ 37.411926, 11.63326 ], [ 37.412457, 11.635852 ], [ 37.410394, 11.63581 ], [ 37.408211, 11.636182 ], [ 37.407068, 11.635628 ], [ 37.406362, 11.633566 ], [ 37.406698, 11.63028 ], [ 37.405003, 11.629458 ], [ 37.404993, 11.628975 ], [ 37.406899, 11.627726 ], [ 37.405847, 11.625559 ], [ 37.404484, 11.625531 ], [ 37.403411, 11.626084 ], [ 37.402963, 11.624704 ], [ 37.400855, 11.624747 ], [ 37.400003, 11.62349 ], [ 37.400453, 11.622767 ], [ 37.40193, 11.622797 ], [ 37.402762, 11.621182 ], [ 37.402799, 11.619358 ], [ 37.400578, 11.617902 ], [ 37.400548, 11.616414 ], [ 37.40085, 11.61579 ], [ 37.401942, 11.614741 ], [ 37.401392, 11.614442 ], [ 37.398623, 11.614055 ], [ 37.398582, 11.612053 ], [ 37.400842, 11.609162 ], [ 37.400819, 11.60806 ], [ 37.403331, 11.60613 ], [ 37.402393, 11.60562 ], [ 37.400333, 11.606619 ], [ 37.399245, 11.607664 ], [ 37.398839, 11.61099 ], [ 37.398055, 11.611394 ], [ 37.397519, 11.610836 ], [ 37.396942, 11.611108 ], [ 37.395553, 11.611942 ], [ 37.395219, 11.612971 ], [ 37.393967, 11.611769 ], [ 37.39472, 11.610308 ], [ 37.393886, 11.610281 ], [ 37.392954, 11.609363 ], [ 37.393977, 11.60231 ], [ 37.395275, 11.601681 ], [ 37.394943, 11.598947 ], [ 37.39222, 11.598614 ], [ 37.389753, 11.596487 ], [ 37.38778, 11.597503 ], [ 37.386235, 11.598005 ], [ 37.383579, 11.600017 ], [ 37.382223, 11.601372 ], [ 37.381947, 11.602503 ], [ 37.380852, 11.603221 ], [ 37.380558, 11.604725 ], [ 37.379997, 11.604725 ], [ 37.378919, 11.604169 ], [ 37.378532, 11.604855 ], [ 37.379441, 11.606618 ], [ 37.379481, 11.608598 ], [ 37.37863, 11.60901 ], [ 37.377894, 11.613706 ], [ 37.378696, 11.616841 ], [ 37.37997, 11.617497 ], [ 37.381913, 11.61667 ], [ 37.383321, 11.616641 ], [ 37.383646, 11.617591 ], [ 37.383614, 11.62028 ], [ 37.382888, 11.622646 ], [ 37.380594, 11.624977 ], [ 37.375836, 11.625559 ], [ 37.373358, 11.625563 ], [ 37.371711, 11.624504 ], [ 37.373848, 11.620581 ], [ 37.375432, 11.619954 ], [ 37.375847, 11.619148 ], [ 37.375805, 11.617068 ], [ 37.376386, 11.614229 ], [ 37.375836, 11.611942 ], [ 37.374466, 11.609169 ], [ 37.37361, 11.609571 ], [ 37.37059, 11.613695 ], [ 37.370175, 11.615821 ], [ 37.368353, 11.615819 ], [ 37.367208, 11.61692 ], [ 37.367263, 11.61963 ], [ 37.366683, 11.620824 ], [ 37.365066, 11.620857 ], [ 37.362465, 11.618614 ], [ 37.361936, 11.61917 ], [ 37.361953, 11.619997 ], [ 37.360325, 11.62003 ], [ 37.357376, 11.617331 ], [ 37.35599, 11.616392 ], [ 37.355429, 11.617098 ], [ 37.355831, 11.618336 ], [ 37.356664, 11.619565 ], [ 37.355534, 11.620541 ], [ 37.352607, 11.61997 ], [ 37.351386, 11.619169 ], [ 37.351414, 11.617799 ], [ 37.350212, 11.616985 ], [ 37.349186, 11.618052 ], [ 37.347657, 11.617225 ], [ 37.347208, 11.617789 ], [ 37.347256, 11.620125 ], [ 37.346919, 11.621506 ], [ 37.345201, 11.622632 ], [ 37.344711, 11.623642 ], [ 37.341715, 11.623581 ], [ 37.34001, 11.625219 ], [ 37.339996, 11.626979 ], [ 37.341663, 11.62858 ], [ 37.341675, 11.629153 ], [ 37.340264, 11.630553 ], [ 37.34029, 11.631842 ], [ 37.337662, 11.632593 ], [ 37.335648, 11.634606 ], [ 37.335162, 11.636598 ], [ 37.333036, 11.635258 ], [ 37.331685, 11.635286 ], [ 37.329496, 11.634725 ], [ 37.329367, 11.636028 ], [ 37.329815, 11.638216 ], [ 37.329447, 11.639725 ], [ 37.328625, 11.640124 ], [ 37.328228, 11.643772 ], [ 37.32587, 11.64609 ], [ 37.321307, 11.646434 ], [ 37.31679, 11.648192 ], [ 37.315275, 11.649997 ], [ 37.314741, 11.651097 ], [ 37.313322, 11.651803 ], [ 37.313325, 11.653031 ], [ 37.313744, 11.653894 ], [ 37.315275, 11.654898 ], [ 37.314081, 11.657775 ], [ 37.31277, 11.657214 ], [ 37.31196, 11.65723 ], [ 37.309481, 11.65518 ], [ 37.308608, 11.653892 ], [ 37.308258, 11.65174 ], [ 37.306647, 11.651188 ], [ 37.304935, 11.652487 ], [ 37.301141, 11.652453 ], [ 37.300558, 11.653058 ], [ 37.298186, 11.653348 ], [ 37.295553, 11.654997 ], [ 37.294462, 11.656078 ], [ 37.293343, 11.658837 ], [ 37.29331, 11.660471 ], [ 37.293744, 11.661811 ], [ 37.294954, 11.663036 ], [ 37.296391, 11.66333 ], [ 37.29722, 11.663892 ], [ 37.298336, 11.664164 ], [ 37.298892, 11.664742 ], [ 37.300786, 11.664703 ], [ 37.301392, 11.664997 ], [ 37.301947, 11.665831 ], [ 37.302292, 11.667243 ], [ 37.304445, 11.669429 ], [ 37.304752, 11.671312 ], [ 37.306378, 11.67184 ], [ 37.306397, 11.672773 ], [ 37.305258, 11.674185 ], [ 37.305258, 11.676941 ], [ 37.307791, 11.676947 ], [ 37.308592, 11.676114 ], [ 37.309725, 11.676386 ], [ 37.310286, 11.67697 ], [ 37.313074, 11.676953 ], [ 37.314998, 11.675019 ], [ 37.315355, 11.673916 ], [ 37.318328, 11.675175 ], [ 37.318336, 11.675558 ], [ 37.315558, 11.677352 ], [ 37.316929, 11.678847 ], [ 37.317006, 11.682579 ], [ 37.316319, 11.68495 ], [ 37.317497, 11.686081 ], [ 37.315062, 11.688491 ], [ 37.315678, 11.690388 ], [ 37.316576, 11.691323 ], [ 37.318309, 11.692497 ], [ 37.320949, 11.692073 ], [ 37.322391, 11.690687 ], [ 37.322949, 11.687262 ], [ 37.324662, 11.686431 ], [ 37.326079, 11.685069 ], [ 37.326691, 11.68356 ], [ 37.326647, 11.681398 ], [ 37.328008, 11.68137 ], [ 37.331168, 11.684873 ], [ 37.335816, 11.685327 ], [ 37.341978, 11.687505 ], [ 37.344695, 11.688855 ], [ 37.345258, 11.689441 ], [ 37.350061, 11.689539 ], [ 37.351265, 11.687511 ], [ 37.353024, 11.687475 ], [ 37.353478, 11.687911 ], [ 37.354325, 11.690521 ], [ 37.357786, 11.691381 ], [ 37.357759, 11.692742 ], [ 37.359419, 11.694682 ], [ 37.359897, 11.695609 ], [ 37.360286, 11.699697 ], [ 37.359758, 11.700786 ], [ 37.357187, 11.701204 ], [ 37.35723, 11.703298 ], [ 37.355798, 11.706172 ], [ 37.355853, 11.708858 ], [ 37.354169, 11.709725 ], [ 37.352991, 11.710012 ], [ 37.349042, 11.711703 ], [ 37.34722, 11.71418 ], [ 37.346108, 11.71472 ], [ 37.34381, 11.716648 ], [ 37.341477, 11.716648 ], [ 37.340275, 11.716942 ], [ 37.338637, 11.718052 ], [ 37.337249, 11.718081 ], [ 37.336114, 11.71722 ], [ 37.334164, 11.716947 ], [ 37.333336, 11.716386 ], [ 37.33229, 11.716407 ], [ 37.328807, 11.715172 ], [ 37.326291, 11.712225 ], [ 37.324134, 11.712543 ], [ 37.32263, 11.715066 ], [ 37.323359, 11.717313 ], [ 37.324435, 11.719402 ], [ 37.324508, 11.722952 ], [ 37.322327, 11.726055 ], [ 37.321683, 11.72804 ], [ 37.32082, 11.728625 ], [ 37.319464, 11.728597 ], [ 37.318886, 11.729153 ], [ 37.318897, 11.729705 ], [ 37.317907, 11.73104 ], [ 37.315655, 11.7322 ], [ 37.312497, 11.731947 ], [ 37.31175, 11.731563 ], [ 37.310558, 11.732759 ], [ 37.309894, 11.734804 ], [ 37.305829, 11.737977 ], [ 37.305769, 11.743295 ], [ 37.308809, 11.743666 ], [ 37.309277, 11.745033 ], [ 37.308865, 11.747043 ], [ 37.308918, 11.749647 ], [ 37.308544, 11.750741 ], [ 37.308647, 11.755772 ], [ 37.307007, 11.759967 ], [ 37.308027, 11.761472 ], [ 37.308331, 11.763336 ], [ 37.309305, 11.765672 ], [ 37.308608, 11.767775 ], [ 37.3083, 11.771552 ], [ 37.306392, 11.772478 ], [ 37.306725, 11.774548 ], [ 37.308056, 11.775004 ], [ 37.310584, 11.773745 ], [ 37.310503, 11.769794 ], [ 37.311631, 11.76862 ], [ 37.314651, 11.768559 ], [ 37.315819, 11.769682 ], [ 37.31615, 11.770972 ], [ 37.315558, 11.773614 ], [ 37.312005, 11.782729 ], [ 37.311611, 11.784744 ], [ 37.310459, 11.787459 ], [ 37.308196, 11.788011 ], [ 37.305734, 11.789623 ], [ 37.303608, 11.79222 ], [ 37.303336, 11.793058 ], [ 37.301964, 11.795263 ], [ 37.300581, 11.79527 ], [ 37.298358, 11.796364 ], [ 37.29684, 11.798245 ], [ 37.295448, 11.801453 ], [ 37.294301, 11.80201 ], [ 37.293614, 11.803058 ], [ 37.291664, 11.804164 ], [ 37.29026, 11.805297 ], [ 37.287396, 11.805239 ], [ 37.28502, 11.805542 ], [ 37.281115, 11.809392 ], [ 37.281124, 11.810771 ], [ 37.27842, 11.814334 ], [ 37.27518, 11.816664 ], [ 37.271702, 11.81528 ], [ 37.270152, 11.815991 ], [ 37.267817, 11.817763 ], [ 37.265056, 11.817819 ], [ 37.263668, 11.817104 ], [ 37.259568, 11.816332 ], [ 37.255663, 11.816371 ], [ 37.253495, 11.816794 ], [ 37.252223, 11.818017 ], [ 37.251874, 11.821942 ], [ 37.251108, 11.821669 ], [ 37.250575, 11.821114 ], [ 37.250019, 11.821103 ], [ 37.24914, 11.82168 ], [ 37.248163, 11.823693 ], [ 37.24564, 11.823177 ], [ 37.244593, 11.82521 ], [ 37.24405, 11.827435 ], [ 37.241394, 11.828563 ], [ 37.241089, 11.830436 ], [ 37.240088, 11.830921 ], [ 37.239466, 11.832203 ], [ 37.238614, 11.83278 ], [ 37.236942, 11.833053 ], [ 37.236141, 11.833886 ], [ 37.235561, 11.833377 ], [ 37.235245, 11.831762 ], [ 37.231392, 11.828886 ], [ 37.226561, 11.826072 ], [ 37.225351, 11.82444 ], [ 37.22418, 11.824464 ], [ 37.21278, 11.818608 ], [ 37.211662, 11.818245 ], [ 37.208456, 11.816305 ], [ 37.207603, 11.815005 ], [ 37.206441, 11.815013 ], [ 37.203022, 11.813884 ], [ 37.201397, 11.813047 ], [ 37.193892, 11.810275 ], [ 37.184169, 11.807497 ], [ 37.178941, 11.806392 ], [ 37.175553, 11.806664 ], [ 37.174997, 11.807512 ], [ 37.172471, 11.808347 ], [ 37.171125, 11.808341 ], [ 37.168232, 11.805422 ], [ 37.161108, 11.804725 ], [ 37.160516, 11.80442 ], [ 37.152423, 11.804188 ], [ 37.149569, 11.80384 ], [ 37.148328, 11.801649 ], [ 37.146359, 11.802663 ], [ 37.143058, 11.801664 ], [ 37.140831, 11.801392 ], [ 37.139752, 11.800836 ], [ 37.139372, 11.801509 ], [ 37.139978, 11.802758 ], [ 37.141227, 11.803605 ], [ 37.143013, 11.803586 ], [ 37.143886, 11.804425 ], [ 37.14278, 11.804725 ], [ 37.135955, 11.805096 ], [ 37.133988, 11.80605 ], [ 37.13059, 11.808297 ], [ 37.129442, 11.80972 ], [ 37.128647, 11.811294 ], [ 37.127244, 11.815799 ], [ 37.124241, 11.819456 ], [ 37.122613, 11.821903 ], [ 37.121947, 11.824447 ], [ 37.120567, 11.827638 ], [ 37.120536, 11.829137 ], [ 37.121371, 11.830821 ], [ 37.12202, 11.831445 ], [ 37.122696, 11.834909 ], [ 37.124355, 11.836635 ], [ 37.126108, 11.837503 ], [ 37.128611, 11.838059 ], [ 37.130237, 11.837503 ], [ 37.130003, 11.838336 ], [ 37.128603, 11.840562 ], [ 37.128619, 11.841381 ], [ 37.128229, 11.842138 ], [ 37.130351, 11.843499 ], [ 37.131158, 11.845066 ], [ 37.131108, 11.847503 ], [ 37.133331, 11.851947 ], [ 37.134197, 11.853089 ], [ 37.13417, 11.855003 ], [ 37.132503, 11.857461 ], [ 37.132779, 11.859195 ], [ 37.133614, 11.859997 ], [ 37.134171, 11.861944 ], [ 37.133722, 11.862816 ], [ 37.134716, 11.864283 ], [ 37.134747, 11.86883 ], [ 37.134447, 11.869447 ], [ 37.133364, 11.870158 ], [ 37.132084, 11.874049 ], [ 37.130553, 11.875553 ], [ 37.13027, 11.876712 ], [ 37.128896, 11.878032 ], [ 37.128001, 11.879803 ], [ 37.128608, 11.88217 ], [ 37.128305, 11.883779 ], [ 37.126235, 11.886908 ], [ 37.125275, 11.88722 ], [ 37.123926, 11.888243 ], [ 37.121671, 11.886455 ], [ 37.121658, 11.885847 ], [ 37.122497, 11.883397 ], [ 37.120957, 11.883021 ], [ 37.120558, 11.881386 ], [ 37.120003, 11.880308 ], [ 37.123653, 11.87635 ], [ 37.123586, 11.873068 ], [ 37.126099, 11.872237 ], [ 37.126806, 11.870816 ], [ 37.128046, 11.870842 ], [ 37.12928, 11.868807 ], [ 37.128597, 11.867481 ], [ 37.128647, 11.865029 ], [ 37.1271, 11.864112 ], [ 37.125843, 11.862256 ], [ 37.125815, 11.860923 ], [ 37.126956, 11.857731 ], [ 37.127774, 11.856142 ], [ 37.127797, 11.852518 ], [ 37.125558, 11.851031 ], [ 37.126664, 11.849752 ], [ 37.125343, 11.849067 ], [ 37.124714, 11.84723 ], [ 37.124742, 11.845848 ], [ 37.122319, 11.844855 ], [ 37.121828, 11.842841 ], [ 37.121136, 11.841414 ], [ 37.119483, 11.840563 ], [ 37.115477, 11.839319 ], [ 37.113873, 11.840292 ], [ 37.112248, 11.840259 ], [ 37.110297, 11.842219 ], [ 37.108956, 11.842209 ], [ 37.10848, 11.844164 ], [ 37.107085, 11.843075 ], [ 37.1064, 11.841665 ], [ 37.10387, 11.841356 ], [ 37.103903, 11.839736 ], [ 37.103331, 11.838892 ], [ 37.102942, 11.836902 ], [ 37.101844, 11.835282 ], [ 37.102466, 11.833465 ], [ 37.102514, 11.831114 ], [ 37.099178, 11.831125 ], [ 37.098615, 11.830031 ], [ 37.098603, 11.829469 ], [ 37.099551, 11.827516 ], [ 37.1027, 11.824775 ], [ 37.105211, 11.823513 ], [ 37.105844, 11.821906 ], [ 37.107453, 11.820361 ], [ 37.108215, 11.818387 ], [ 37.109442, 11.817792 ], [ 37.108132, 11.816126 ], [ 37.106806, 11.815803 ], [ 37.107313, 11.813825 ], [ 37.106573, 11.812299 ], [ 37.105006, 11.811539 ], [ 37.104997, 11.811109 ], [ 37.105286, 11.810547 ], [ 37.105243, 11.808425 ], [ 37.105831, 11.806386 ], [ 37.106772, 11.805052 ], [ 37.107796, 11.80472 ], [ 37.109164, 11.803363 ], [ 37.108474, 11.802577 ], [ 37.104776, 11.800983 ], [ 37.102575, 11.801434 ], [ 37.1002, 11.799725 ], [ 37.099522, 11.800109 ], [ 37.099042, 11.801099 ], [ 37.096982, 11.801141 ], [ 37.09589, 11.800401 ], [ 37.095095, 11.803264 ], [ 37.092503, 11.804984 ], [ 37.092241, 11.808265 ], [ 37.091817, 11.809572 ], [ 37.089783, 11.810268 ], [ 37.088378, 11.810297 ], [ 37.086707, 11.809725 ], [ 37.084596, 11.810061 ], [ 37.08388, 11.811117 ], [ 37.083892, 11.811669 ], [ 37.082771, 11.813356 ], [ 37.081759, 11.814328 ], [ 37.081392, 11.815836 ], [ 37.080558, 11.816637 ], [ 37.081436, 11.817132 ], [ 37.082503, 11.815558 ], [ 37.082924, 11.814261 ], [ 37.084208, 11.81339 ], [ 37.085274, 11.814414 ], [ 37.085326, 11.816957 ], [ 37.084746, 11.820358 ], [ 37.08473, 11.823279 ], [ 37.084447, 11.824725 ], [ 37.082257, 11.826937 ], [ 37.078021, 11.828424 ], [ 37.07807, 11.830831 ], [ 37.077477, 11.831118 ], [ 37.076556, 11.832076 ], [ 37.075193, 11.831042 ], [ 37.067492, 11.831102 ], [ 37.066707, 11.831919 ], [ 37.06569, 11.832443 ], [ 37.061727, 11.832524 ], [ 37.060092, 11.831965 ], [ 37.056949, 11.832851 ], [ 37.055268, 11.834097 ], [ 37.055281, 11.834733 ], [ 37.053694, 11.835503 ], [ 37.052213, 11.836926 ], [ 37.052242, 11.83833 ], [ 37.050564, 11.838319 ], [ 37.05016, 11.839501 ], [ 37.050592, 11.840341 ], [ 37.05028, 11.8464 ], [ 37.048634, 11.847199 ], [ 37.04753, 11.848653 ], [ 37.047475, 11.851357 ], [ 37.048037, 11.851942 ], [ 37.049699, 11.852481 ], [ 37.049997, 11.855836 ], [ 37.051368, 11.858545 ], [ 37.051392, 11.860847 ], [ 37.050536, 11.861669 ], [ 37.05058, 11.863819 ], [ 37.049135, 11.864171 ], [ 37.046569, 11.866384 ], [ 37.045144, 11.8682 ], [ 37.043501, 11.868733 ], [ 37.041128, 11.871079 ], [ 37.040555, 11.871953 ], [ 37.038892, 11.871919 ], [ 37.038897, 11.873603 ], [ 37.038074, 11.875266 ], [ 37.036669, 11.876615 ], [ 37.036942, 11.877503 ], [ 37.037728, 11.878663 ], [ 37.037225, 11.88278 ], [ 37.036303, 11.885275 ], [ 37.035553, 11.885003 ], [ 37.035132, 11.883705 ], [ 37.033768, 11.88278 ], [ 37.032821, 11.883141 ], [ 37.032379, 11.884956 ], [ 37.031031, 11.885302 ], [ 37.029185, 11.885264 ], [ 37.026483, 11.886656 ], [ 37.025013, 11.886686 ], [ 37.024197, 11.885836 ], [ 37.022871, 11.886678 ], [ 37.023883, 11.888172 ], [ 37.023937, 11.890812 ], [ 37.020393, 11.890885 ], [ 37.019181, 11.890297 ], [ 37.018881, 11.889714 ], [ 37.018914, 11.888073 ], [ 37.016942, 11.887503 ], [ 37.016032, 11.885054 ], [ 37.012996, 11.884277 ], [ 37.007749, 11.88528 ], [ 37.006136, 11.886111 ], [ 37.00189, 11.886657 ], [ 37.000281, 11.888892 ], [ 36.999372, 11.889333 ], [ 36.997238, 11.894099 ], [ 36.997199, 11.896002 ], [ 36.998053, 11.898303 ], [ 36.996631, 11.900316 ], [ 36.996652, 11.903332 ], [ 36.998588, 11.906524 ], [ 36.998869, 11.909997 ], [ 37.000814, 11.910036 ], [ 37.001724, 11.907933 ], [ 37.001114, 11.906152 ], [ 37.00149, 11.904173 ], [ 37.002203, 11.904159 ], [ 37.003058, 11.90472 ], [ 37.006108, 11.909447 ], [ 37.007503, 11.911108 ], [ 37.008053, 11.912503 ], [ 37.009772, 11.913866 ], [ 37.011037, 11.918546 ], [ 37.011909, 11.919383 ], [ 37.015212, 11.923825 ], [ 37.018769, 11.92452 ], [ 37.019164, 11.926947 ], [ 37.021675, 11.931937 ], [ 37.021664, 11.932502 ], [ 37.022481, 11.934974 ], [ 37.02381, 11.936286 ], [ 37.02392, 11.94166 ], [ 37.022732, 11.942046 ], [ 37.022781, 11.945003 ], [ 37.020895, 11.945747 ], [ 37.020769, 11.951917 ], [ 37.02222, 11.952621 ], [ 37.021727, 11.953412 ], [ 37.020275, 11.953058 ], [ 37.017172, 11.951669 ], [ 37.016876, 11.952375 ], [ 37.017497, 11.953581 ], [ 37.017225, 11.954169 ], [ 37.016395, 11.954572 ], [ 37.016363, 11.956108 ], [ 37.016936, 11.95612 ], [ 37.017772, 11.955689 ], [ 37.017374, 11.958097 ], [ 37.01912, 11.967314 ], [ 37.021185, 11.970224 ], [ 37.022497, 11.971114 ], [ 37.023858, 11.971446 ], [ 37.022513, 11.972738 ], [ 37.022225, 11.978614 ], [ 37.021417, 11.979806 ], [ 37.021051, 11.982053 ], [ 37.0197, 11.984047 ], [ 37.019753, 11.986629 ], [ 37.018577, 11.98723 ], [ 37.01778, 11.988058 ], [ 37.015836, 11.988438 ], [ 37.016166, 11.991007 ], [ 37.017097, 11.991459 ], [ 37.018752, 11.997703 ], [ 37.020549, 11.998418 ], [ 37.020586, 12.000227 ], [ 37.019992, 12.001381 ], [ 37.021088, 12.004065 ], [ 37.021388, 12.008363 ], [ 37.022219, 12.01079 ], [ 37.022247, 12.012178 ], [ 37.021558, 12.013228 ], [ 37.019479, 12.013735 ], [ 37.018761, 12.017338 ], [ 37.018085, 12.018042 ], [ 37.015418, 12.018689 ], [ 37.014579, 12.019926 ], [ 37.012317, 12.025114 ], [ 37.013123, 12.0271 ], [ 37.012225, 12.028843 ], [ 37.012565, 12.032373 ], [ 37.014252, 12.037145 ], [ 37.013336, 12.038026 ], [ 37.013902, 12.039751 ], [ 37.013875, 12.041086 ], [ 37.015564, 12.043047 ], [ 37.016369, 12.04553 ], [ 37.01716, 12.046353 ], [ 37.018917, 12.046948 ], [ 37.020326, 12.05156 ], [ 37.021131, 12.05195 ], [ 37.021103, 12.053325 ], [ 37.021809, 12.054697 ], [ 37.020282, 12.057729 ], [ 37.020264, 12.058587 ], [ 37.021023, 12.060458 ], [ 37.021609, 12.06286 ], [ 37.023886, 12.063599 ], [ 37.023959, 12.067187 ], [ 37.021669, 12.068485 ], [ 37.021942, 12.069169 ], [ 37.022498, 12.069704 ], [ 37.022775, 12.070558 ], [ 37.023366, 12.070845 ], [ 37.023977, 12.075023 ], [ 37.023046, 12.076396 ], [ 37.023614, 12.077497 ], [ 37.023886, 12.079169 ], [ 37.026636, 12.083864 ], [ 37.027497, 12.084447 ], [ 37.028892, 12.08472 ], [ 37.029173, 12.086733 ], [ 37.030553, 12.08778 ], [ 37.031669, 12.088053 ], [ 37.033288, 12.088886 ], [ 37.037488, 12.0894 ], [ 37.037791, 12.090881 ], [ 37.037797, 12.093286 ], [ 37.0375, 12.093897 ], [ 37.036789, 12.092433 ], [ 37.035308, 12.091669 ], [ 37.033394, 12.091976 ], [ 37.029878, 12.0945 ], [ 37.029164, 12.095553 ], [ 37.028747, 12.097264 ], [ 37.02778, 12.098892 ], [ 37.026392, 12.099921 ], [ 37.02749, 12.105279 ], [ 37.028614, 12.105553 ], [ 37.028886, 12.107503 ], [ 37.029718, 12.109933 ], [ 37.029708, 12.113325 ], [ 37.030061, 12.113665 ], [ 37.030831, 12.116392 ], [ 37.033172, 12.120822 ], [ 37.03496, 12.120858 ], [ 37.036081, 12.12028 ], [ 37.036538, 12.121907 ], [ 37.036073, 12.122865 ], [ 37.033736, 12.123435 ], [ 37.03419, 12.125654 ], [ 37.034159, 12.127195 ], [ 37.034531, 12.129377 ], [ 37.033143, 12.130711 ], [ 37.032252, 12.132025 ], [ 37.032775, 12.134169 ], [ 37.033595, 12.135001 ], [ 37.035548, 12.135318 ], [ 37.035585, 12.137147 ], [ 37.035036, 12.13875 ], [ 37.036107, 12.141878 ], [ 37.03615, 12.144011 ], [ 37.035836, 12.147225 ], [ 37.035003, 12.148026 ], [ 37.035609, 12.151354 ], [ 37.034725, 12.152203 ], [ 37.035257, 12.154417 ], [ 37.036077, 12.15527 ], [ 37.037261, 12.155655 ], [ 37.03778, 12.156664 ], [ 37.038394, 12.159056 ], [ 37.037639, 12.160522 ], [ 37.038593, 12.162488 ], [ 37.039274, 12.163142 ], [ 37.040759, 12.167139 ], [ 37.04222, 12.168592 ], [ 37.042506, 12.169473 ], [ 37.044145, 12.171892 ], [ 37.045247, 12.17524 ], [ 37.045553, 12.175558 ], [ 37.048608, 12.176565 ], [ 37.047503, 12.182041 ], [ 37.047933, 12.18365 ], [ 37.050275, 12.18778 ], [ 37.051479, 12.188074 ], [ 37.05292, 12.190017 ], [ 37.055266, 12.189969 ], [ 37.055937, 12.194982 ], [ 37.057756, 12.19502 ], [ 37.058768, 12.194333 ], [ 37.059685, 12.195215 ], [ 37.059997, 12.200003 ], [ 37.061265, 12.201574 ], [ 37.060434, 12.203624 ], [ 37.061108, 12.206392 ], [ 37.061675, 12.207492 ], [ 37.061659, 12.208314 ], [ 37.06367, 12.211309 ], [ 37.062867, 12.212493 ], [ 37.063603, 12.212508 ], [ 37.06422, 12.21219 ], [ 37.066049, 12.214658 ], [ 37.072431, 12.2207 ], [ 37.074849, 12.222534 ], [ 37.082157, 12.226847 ], [ 37.084554, 12.227237 ], [ 37.085275, 12.228336 ], [ 37.087317, 12.228669 ], [ 37.089607, 12.231615 ], [ 37.090939, 12.232261 ], [ 37.092107, 12.233837 ], [ 37.092791, 12.234169 ], [ 37.093331, 12.23528 ], [ 37.094973, 12.236858 ], [ 37.096002, 12.2406 ], [ 37.094813, 12.242204 ], [ 37.093383, 12.242552 ], [ 37.09278, 12.245493 ], [ 37.093331, 12.247503 ], [ 37.095121, 12.248608 ], [ 37.096683, 12.248334 ], [ 37.097513, 12.247469 ], [ 37.100168, 12.247523 ], [ 37.101401, 12.247223 ], [ 37.101952, 12.246088 ], [ 37.102775, 12.245297 ], [ 37.102781, 12.244997 ], [ 37.100876, 12.244533 ], [ 37.099757, 12.241947 ], [ 37.101223, 12.242445 ], [ 37.103608, 12.243892 ], [ 37.10528, 12.244164 ], [ 37.107335, 12.244997 ], [ 37.109447, 12.244725 ], [ 37.111442, 12.244148 ], [ 37.114895, 12.244485 ], [ 37.116736, 12.245602 ], [ 37.119509, 12.245546 ], [ 37.121505, 12.247026 ], [ 37.122762, 12.248334 ], [ 37.124725, 12.248608 ], [ 37.125868, 12.249197 ], [ 37.1276, 12.249162 ], [ 37.128323, 12.25139 ], [ 37.129997, 12.251717 ], [ 37.129221, 12.254809 ], [ 37.129981, 12.256375 ], [ 37.131965, 12.257226 ], [ 37.13325, 12.258564 ], [ 37.135913, 12.259549 ], [ 37.136942, 12.261669 ], [ 37.138401, 12.262025 ], [ 37.139769, 12.264844 ], [ 37.142879, 12.267011 ], [ 37.144382, 12.268575 ], [ 37.145509, 12.269155 ], [ 37.149169, 12.270508 ], [ 37.158585, 12.269664 ], [ 37.162378, 12.267991 ], [ 37.163657, 12.265836 ], [ 37.164984, 12.267555 ], [ 37.164169, 12.269137 ], [ 37.165612, 12.268819 ], [ 37.166316, 12.268142 ], [ 37.165667, 12.266144 ], [ 37.164522, 12.265772 ], [ 37.163753, 12.26262 ], [ 37.16253, 12.261445 ], [ 37.160825, 12.257769 ], [ 37.161392, 12.257225 ], [ 37.161698, 12.249725 ], [ 37.163303, 12.250553 ], [ 37.164985, 12.250024 ], [ 37.168608, 12.247497 ], [ 37.171803, 12.245686 ], [ 37.172483, 12.245033 ], [ 37.173075, 12.243574 ], [ 37.173022, 12.24098 ], [ 37.174425, 12.240299 ], [ 37.175272, 12.239051 ], [ 37.175269, 12.236394 ], [ 37.176375, 12.234764 ], [ 37.176807, 12.233076 ], [ 37.175815, 12.231083 ], [ 37.174715, 12.227183 ], [ 37.173892, 12.225587 ], [ 37.173881, 12.225008 ], [ 37.174223, 12.224342 ], [ 37.173203, 12.220969 ], [ 37.173881, 12.218879 ], [ 37.175121, 12.21972 ], [ 37.176836, 12.219352 ], [ 37.177504, 12.218056 ], [ 37.177231, 12.216381 ], [ 37.176382, 12.215565 ], [ 37.176675, 12.214709 ], [ 37.17667, 12.213608 ], [ 37.17528, 12.21327 ], [ 37.175556, 12.212489 ], [ 37.17771, 12.21179 ], [ 37.178331, 12.210585 ], [ 37.177907, 12.208372 ], [ 37.176609, 12.207951 ], [ 37.175003, 12.20558 ], [ 37.176555, 12.20315 ], [ 37.179069, 12.201122 ], [ 37.181114, 12.200836 ], [ 37.181388, 12.199433 ], [ 37.183036, 12.198633 ], [ 37.183906, 12.19735 ], [ 37.18388, 12.196109 ], [ 37.185836, 12.195836 ], [ 37.186374, 12.195277 ], [ 37.189071, 12.1949 ], [ 37.189453, 12.194159 ], [ 37.189427, 12.192917 ], [ 37.191359, 12.191947 ], [ 37.192283, 12.192375 ], [ 37.193036, 12.194696 ], [ 37.194916, 12.196619 ], [ 37.195616, 12.19698 ], [ 37.197973, 12.196932 ], [ 37.202007, 12.19739 ], [ 37.204004, 12.195875 ], [ 37.205926, 12.195251 ], [ 37.209095, 12.191669 ], [ 37.21223, 12.191969 ], [ 37.21333, 12.193025 ], [ 37.213383, 12.195616 ], [ 37.212798, 12.198013 ], [ 37.211713, 12.199842 ], [ 37.209941, 12.200296 ], [ 37.207297, 12.200243 ], [ 37.205414, 12.201477 ], [ 37.206094, 12.204964 ], [ 37.207103, 12.206664 ], [ 37.209928, 12.205633 ], [ 37.212619, 12.20672 ], [ 37.213371, 12.209039 ], [ 37.214627, 12.209686 ], [ 37.216669, 12.209163 ], [ 37.217385, 12.210256 ], [ 37.219972, 12.210308 ], [ 37.221075, 12.208855 ], [ 37.221474, 12.206403 ], [ 37.224725, 12.206114 ], [ 37.225803, 12.205558 ], [ 37.226437, 12.206114 ], [ 37.226376, 12.2091 ], [ 37.226847, 12.211032 ], [ 37.228167, 12.212034 ], [ 37.231992, 12.213014 ], [ 37.234704, 12.213069 ], [ 37.235286, 12.212769 ], [ 37.236381, 12.212792 ], [ 37.238053, 12.211664 ], [ 37.238892, 12.211392 ], [ 37.239676, 12.209776 ], [ 37.241632, 12.211102 ], [ 37.243577, 12.211141 ], [ 37.246669, 12.209725 ], [ 37.250831, 12.206942 ], [ 37.252711, 12.206635 ], [ 37.253163, 12.204873 ], [ 37.252315, 12.203623 ], [ 37.253886, 12.201268 ], [ 37.252821, 12.199014 ], [ 37.25382, 12.198499 ], [ 37.255167, 12.200553 ], [ 37.255854, 12.200273 ], [ 37.256828, 12.199259 ], [ 37.25852, 12.198847 ], [ 37.257636, 12.196264 ], [ 37.258444, 12.195424 ], [ 37.260098, 12.196679 ], [ 37.262211, 12.196636 ], [ 37.262497, 12.197225 ], [ 37.263795, 12.19853 ], [ 37.265737, 12.200098 ], [ 37.271061, 12.199752 ], [ 37.272688, 12.198914 ], [ 37.273168, 12.200316 ], [ 37.271737, 12.202834 ], [ 37.272481, 12.203608 ], [ 37.273892, 12.203336 ], [ 37.274632, 12.202206 ], [ 37.277209, 12.202259 ], [ 37.278297, 12.200016 ], [ 37.280771, 12.199169 ], [ 37.27991, 12.201609 ], [ 37.278401, 12.202099 ], [ 37.277225, 12.204382 ], [ 37.277596, 12.205606 ], [ 37.278989, 12.205249 ], [ 37.281605, 12.205302 ], [ 37.282775, 12.203331 ], [ 37.284723, 12.202774 ], [ 37.286386, 12.204169 ], [ 37.288614, 12.204442 ], [ 37.291186, 12.20515 ], [ 37.293608, 12.206518 ], [ 37.293336, 12.207225 ], [ 37.292693, 12.207537 ], [ 37.291134, 12.20916 ], [ 37.288617, 12.210381 ], [ 37.288592, 12.211641 ], [ 37.289936, 12.212956 ], [ 37.291376, 12.215752 ], [ 37.292051, 12.219207 ], [ 37.293253, 12.220828 ], [ 37.296114, 12.221108 ], [ 37.296533, 12.223256 ], [ 37.298749, 12.223689 ], [ 37.299805, 12.225247 ], [ 37.299676, 12.231563 ], [ 37.300214, 12.232671 ], [ 37.303603, 12.233085 ], [ 37.303625, 12.234143 ], [ 37.302784, 12.236215 ], [ 37.302759, 12.237471 ], [ 37.30346, 12.238832 ], [ 37.302225, 12.239431 ], [ 37.302253, 12.243018 ], [ 37.301564, 12.243735 ], [ 37.300157, 12.24278 ], [ 37.298703, 12.243179 ], [ 37.297553, 12.245412 ], [ 37.296976, 12.247099 ], [ 37.297552, 12.251232 ], [ 37.29972, 12.252503 ], [ 37.300836, 12.252775 ], [ 37.302133, 12.257484 ], [ 37.301392, 12.258614 ], [ 37.300558, 12.259018 ], [ 37.301113, 12.260012 ], [ 37.303239, 12.260702 ], [ 37.30472, 12.263058 ], [ 37.309732, 12.265774 ], [ 37.309707, 12.266985 ], [ 37.312496, 12.269101 ], [ 37.31528, 12.270831 ], [ 37.316942, 12.273892 ], [ 37.318465, 12.274492 ], [ 37.319466, 12.27602 ], [ 37.322138, 12.276934 ], [ 37.324997, 12.276992 ], [ 37.323892, 12.276108 ], [ 37.32028, 12.274061 ], [ 37.320833, 12.273607 ], [ 37.326849, 12.276302 ], [ 37.327509, 12.276936 ], [ 37.327481, 12.278286 ], [ 37.32787, 12.279087 ], [ 37.329522, 12.279757 ], [ 37.331669, 12.279725 ], [ 37.334344, 12.279177 ], [ 37.33617, 12.279463 ], [ 37.338371, 12.279418 ], [ 37.341209, 12.279765 ], [ 37.342786, 12.280277 ], [ 37.342758, 12.281652 ], [ 37.346206, 12.281723 ], [ 37.34771, 12.281234 ], [ 37.348625, 12.279457 ], [ 37.348591, 12.27778 ], [ 37.349457, 12.276926 ], [ 37.351638, 12.275836 ], [ 37.353531, 12.275466 ], [ 37.358053, 12.273608 ], [ 37.361297, 12.273025 ], [ 37.365275, 12.271664 ], [ 37.367835, 12.271306 ], [ 37.368886, 12.270297 ], [ 37.368957, 12.266791 ], [ 37.368329, 12.265252 ], [ 37.366659, 12.265286 ], [ 37.364068, 12.263988 ], [ 37.363349, 12.262507 ], [ 37.361669, 12.261262 ], [ 37.362852, 12.260932 ], [ 37.365486, 12.263601 ], [ 37.369835, 12.26369 ], [ 37.372696, 12.263202 ], [ 37.373412, 12.264293 ], [ 37.376712, 12.265525 ], [ 37.378015, 12.264169 ], [ 37.380151, 12.264673 ], [ 37.381798, 12.265472 ], [ 37.383886, 12.267225 ], [ 37.384725, 12.267497 ], [ 37.386942, 12.268892 ], [ 37.390059, 12.269197 ], [ 37.391947, 12.271386 ], [ 37.39222, 12.273614 ], [ 37.392764, 12.274137 ], [ 37.393599, 12.277214 ], [ 37.394731, 12.277237 ], [ 37.394709, 12.276137 ], [ 37.396664, 12.276097 ], [ 37.39729, 12.277388 ], [ 37.398557, 12.27804 ], [ 37.40082, 12.278086 ], [ 37.402181, 12.27667 ], [ 37.405797, 12.276648 ], [ 37.406682, 12.277227 ], [ 37.407486, 12.278886 ], [ 37.408066, 12.279168 ], [ 37.408775, 12.282075 ], [ 37.409981, 12.283331 ], [ 37.411619, 12.283863 ], [ 37.412562, 12.28448 ], [ 37.413859, 12.285831 ], [ 37.417129, 12.28538 ], [ 37.417911, 12.284566 ], [ 37.418592, 12.285275 ], [ 37.426497, 12.282047 ], [ 37.429459, 12.279718 ], [ 37.429425, 12.278058 ], [ 37.433144, 12.280174 ], [ 37.43602, 12.28234 ], [ 37.437376, 12.284408 ], [ 37.438336, 12.28472 ], [ 37.439164, 12.286114 ], [ 37.440558, 12.286386 ], [ 37.441942, 12.287225 ], [ 37.443073, 12.287501 ], [ 37.444137, 12.288608 ], [ 37.445163, 12.287244 ], [ 37.446878, 12.287209 ], [ 37.448884, 12.287699 ], [ 37.44888, 12.288888 ], [ 37.449893, 12.289552 ], [ 37.450701, 12.290784 ], [ 37.451695, 12.291125 ], [ 37.453478, 12.291088 ], [ 37.454555, 12.293309 ], [ 37.456834, 12.29368 ], [ 37.458477, 12.296656 ], [ 37.463599, 12.298318 ], [ 37.464997, 12.299447 ], [ 37.466947, 12.300275 ], [ 37.468308, 12.301308 ], [ 37.470688, 12.301918 ], [ 37.473848, 12.300836 ], [ 37.478379, 12.30223 ], [ 37.479938, 12.303853 ], [ 37.481081, 12.304442 ], [ 37.482503, 12.304169 ], [ 37.485417, 12.303287 ], [ 37.488616, 12.304107 ] ], [ [ 37.302361, 12.212639 ], [ 37.303081, 12.21303 ], [ 37.303863, 12.215025 ], [ 37.305191, 12.216554 ], [ 37.30402, 12.216919 ], [ 37.303203, 12.215735 ], [ 37.300191, 12.217324 ], [ 37.29947, 12.216144 ], [ 37.30119, 12.215702 ], [ 37.301919, 12.214404 ], [ 37.301232, 12.212767 ], [ 37.302361, 12.212639 ] ], [ [ 37.294041, 12.213572 ], [ 37.293353, 12.21268 ], [ 37.293073, 12.211468 ], [ 37.294306, 12.210972 ], [ 37.294478, 12.211592 ], [ 37.295296, 12.211927 ], [ 37.295538, 12.213793 ], [ 37.294041, 12.213572 ] ], [ [ 37.565665, 12.187355 ], [ 37.565081, 12.188348 ], [ 37.563349, 12.18836 ], [ 37.563683, 12.185674 ], [ 37.564583, 12.185417 ], [ 37.565665, 12.187355 ] ], [ [ 37.189416, 12.161454 ], [ 37.188868, 12.163315 ], [ 37.186802, 12.162713 ], [ 37.186407, 12.161494 ], [ 37.187269, 12.160829 ], [ 37.18875, 12.160417 ], [ 37.189416, 12.161454 ] ], [ [ 37.042768, 12.085955 ], [ 37.043895, 12.086734 ], [ 37.044141, 12.089132 ], [ 37.043053, 12.089419 ], [ 37.042803, 12.086919 ], [ 37.042197, 12.086137 ], [ 37.04197, 12.085311 ], [ 37.042639, 12.085139 ], [ 37.042768, 12.085955 ] ], [ [ 37.608913, 12.059738 ], [ 37.610412, 12.062206 ], [ 37.610139, 12.062917 ], [ 37.608275, 12.060235 ], [ 37.608913, 12.059738 ] ], [ [ 37.610659, 12.063237 ], [ 37.611713, 12.06638 ], [ 37.61159, 12.066773 ], [ 37.610944, 12.066571 ], [ 37.609898, 12.063454 ], [ 37.610139, 12.062917 ], [ 37.610659, 12.063237 ] ], [ [ 37.266134, 11.944203 ], [ 37.265825, 11.943603 ], [ 37.265847, 11.942514 ], [ 37.265003, 11.941942 ], [ 37.263115, 11.94131 ], [ 37.262059, 11.942409 ], [ 37.260989, 11.941889 ], [ 37.259989, 11.940414 ], [ 37.260008, 11.939453 ], [ 37.258331, 11.938892 ], [ 37.257207, 11.93805 ], [ 37.256669, 11.936942 ], [ 37.255562, 11.936582 ], [ 37.255575, 11.934752 ], [ 37.255274, 11.934167 ], [ 37.256588, 11.931616 ], [ 37.255261, 11.930972 ], [ 37.255298, 11.92917 ], [ 37.254714, 11.929158 ], [ 37.253925, 11.929979 ], [ 37.25167, 11.930025 ], [ 37.252189, 11.927393 ], [ 37.250068, 11.926157 ], [ 37.250719, 11.924255 ], [ 37.249662, 11.92371 ], [ 37.249037, 11.924997 ], [ 37.248323, 11.924544 ], [ 37.248347, 11.923337 ], [ 37.247783, 11.923325 ], [ 37.246546, 11.924164 ], [ 37.245558, 11.922295 ], [ 37.245937, 11.920646 ], [ 37.246729, 11.919012 ], [ 37.248606, 11.917898 ], [ 37.248631, 11.91667 ], [ 37.244196, 11.916636 ], [ 37.241587, 11.918886 ], [ 37.240007, 11.918558 ], [ 37.239986, 11.917516 ], [ 37.242806, 11.915543 ], [ 37.243808, 11.914501 ], [ 37.245431, 11.915056 ], [ 37.24612, 11.914722 ], [ 37.24608, 11.912781 ], [ 37.246931, 11.912764 ], [ 37.248177, 11.913608 ], [ 37.249415, 11.911471 ], [ 37.247169, 11.911106 ], [ 37.245511, 11.909051 ], [ 37.24604, 11.906983 ], [ 37.245154, 11.904393 ], [ 37.245602, 11.901642 ], [ 37.247214, 11.901675 ], [ 37.247503, 11.901114 ], [ 37.247476, 11.899781 ], [ 37.248025, 11.898649 ], [ 37.248581, 11.898069 ], [ 37.249722, 11.897679 ], [ 37.251626, 11.898331 ], [ 37.252688, 11.897431 ], [ 37.253615, 11.894722 ], [ 37.253329, 11.894167 ], [ 37.254164, 11.892109 ], [ 37.251992, 11.891336 ], [ 37.25054, 11.890352 ], [ 37.248811, 11.891664 ], [ 37.248133, 11.890888 ], [ 37.247773, 11.889411 ], [ 37.246932, 11.887778 ], [ 37.247937, 11.885331 ], [ 37.249788, 11.884207 ], [ 37.251081, 11.885553 ], [ 37.251669, 11.88528 ], [ 37.25203, 11.884169 ], [ 37.252701, 11.884556 ], [ 37.253064, 11.885303 ], [ 37.254703, 11.88527 ], [ 37.255978, 11.886106 ], [ 37.25677, 11.887739 ], [ 37.258087, 11.88806 ], [ 37.25941, 11.889437 ], [ 37.261691, 11.890291 ], [ 37.262503, 11.890275 ], [ 37.263551, 11.891344 ], [ 37.264843, 11.89222 ], [ 37.266403, 11.891625 ], [ 37.267319, 11.890745 ], [ 37.269017, 11.88695 ], [ 37.269687, 11.886937 ], [ 37.271624, 11.887768 ], [ 37.272497, 11.887786 ], [ 37.273886, 11.886769 ], [ 37.273059, 11.884753 ], [ 37.273031, 11.883365 ], [ 37.274378, 11.881962 ], [ 37.274861, 11.881806 ], [ 37.2762, 11.883476 ], [ 37.278602, 11.885257 ], [ 37.278581, 11.88745 ], [ 37.278894, 11.888056 ], [ 37.278058, 11.888859 ], [ 37.27972, 11.89028 ], [ 37.281114, 11.890553 ], [ 37.284068, 11.892862 ], [ 37.286947, 11.893331 ], [ 37.288971, 11.89503 ], [ 37.291778, 11.894972 ], [ 37.294164, 11.896392 ], [ 37.298331, 11.896762 ], [ 37.297225, 11.898732 ], [ 37.298013, 11.900552 ], [ 37.298875, 11.900569 ], [ 37.300121, 11.899725 ], [ 37.301382, 11.901185 ], [ 37.301404, 11.902248 ], [ 37.299169, 11.902202 ], [ 37.300062, 11.904587 ], [ 37.29935, 11.906007 ], [ 37.29972, 11.906392 ], [ 37.301247, 11.906764 ], [ 37.302225, 11.908053 ], [ 37.303455, 11.911106 ], [ 37.301159, 11.911092 ], [ 37.300542, 11.911391 ], [ 37.298886, 11.914998 ], [ 37.298903, 11.915813 ], [ 37.297505, 11.916841 ], [ 37.297486, 11.917747 ], [ 37.298301, 11.918595 ], [ 37.299695, 11.919508 ], [ 37.298092, 11.921049 ], [ 37.297742, 11.921728 ], [ 37.297769, 11.925275 ], [ 37.298582, 11.925291 ], [ 37.299642, 11.924929 ], [ 37.300008, 11.92528 ], [ 37.299975, 11.926927 ], [ 37.302218, 11.927765 ], [ 37.300607, 11.929442 ], [ 37.296969, 11.927225 ], [ 37.295003, 11.928374 ], [ 37.295275, 11.93028 ], [ 37.296108, 11.93151 ], [ 37.294965, 11.932497 ], [ 37.292763, 11.932224 ], [ 37.291964, 11.931392 ], [ 37.291403, 11.931381 ], [ 37.291108, 11.931664 ], [ 37.290688, 11.933816 ], [ 37.289474, 11.934442 ], [ 37.288509, 11.933995 ], [ 37.288947, 11.932288 ], [ 37.287578, 11.930864 ], [ 37.286516, 11.9305 ], [ 37.282747, 11.931671 ], [ 37.281539, 11.932928 ], [ 37.277678, 11.931716 ], [ 37.276664, 11.933053 ], [ 37.276392, 11.934447 ], [ 37.275844, 11.934974 ], [ 37.275547, 11.936129 ], [ 37.275569, 11.937186 ], [ 37.274725, 11.938859 ], [ 37.276115, 11.940832 ], [ 37.27528, 11.943614 ], [ 37.274647, 11.944548 ], [ 37.275506, 11.946664 ], [ 37.274226, 11.945589 ], [ 37.273158, 11.94722 ], [ 37.272174, 11.946934 ], [ 37.270716, 11.945416 ], [ 37.269426, 11.944998 ], [ 37.268614, 11.944153 ], [ 37.266134, 11.944203 ] ], [ [ 37.307461, 11.89503 ], [ 37.308279, 11.893877 ], [ 37.308345, 11.893047 ], [ 37.30792, 11.89268 ], [ 37.309712, 11.890938 ], [ 37.308621, 11.889789 ], [ 37.309502, 11.888748 ], [ 37.310417, 11.888472 ], [ 37.312494, 11.890244 ], [ 37.315309, 11.89047 ], [ 37.317133, 11.889177 ], [ 37.318535, 11.889981 ], [ 37.319378, 11.892481 ], [ 37.317884, 11.894412 ], [ 37.316442, 11.895055 ], [ 37.315988, 11.896564 ], [ 37.314456, 11.897419 ], [ 37.311782, 11.896836 ], [ 37.31035, 11.897957 ], [ 37.306537, 11.897458 ], [ 37.305844, 11.896216 ], [ 37.306333, 11.89494 ], [ 37.307461, 11.89503 ] ], [ [ 37.253232, 11.879783 ], [ 37.254279, 11.878913 ], [ 37.255149, 11.877502 ], [ 37.25625, 11.877361 ], [ 37.256124, 11.878902 ], [ 37.255081, 11.879545 ], [ 37.254036, 11.881375 ], [ 37.252899, 11.880724 ], [ 37.251607, 11.881654 ], [ 37.251264, 11.880456 ], [ 37.251934, 11.87965 ], [ 37.253232, 11.879783 ] ], [ [ 37.492101, 11.861413 ], [ 37.491548, 11.863707 ], [ 37.491883, 11.865398 ], [ 37.490898, 11.866366 ], [ 37.489779, 11.865656 ], [ 37.489467, 11.864273 ], [ 37.490069, 11.861777 ], [ 37.490999, 11.860825 ], [ 37.491806, 11.860694 ], [ 37.492101, 11.861413 ] ], [ [ 37.473472, 11.836528 ], [ 37.474326, 11.837672 ], [ 37.474114, 11.839107 ], [ 37.472513, 11.83887 ], [ 37.47224, 11.836737 ], [ 37.473472, 11.836528 ] ], [ [ 37.365393, 11.650751 ], [ 37.365218, 11.651935 ], [ 37.363871, 11.652974 ], [ 37.361746, 11.653945 ], [ 37.36074, 11.65355 ], [ 37.360873, 11.652646 ], [ 37.363155, 11.652164 ], [ 37.363911, 11.650317 ], [ 37.364861, 11.649583 ], [ 37.365393, 11.650751 ] ], [ [ 37.369069, 11.644788 ], [ 37.368064, 11.646331 ], [ 37.366908, 11.646072 ], [ 37.366414, 11.645163 ], [ 37.367525, 11.644748 ], [ 37.367934, 11.644156 ], [ 37.36875, 11.644028 ], [ 37.369069, 11.644788 ] ] ] } }
]
}
