{
"type": "FeatureCollection",
"name": "basins",
"crs": { "type": "name", "properties": { "name": "urn:ogc:def:crs:OGC:1.3:CRS84" } },
"features": [
{ "type": "Feature", "properties": { "value": 1.0 }, "geometry": { "type": "Polygon", "coordinates": [ [ [ 36.944, 11.522 ], [ 36.944, 11.514 ], [ 36.92, 11.514 ], [ 36.92, 11.522 ], [ 36.944, 11.522 ] ] ] } },
{ "type": "Feature", "properties": { "value": 2.0 }, "geometry": { "type": "Polygon", "coordinates": [ [ [ 37.0, 11.522 ], [ 37.0, 11.514 ], [ 36.976, 11.514 ], [ 36.976, 11.522 ], [ 37.0, 11.522 ] ] ] } },
{ "type": "Feature", "properties": { "value": 3.0 }, "geometry": { "type": "Polygon", "coordinates": [ [ [ 37.016, 11.522 ], [ 37.016, 11.514 ], [ 37.0, 11.514 ], [ 37.0, 11.522 ], [ 37.016, 11.522 ] ] ] } },
{ "type": "Feature", "properties": { "value": 4.0 }, "geometry": { "type": "Polygon", "coordinates": [ [ [ 36.92, 11.522 ], [ 36.92, 11.514 ], [ 36.936, 11.514 ], [ 36.936, 11.506 ], [ 36.952, 11.506 ], [ 36.952, 11.514 ], [ 36.944, 11.514 ], [ 36.944, 11.522 ], [ 36.976, 11.522 ], [ 36.976, 11.514 ], [ 37.016, 11.514 ], [ 37.016, 11.522 ], [ 37.048, 11.522 ], [ 37.048, 11.514 ], [ 37.056, 11.514 ], [ 37.056, 11.49 ], [ 37.048, 11.49 ], [ 37.048, 11.466 ], [ 37.064, 11.466 ], [ 37.064, 11.458 ], [ 37.072, 11.458 ], [ 37.072, 11.45 ], [ 37.08, 11.45 ], [ 37.08, 11.458 ], [ 37.088, 11.458 ], [ 37.088, 11.45 ], [ 37.096, 11.45 ], [ 37.096, 11.442 ], [ 37.104, 11.442 ], [ 37.104, 11.434 ], [ 37.112, 11.434 ], [ 37.112, 11.426 ], [ 37.12, 11.426 ], [ 37.12, 11.418 ], [ 37.144, 11.418 ], [ 37.144, 11.41 ], [ 37.152, 11.41 ], [ 37.152, 11.394 ], [ 37.16, 11.394 ], [ 37.16, 11.386 ], [ 37.168, 11.386 ], [ 37.168, 11.394 ], [ 37.192, 11.394 ], [ 37.192, 11.386 ], [ 37.216, 11.386 ], [ 37.216, 11.394 ], [ 37.248, 11.394 ], [ 37.248, 11.402 ], [ 37.256, 11.402 ], [ 37.256, 11.394 ], [ 37.296, 11.394 ], [ 37.296, 11.362 ], [ 37.288, 11.362 ], [ 37.288, 11.354 ], [ 37.272, 11.354 ], [ 37.272, 11.346 ], [ 37.264, 11.346 ], [ 37.264, 11.33 ], [ 37.256, 11.33 ], [ 37.256, 11.322 ], [ 37.264, 11.322 ], [ 37.264, 11.306 ], [ 37.256, 11.306 ], [ 37.256, 11.298 ], [ 37.264, 11.298 ], [ 37.264, 11.266 ], [ 37.272, 11.266 ], [ 37.272, 11.25 ], [ 37.28, 11.25 ], [ 37.28, 11.234 ], [ 37.288, 11.234 ], [ 37.288, 11.162 ], [ 37.296, 11.162 ], [ 37.296, 11.17 ], [ 37.304, 11.17 ], [ 37.304, 11.162 ], [ 37.312, 11.162 ], [ 37.312, 11.154 ], [ 37.32, 11.154 ], [ 37.32, 11.138 ], [ 37.328, 11.138 ], [ 37.328, 11.13 ], [ 37.344, 11.13 ], [ 37.344, 11.122 ], [ 37.392, 11.122 ], [ 37.392, 11.114 ], [ 37.384, 11.114 ], [ 37.384, 11.106 ], [ 37.392, 11.106 ], [ 37.392, 11.09 ], [ 37.384, 11.09 ], [ 37.384, 11.082 ], [ 37.376, 11.082 ], [ 37.376, 11.074 ], [ 37.368, 11.074 ], [ 37.368, 11.066 ], [ 37.36, 11.066 ], [ 37.36, 11.058 ], [ 37.288, 11.058 ], [ 37.288, 11.05 ], [ 37.272, 11.05 ], [ 37.272, 11.042 ], [ 37.256, 11.042 ], [ 37.256, 11.026 ], [ 37.248, 11.026 ], [ 37.248, 11.01 ], [ 37.256, 11.01 ], [ 37.256, 10.994 ], [ 37.264, 10.994 ], [ 37.264, 10.978 ], [ 37.24, 10.978 ], [ 37.24, 10.97 ], [ 37.2, 10.97 ], [ 37.2, 10.962 ], [ 37.184, 10.962 ], [ 37.184, 10.954 ], [ 37.176, 10.954 ], [ 37.176, 10.946 ], [ 37.16, 10.946 ], [ 37.16, 10.954 ], [ 37.152, 10.954 ], [ 37.152, 10.97 ], [ 37.128, 10.97 ], [ 37.128, 10.978 ], [ 37.072, 10.978 ], [ 37.072, 10.97 ], [ 37.048, 10.97 ], [ 37.048, 10.978 ], [ 37.04, 10.978 ], [ 37.04, 10.986 ], [ 37.032, 10.986 ], [ 37.032, 10.994 ], [ 37.008, 10.994 ], [ 37.008, 11.002 ], [ 36.984, 11.002 ], [ 36.984, 11.01 ], [ 36.968, 11.01 ], [ 36.968, 11.002 ], [ 36.936, 11.002 ], [ 36.936, 10.994 ], [ 36.92, 10.994 ], [ 36.92, 11.002 ], [ 36.904, 11.002 ], [ 36.904, 10.994 ], [ 36.896, 10.994 ], [ 36.896, 11.002 ], [ 36.88, 11.002 ], [ 36.88, 11.01 ], [ 36.888, 11.01 ], [ 36.888, 11.05 ], [ 36.896, 11.05 ], [ 36.896, 11.074 ], [ 36.864, 11.074 ], [ 36.864, 11.082 ], [ 36.856, 11.082 ], [ 36.856, 11.09 ], [ 36.84, 11.09 ], [ 36.84, 11.098 ], [ 36.832, 11.098 ], [ 36.832, 11.122 ], [ 36.84, 11.122 ], [ 36.84, 11.13 ], [ 36.848, 11.13 ], [ 36.848, 11.138 ], [ 36.856, 11.138 ], [ 36.856, 11.154 ], [ 36.848, 11.154 ], [ 36.848, 11.162 ], [ 36.84, 11.162 ], [ 36.84, 11.17 ], [ 36.824, 11.17 ], [ 36.824, 11.194 ], [ 36.816, 11.194 ], [ 36.816, 11.218 ], [ 36.808, 11.218 ], [ 36.808, 11.234 ], [ 36.8, 11.234 ], [ 36.8, 11.242 ], [ 36.752, 11.242 ], [ 36.752, 11.25 ], [ 36.736, 11.25 ], [ 36.736, 11.258 ], [ 36.744, 11.258 ], [ 36.744, 11.266 ], [ 36.752, 11.266 ], [ 36.752, 11.282 ], [ 36.76, 11.282 ], [ 36.76, 11.29 ], [ 36.752, 11.29 ], [ 36.752, 11.314 ], [ 36.744, 11.314 ], [ 36.744, 11.322 ], [ 36.752, 11.322 ], [ 36.752, 11.354 ], [ 36.76, 11.354 ], [ 36.76, 11.362 ], [ 36.768, 11.362 ], [ 36.768, 11.378 ], [ 36.8, 11.378 ], [ 36.8, 11.386 ], [ 36.792, 11.386 ], [ 36.792, 11.402 ], [ 36.8, 11.402 ], [ 36.8, 11.442 ], [ 36.808, 11.442 ], [ 36.808, 11.466 ], [ 36.816, 11.466 ], [ 36.816, 11.474 ], [ 36.808, 11.474 ], [ 36.808, 11.522 ], [ 36.92, 11.522 ] ] ] } },
{ "type": "Feature", "properties": { "value": 5.0 }, "geometry": { "type": "Polygon", "coordinates": [ [ [ 37.064, 11.522 ], [ 37.064, 11.506 ], [ 37.056, 11.506 ], [ 37.056, 11.514 ], [ 37.048, 11.514 ], [ 37.048, 11.522 ], [ 37.064, 11.522 ] ] ] } },
{ "type": "Feature", "properties": { "value": 6.0 }, "geometry": { "type": "Polygon", "coordinates": [ [ [ 37.072, 11.522 ], [ 37.072, 11.506 ], [ 37.096, 11.506 ], [ 37.096, 11.49 ], [ 37.088, 11.49 ], [ 37.088, 11.474 ], [ 37.096, 11.474 ], [ 37.096, 11.45 ], [ 37.088, 11.45 ], [ 37.088, 11.458 ], [ 37.08, 11.458 ], [ 37.08, 11.45 ], [ 37.072, 11.45 ], [ 37.072, 11.458 ], [ 37.064, 11.458 ], [ 37.064, 11.466 ], [ 37.048, 11.466 ], [ 37.048, 11.49 ], [ 37.056, 11.49 ], [ 37.056, 11.506 ], [ 37.064, 11.506 ], [ 37.064, 11.522 ], [ 37.072, 11.522 ] ] ] } },
{ "type": "Feature", "properties": { "value": 7.0 }, "geometry": { "type": "Polygon", "coordinates": [ [ [ 37.08, 11.522 ], [ 37.08, 11.514 ], [ 37.088, 11.514 ], [ 37.088, 11.506 ], [ 37.072, 11.506 ], [ 37.072, 11.522 ], [ 37.08, 11.522 ] ] ] } },
{ "type": "Feature", "properties": { "value": 8.0 }, "geometry": { "type": "Polygon", "coordinates": [ [ [ 37.088, 11.522 ], [ 37.088, 11.514 ], [ 37.08, 11.514 ], [ 37.08, 11.522 ], [ 37.088, 11.522 ] ] ] } },
{ "type": "Feature", "properties": { "value": 9.0 }, "geometry": { "type": "Polygon", "coordinates": [ [ [ 37.096, 11.522 ], [ 37.096, 11.514 ], [ 37.104, 11.514 ], [ 37.104, 11.506 ], [ 37.112, 11.506 ], [ 37.112, 11.474 ], [ 37.12, 11.474 ], [ 37.12, 11.466 ], [ 37.128, 11.466 ], [ 37.128, 11.426 ], [ 37.136, 11.426 ], [ 37.136, 11.418 ], [ 37.12, 11.418 ], [ 37.12, 11.426 ], [ 37.112, 11.426 ], [ 37.112, 11.434 ], [ 37.104, 11.434 ], [ 37.104, 11.442 ], [ 37.096, 11.442 ], [ 37.096, 11.474 ], [ 37.088, 11.474 ], [ 37.088, 11.49 ], [ 37.096, 11.49 ], [ 37.096, 11.506 ], [ 37.088, 11.506 ], [ 37.088, 11.522 ], [ 37.096, 11.522 ] ] ] } },
{ "type": "Feature", "properties": { "value": 10.0 }, "geometry": { "type": "Polygon", "coordinates": [ [ [ 37.112, 11.522 ], [ 37.112, 11.514 ], [ 37.096, 11.514 ], [ 37.096, 11.522 ], [ 37.112, 11.522 ] ] ] } },
{ "type": "Feature", "properties": { "value": 11.0 }, "geometry": { "type": "Polygon", "coordinates": [ [ [ 37.12, 11.522 ], [ 37.12, 11.498 ], [ 37.112, 11.498 ], [ 37.112, 11.506 ], [ 37.104, 11.506 ], [ 37.104, 11.514 ], [ 37.112, 11.514 ], [ 37.112, 11.522 ], [ 37.12, 11.522 ] ] ] } },
{ "type": "Feature", "properties": { "value": 12.0 }, "geometry": { "type": "Polygon", "coordinates": [ [ [ 37.128, 11.522 ], [ 37.128, 11.514 ], [ 37.12, 11.514 ], [ 37.12, 11.522 ], [ 37.128, 11.522 ] ] ] } },
{ "type": "Feature", "properties": { "value": 13.0 }, "geometry": { "type": "Polygon", "coordinates": [ [ [ 37.136, 11.522 ], [ 37.136, 11.514 ], [ 37.152, 11.514 ], [ 37.152, 11.522 ], [ 37.176, 11.522 ], [ 37.176, 11.514 ], [ 37.184, 11.514 ], [ 37.184, 11.522 ], [ 37.192, 11.522 ], [ 37.192, 11.506 ], [ 37.184, 11.506 ], [ 37.184, 11.498 ], [ 37.192, 11.498 ], [ 37.192, 11.49 ], [ 37.216, 11.49 ], [ 37.216, 11.482 ], [ 37.224, 11.482 ], [ 37.224, 11.434 ], [ 37.24, 11.434 ], [ 37.24, 11.426 ], [ 37.248, 11.426 ], [ 37.248, 11.394 ], [ 37.216, 11.394 ], [ 37.216, 11.386 ], [ 37.192, 11.386 ], [ 37.192, 11.394 ], [ 37.168, 11.394 ], [ 37.168, 11.386 ], [ 37.16, 11.386 ], [ 37.16, 11.394 ], [ 37.152, 11.394 ], [ 37.152, 11.41 ], [ 37.144, 11.41 ], [ 37.144, 11.418 ], [ 37.136, 11.418 ], [ 37.136, 11.426 ], [ 37.128, 11.426 ], [ 37.128, 11.466 ], [ 37.12, 11.466 ], [ 37.12, 11.474 ], [ 37.112, 11.474 ], [ 37.112, 11.498 ], [ 37.12, 11.498 ], [ 37.12, 11.514 ], [ 37.128, 11.514 ], [ 37.128, 11.522 ], [ 37.136, 11.522 ] ] ] } },
{ "type": "Feature", "properties": { "value": 14.0 }, "geometry": { "type": "Polygon", "coordinates": [ [ [ 37.144, 11.522 ], [ 37.144, 11.514 ], [ 37.136, 11.514 ], [ 37.136, 11.522 ], [ 37.144, 11.522 ] ] ] } },
{ "type": "Feature", "properties": { "value": 15.0 }, "geometry": { "type": "Polygon", "coordinates": [ [ [ 37.152, 11.522 ], [ 37.152, 11.514 ], [ 37.144, 11.514 ], [ 37.144, 11.522 ], [ 37.152, 11.522 ] ] ] } },
{ "type": "Feature", "properties": { "value": 16.0 }, "geometry": { "type": "Polygon", "coordinates": [ [ [ 37.184, 11.522 ], [ 37.184, 11.514 ], [ 37.176, 11.514 ], [ 37.176, 11.522 ], [ 37.184, 11.522 ] ] ] } },
{ "type": "Feature", "properties": { "value": 17.0 }, "geometry": { "type": "Polygon", "coordinates": [ [ [ 37.224, 11.522 ], [ 37.224, 11.514 ], [ 37.232, 11.514 ], [ 37.232, 11.474 ], [ 37.224, 11.474 ], [ 37.224, 11.482 ], [ 37.216, 11.482 ], [ 37.216, 11.49 ], [ 37.192, 11.49 ], [ 37.192, 11.498 ], [ 37.184, 11.498 ], [ 37.184, 11.506 ], [ 37.192, 11.506 ], [ 37.192, 11.522 ], [ 37.224, 11.522 ] ] ] } },
{ "type": "Feature", "properties": { "value": 18.0 }, "geometry": { "type": "Polygon", "coordinates": [ [ [ 37.232, 11.522 ], [ 37.232, 11.514 ], [ 37.224, 11.514 ], [ 37.224, 11.522 ], [ 37.232, 11.522 ] ] ] } },
{ "type": "Feature", "properties": { "value": 19.0 }, "geometry": { "type": "Polygon", "coordinates": [ [ [ 37.24, 11.522 ], [ 37.24, 11.514 ], [ 37.232, 11.514 ], [ 37.232, 11.522 ], [ 37.24, 11.522 ] ] ] } },
{ "type": "Feature", "properties": { "value": 20.0 }, "geometry": { "type": "MultiPolygon", "coordinates": [ [ [ [ 37.24, 11.522 ], [ 37.256, 11.522 ], [ 37.256, 11.514 ], [ 37.24, 11.514 ], [ 37.24, 11.522 ] ] ], [ [ [ 37.24, 11.506 ], [ 37.232, 11.506 ], [ 37.232, 11.514 ], [ 37.24, 11.514 ], [ 37.24, 11.506 ] ] ] ] } },
{ "type": "Feature", "properties": { "value": 21.0 }, "geometry": { "type": "Polygon", "coordinates": [ [ [ 37.272, 11.522 ], [ 37.272, 11.514 ], [ 37.28, 11.514 ], [ 37.28, 11.466 ], [ 37.288, 11.466 ], [ 37.288, 11.45 ], [ 37.28, 11.45 ], [ 37.28, 11.402 ], [ 37.272, 11.402 ], [ 37.272, 11.394 ], [ 37.256, 11.394 ], [ 37.256, 11.402 ], [ 37.248, 11.402 ], [ 37.248, 11.426 ], [ 37.24, 11.426 ], [ 37.24, 11.434 ], [ 37.224, 11.434 ], [ 37.224, 11.474 ], [ 37.232, 11.474 ], [ 37.232, 11.506 ], [ 37.24, 11.506 ], [ 37.24, 11.514 ], [ 37.256, 11.514 ], [ 37.256, 11.522 ], [ 37.272, 11.522 ] ] ] } },
{ "type": "Feature", "properties": { "value": 22.0 }, "geometry": { "type": "Polygon", "coordinates": [ [ [ 37.312, 11.522 ], [ 37.312, 11.514 ], [ 37.304, 11.514 ], [ 37.304, 11.498 ], [ 37.296, 11.498 ], [ 37.296, 11.49 ], [ 37.28, 11.49 ], [ 37.28, 11.514 ], [ 37.272, 11.514 ], [ 37.272, 11.522 ], [ 37.312, 11.522 ] ] ] } },
{ "type": "Feature", "properties": { "value": 23.0 }, "geometry": { "type": "Polygon", "coordinates": [ [ [ 37.32, 11.522 ], [ 37.32, 11.506 ], [ 37.312, 11.506 ], [ 37.312, 11.498 ], [ 37.304, 11.498 ], [ 37.304, 11.514 ], [ 37.312, 11.514 ], [ 37.312, 11.522 ], [ 37.32, 11.522 ] ] ] } },
{ "type": "Feature", "properties": { "value": 24.0 }, "geometry": { "type": "Polygon", "coordinates": [ [ [ 37.328, 11.522 ], [ 37.328, 11.514 ], [ 37.32, 11.514 ], [ 37.32, 11.522 ], [ 37.328, 11.522 ] ] ] } },
{ "type": "Feature", "properties": { "value": 25.0 }, "geometry": { "type": "Polygon", "coordinates": [ [ [ 37.392, 11.522 ], [ 37.392, 11.514 ], [ 37.384, 11.514 ], [ 37.384, 11.522 ], [ 37.392, 11.522 ] ] ] } },
{ "type": "Feature", "properties": { "value": 26.0 }, "geometry": { "type": "Polygon", "coordinates": [ [ [ 37.4, 11.522 ], [ 37.4, 11.514 ], [ 37.392, 11.514 ], [ 37.392, 11.522 ], [ 37.4, 11.522 ] ] ] } },
{ "type": "Feature", "properties": { "value": 27.0 }, "geometry": { "type": "Polygon", "coordinates": [ [ [ 36.76, 11.522 ], [ 36.76, 11.514 ], [ 36.744, 11.514 ], [ 36.744, 11.498 ], [ 36.736, 11.498 ], [ 36.736, 11.522 ], [ 36.76, 11.522 ] ] ] } },
{ "type": "Feature", "properties": { "value": 28.0 }, "geometry": { "type": "Polygon", "coordinates": [ [ [ 36.952, 11.514 ], [ 36.952, 11.506 ], [ 36.936, 11.506 ], [ 36.936, 11.514 ], [ 36.952, 11.514 ] ] ] } },
{ "type": "Feature", "properties": { "value": 29.0 }, "geometry": { "type": "Polygon", "coordinates": [ [ [ 37.384, 11.522 ], [ 37.384, 11.514 ], [ 37.4, 11.514 ], [ 37.4, 11.498 ], [ 37.392, 11.498 ], [ 37.392, 11.49 ], [ 37.384, 11.49 ], [ 37.384, 11.482 ], [ 37.376, 11.482 ], [ 37.376, 11.474 ], [ 37.368, 11.474 ], [ 37.368, 11.466 ], [ 37.36, 11.466 ], [ 37.36, 11.45 ], [ 37.368, 11.45 ], [ 37.368, 11.434 ], [ 37.36, 11.434 ], [ 37.36, 11.41 ], [ 37.368, 11.41 ], [ 37.368, 11.402 ], [ 37.376, 11.402 ], [ 37.376, 11.394 ], [ 37.392, 11.394 ], [ 37.392, 11.386 ], [ 37.4, 11.386 ], [ 37.4, 11.362 ], [ 37.392, 11.362 ], [ 37.392, 11.354 ], [ 37.384, 11.354 ], [ 37.384, 11.346 ], [ 37.392, 11.346 ], [ 37.392, 11.338 ], [ 37.4, 11.338 ], [ 37.4, 11.33 ], [ 37.392, 11.33 ], [ 37.392, 11.314 ], [ 37.384, 11.314 ], [ 37.384, 11.298 ], [ 37.376, 11.298 ], [ 37.376, 11.274 ], [ 37.368, 11.274 ], [ 37.368, 11.25 ], [ 37.36, 11.25 ], [ 37.36, 11.242 ], [ 37.352, 11.242 ], [ 37.352, 11.202 ], [ 37.344, 11.202 ], [ 37.344, 11.186 ], [ 37.352, 11.186 ], [ 37.352, 11.178 ], [ 37.344, 11.178 ], [ 37.344, 11.17 ], [ 37.328, 11.17 ], [ 37.328, 11.154 ], [ 37.312, 11.154 ], [ 37.312, 11.162 ], [ 37.304, 11.162 ], [ 37.304, 11.17 ], [ 37.296, 11.17 ], [ 37.296, 11.162 ], [ 37.288, 11.162 ], [ 37.288, 11.234 ], [ 37.28, 11.234 ], [ 37.28, 11.25 ], [ 37.272, 11.25 ], [ 37.272, 11.266 ], [ 37.264, 11.266 ], [ 37.264, 11.298 ], [ 37.256, 11.298 ], [ 37.256, 11.306 ], [ 37.264, 11.306 ], [ 37.264, 11.322 ], [ 37.256, 11.322 ], [ 37.256, 11.33 ], [ 37.264, 11.33 ], [ 37.264, 11.346 ], [ 37.272, 11.346 ], [ 37.272, 11.354 ], [ 37.288, 11.354 ], [ 37.288, 11.362 ], [ 37.296, 11.362 ], [ 37.296, 11.394 ], [ 37.272, 11.394 ], [ 37.272, 11.402 ], [ 37.28, 11.402 ], [ 37.28, 11.45 ], [ 37.288, 11.45 ], [ 37.288, 11.466 ], [ 37.28, 11.466 ], [ 37.28, 11.49 ], [ 37.296, 11.49 ], [ 37.296, 11.498 ], [ 37.312, 11.498 ], [ 37.312, 11.506 ], [ 37.32, 11.506 ], [ 37.32, 11.514 ], [ 37.328, 11.514 ], [ 37.328, 11.522 ], [ 37.384, 11.522 ] ] ] } },
{ "type": "Feature", "properties": { "value": 30.0 }, "geometry": { "type": "Polygon", "coordinates": [ [ [ 37.4, 11.498 ], [ 37.4, 11.482 ], [ 37.392, 11.482 ], [ 37.392, 11.474 ], [ 37.384, 11.474 ], [ 37.384, 11.458 ], [ 37.376, 11.458 ], [ 37.376, 11.45 ], [ 37.36, 11.45 ], [ 37.36, 11.466 ], [ 37.368, 11.466 ], [ 37.368, 11.474 ], [ 37.376, 11.474 ], [ 37.376, 11.482 ], [ 37.384, 11.482 ], [ 37.384, 11.49 ], [ 37.392, 11.49 ], [ 37.392, 11.498 ], [ 37.4, 11.498 ] ] ] } },
{ "type": "Feature", "properties": { "value": 31.0 }, "geometry": { "type": "Polygon", "coordinates": [ [ [ 36.768, 11.514 ], [ 36.768, 11.506 ], [ 36.76, 11.506 ], [ 36.76, 11.498 ], [ 36.752, 11.498 ], [ 36.752, 11.49 ], [ 36.744, 11.49 ], [ 36.744, 11.482 ], [ 36.736, 11.482 ], [ 36.736, 11.498 ], [ 36.744, 11.498 ], [ 36.744, 11.514 ], [ 36.768, 11.514 ] ] ] } },
{ "type": "Feature", "properties": { "value": 32.0 }, "geometry": { "type": "MultiPolygon", "coordinates": [ [ [ [ 36.744, 11.49 ], [ 36.752, 11.49 ], [ 36.752, 11.482 ], [ 36.744, 11.482 ], [ 36.744, 11.49 ] ] ], [ [ [ 36.744, 11.474 ], [ 36.736, 11.474 ], [ 36.736, 11.482 ], [ 36.744, 11.482 ], [ 36.744, 11.474 ] ] ] ] } },
{ "type": "Feature", "properties": { "value": 33.0 }, "geometry": { "type": "Polygon", "coordinates": [ [ [ 37.4, 11.482 ], [ 37.4, 11.386 ], [ 37.392, 11.386 ], [ 37.392, 11.394 ], [ 37.376, 11.394 ], [ 37.376, 11.402 ], [ 37.368, 11.402 ], [ 37.368, 11.41 ], [ 37.36, 11.41 ], [ 37.36, 11.434 ], [ 37.368, 11.434 ], [ 37.368, 11.45 ], [ 37.376, 11.45 ], [ 37.376, 11.458 ], [ 37.384, 11.458 ], [ 37.384, 11.474 ], [ 37.392, 11.474 ], [ 37.392, 11.482 ], [ 37.4, 11.482 ] ] ] } },
{ "type": "Feature", "properties": { "value": 34.0 }, "geometry": { "type": "MultiPolygon", "coordinates": [ [ [ [ 36.744, 11.482 ], [ 36.752, 11.482 ], [ 36.752, 11.474 ], [ 36.744, 11.474 ], [ 36.744, 11.482 ] ] ], [ [ [ 36.744, 11.466 ], [ 36.736, 11.466 ], [ 36.736, 11.474 ], [ 36.744, 11.474 ], [ 36.744, 11.466 ] ] ] ] } },
{ "type": "Feature", "properties": { "value": 35.0 }, "geometry": { "type": "Polygon", "coordinates": [ [ [ 36.808, 11.522 ], [ 36.808, 11.474 ], [ 36.816, 11.474 ], [ 36.816, 11.466 ], [ 36.808, 11.466 ], [ 36.808, 11.442 ], [ 36.8, 11.442 ], [ 36.8, 11.402 ], [ 36.792, 11.402 ], [ 36.792, 11.41 ], [ 36.784, 11.41 ], [ 36.784, 11.402 ], [ 36.768, 11.402 ], [ 36.768, 11.41 ], [ 36.752, 11.41 ], [ 36.752, 11.426 ], [ 36.744, 11.426 ], [ 36.744, 11.434 ], [ 36.736, 11.434 ], [ 36.736, 11.466 ], [ 36.744, 11.466 ], [ 36.744, 11.474 ], [ 36.752, 11.474 ], [ 36.752, 11.498 ], [ 36.76, 11.498 ], [ 36.76, 11.506 ], [ 36.768, 11.506 ], [ 36.768, 11.514 ], [ 36.76, 11.514 ], [ 36.76, 11.522 ], [ 36.808, 11.522 ] ] ] } },
{ "type": "Feature", "properties": { "value": 36.0 }, "geometry": { "type": "Polygon", "coordinates": [ [ [ 36.744, 11.434 ], [ 36.744, 11.426 ], [ 36.752, 11.426 ], [ 36.752, 11.41 ], [ 36.736, 11.41 ], [ 36.736, 11.434 ], [ 36.744, 11.434 ] ] ] } },
{ "type": "Feature", "properties": { "value": 37.0 }, "geometry": { "type": "Polygon", "coordinates": [ [ [ 36.768, 11.41 ], [ 36.768, 11.402 ], [ 36.784, 11.402 ], [ 36.784, 11.41 ], [ 36.792, 11.41 ], [ 36.792, 11.386 ], [ 36.8, 11.386 ], [ 36.8, 11.378 ], [ 36.768, 11.378 ], [ 36.768, 11.362 ], [ 36.76, 11.362 ], [ 36.76, 11.37 ], [ 36.744, 11.37 ], [ 36.744, 11.378 ], [ 36.736, 11.378 ], [ 36.736, 11.41 ], [ 36.768, 11.41 ] ] ] } },
{ "type": "Feature", "properties": { "value": 38.0 }, "geometry": { "type": "Polygon", "coordinates": [ [ [ 36.744, 11.378 ], [ 36.744, 11.37 ], [ 36.752, 11.37 ], [ 36.752, 11.362 ], [ 36.736, 11.362 ], [ 36.736, 11.378 ], [ 36.744, 11.378 ] ] ] } },
{ "type": "Feature", "properties": { "value": 39.0 }, "geometry": { "type": "Polygon", "coordinates": [ [ [ 36.76, 11.37 ], [ 36.76, 11.354 ], [ 36.752, 11.354 ], [ 36.752, 11.346 ], [ 36.744, 11.346 ], [ 36.744, 11.354 ], [ 36.736, 11.354 ], [ 36.736, 11.362 ], [ 36.752, 11.362 ], [ 36.752, 11.37 ], [ 36.76, 11.37 ] ] ] } },
{ "type": "Feature", "properties": { "value": 40.0 }, "geometry": { "type": "Polygon", "coordinates": [ [ [ 37.4, 11.362 ], [ 37.4, 11.338 ], [ 37.392, 11.338 ], [ 37.392, 11.346 ], [ 37.384, 11.346 ], [ 37.384, 11.354 ], [ 37.392, 11.354 ], [ 37.392, 11.362 ], [ 37.4, 11.362 ] ] ] } },
{ "type": "Feature", "properties": { "value": 41.0 }, "geometry": { "type": "Polygon", "coordinates": [ [ [ 36.744, 11.354 ], [ 36.744, 11.338 ], [ 36.736, 11.338 ], [ 36.736, 11.354 ], [ 36.744, 11.354 ] ] ] } },
{ "type": "Feature", "properties": { "value": 42.0 }, "geometry": { "type": "Polygon", "coordinates": [ [ [ 36.752, 11.346 ], [ 36.752, 11.322 ], [ 36.736, 11.322 ], [ 36.736, 11.338 ], [ 36.744, 11.338 ], [ 36.744, 11.346 ], [ 36.752, 11.346 ] ] ] } },
{ "type": "Feature", "properties": { "value": 43.0 }, "geometry": { "type": "Polygon", "coordinates": [ [ [ 36.744, 11.322 ], [ 36.744, 11.314 ], [ 36.736, 11.314 ], [ 36.736, 11.322 ], [ 36.744, 11.322 ] ] ] } },
{ "type": "Feature", "properties": { "value": 44.0 }, "geometry": { "type": "MultiPolygon", "coordinates": [ [ [ [ 37.392, 11.33 ], [ 37.4, 11.33 ], [ 37.4, 11.314 ], [ 37.392, 11.314 ], [ 37.392, 11.33 ] ] ], [ [ [ 37.392, 11.298 ], [ 37.384, 11.298 ], [ 37.384, 11.314 ], [ 37.392, 11.314 ], [ 37.392, 11.298 ] ] ] ] } },
{ "type": "Feature", "properties": { "value": 45.0 }, "geometry": { "type": "Polygon", "coordinates": [ [ [ 36.752, 11.314 ], [ 36.752, 11.298 ], [ 36.736, 11.298 ], [ 36.736, 11.314 ], [ 36.752, 11.314 ] ] ] } },
{ "type": "Feature", "properties": { "value": 46.0 }, "geometry": { "type": "Polygon", "coordinates": [ [ [ 37.4, 11.314 ], [ 37.4, 11.274 ], [ 37.392, 11.274 ], [ 37.392, 11.266 ], [ 37.384, 11.266 ], [ 37.384, 11.258 ], [ 37.376, 11.258 ], [ 37.376, 11.25 ], [ 37.368, 11.25 ], [ 37.368, 11.274 ], [ 37.376, 11.274 ], [ 37.376, 11.298 ], [ 37.392, 11.298 ], [ 37.392, 11.314 ], [ 37.4, 11.314 ] ] ] } },
{ "type": "Feature", "properties": { "value": 47.0 }, "geometry": { "type": "Polygon", "coordinates": [ [ [ 36.752, 11.298 ], [ 36.752, 11.29 ], [ 36.76, 11.29 ], [ 36.76, 11.282 ], [ 36.736, 11.282 ], [ 36.736, 11.298 ], [ 36.752, 11.298 ] ] ] } },
{ "type": "Feature", "properties": { "value": 48.0 }, "geometry": { "type": "Polygon", "coordinates": [ [ [ 36.752, 11.282 ], [ 36.752, 11.266 ], [ 36.744, 11.266 ], [ 36.744, 11.258 ], [ 36.736, 11.258 ], [ 36.736, 11.282 ], [ 36.752, 11.282 ] ] ] } },
{ "type": "Feature", "properties": { "value": 49.0 }, "geometry": { "type": "Polygon", "coordinates": [ [ [ 37.4, 11.274 ], [ 37.4, 11.242 ], [ 37.384, 11.242 ], [ 37.384, 11.234 ], [ 37.376, 11.234 ], [ 37.376, 11.226 ], [ 37.36, 11.226 ], [ 37.36, 11.218 ], [ 37.352, 11.218 ], [ 37.352, 11.242 ], [ 37.36, 11.242 ], [ 37.36, 11.25 ], [ 37.376, 11.25 ], [ 37.376, 11.258 ], [ 37.384, 11.258 ], [ 37.384, 11.266 ], [ 37.392, 11.266 ], [ 37.392, 11.274 ], [ 37.4, 11.274 ] ] ] } },
{ "type": "Feature", "properties": { "value": 50.0 }, "geometry": { "type": "Polygon", "coordinates": [ [ [ 36.744, 11.25 ], [ 36.744, 11.234 ], [ 36.736, 11.234 ], [ 36.736, 11.25 ], [ 36.744, 11.25 ] ] ] } },
{ "type": "Feature", "properties": { "value": 51.0 }, "geometry": { "type": "MultiPolygon", "coordinates": [ [ [ [ 37.376, 11.234 ], [ 37.384, 11.234 ], [ 37.384, 11.242 ], [ 37.4, 11.242 ], [ 37.4, 11.234 ], [ 37.392, 11.234 ], [ 37.392, 11.226 ], [ 37.376, 11.226 ], [ 37.376, 11.234 ] ] ], [ [ [ 37.352, 11.218 ], [ 37.36, 11.218 ], [ 37.36, 11.226 ], [ 37.376, 11.226 ], [ 37.376, 11.218 ], [ 37.368, 11.218 ], [ 37.368, 11.21 ], [ 37.36, 11.21 ], [ 37.36, 11.202 ], [ 37.352, 11.202 ], [ 37.352, 11.218 ] ] ], [ [ [ 37.352, 11.186 ], [ 37.344, 11.186 ], [ 37.344, 11.202 ], [ 37.352, 11.202 ], [ 37.352, 11.186 ] ] ] ] } },
{ "type": "Feature", "properties": { "value": 52.0 }, "geometry": { "type": "Polygon", "coordinates": [ [ [ 37.4, 11.234 ], [ 37.4, 11.226 ], [ 37.392, 11.226 ], [ 37.392, 11.234 ], [ 37.4, 11.234 ] ] ] } },
{ "type": "Feature", "properties": { "value": 53.0 }, "geometry": { "type": "Polygon", "coordinates": [ [ [ 36.744, 11.234 ], [ 36.744, 11.218 ], [ 36.736, 11.218 ], [ 36.736, 11.234 ], [ 36.744, 11.234 ] ] ] } },
{ "type": "Feature", "properties": { "value": 54.0 }, "geometry": { "type": "Polygon", "coordinates": [ [ [ 37.4, 11.226 ], [ 37.4, 11.178 ], [ 37.392, 11.178 ], [ 37.392, 11.162 ], [ 37.384, 11.162 ], [ 37.384, 11.122 ], [ 37.344, 11.122 ], [ 37.344, 11.13 ], [ 37.328, 11.13 ], [ 37.328, 11.138 ], [ 37.32, 11.138 ], [ 37.32, 11.154 ], [ 37.328, 11.154 ], [ 37.328, 11.17 ], [ 37.344, 11.17 ], [ 37.344, 11.178 ], [ 37.352, 11.178 ], [ 37.352, 11.202 ], [ 37.36, 11.202 ], [ 37.36, 11.21 ], [ 37.368, 11.21 ], [ 37.368, 11.218 ], [ 37.376, 11.218 ], [ 37.376, 11.226 ], [ 37.4, 11.226 ] ] ] } },
{ "type": "Feature", "properties": { "value": 55.0 }, "geometry": { "type": "MultiPolygon", "coordinates": [ [ [ [ 36.744, 11.25 ], [ 36.752, 11.25 ], [ 36.752, 11.242 ], [ 36.76, 11.242 ], [ 36.76, 11.234 ], [ 36.768, 11.234 ], [ 36.768, 11.226 ], [ 36.76, 11.226 ], [ 36.76, 11.218 ], [ 36.744, 11.218 ], [ 36.744, 11.25 ] ] ], [ [ [ 36.744, 11.21 ], [ 36.736, 11.21 ], [ 36.736, 11.218 ], [ 36.744, 11.218 ], [ 36.744, 11.21 ] ] ] ] } },
{ "type": "Feature", "properties": { "value": 56.0 }, "geometry": { "type": "Polygon", "coordinates": [ [ [ 36.8, 11.242 ], [ 36.8, 11.234 ], [ 36.808, 11.234 ], [ 36.808, 11.218 ], [ 36.816, 11.218 ], [ 36.816, 11.202 ], [ 36.8, 11.202 ], [ 36.8, 11.194 ], [ 36.792, 11.194 ], [ 36.792, 11.202 ], [ 36.784, 11.202 ], [ 36.784, 11.194 ], [ 36.752, 11.194 ], [ 36.752, 11.202 ], [ 36.744, 11.202 ], [ 36.744, 11.194 ], [ 36.736, 11.194 ], [ 36.736, 11.21 ], [ 36.744, 11.21 ], [ 36.744, 11.218 ], [ 36.76, 11.218 ], [ 36.76, 11.226 ], [ 36.768, 11.226 ], [ 36.768, 11.234 ], [ 36.76, 11.234 ], [ 36.76, 11.242 ], [ 36.8, 11.242 ] ] ] } },
{ "type": "Feature", "properties": { "value": 57.0 }, "geometry": { "type": "Polygon", "coordinates": [ [ [ 36.752, 11.202 ], [ 36.752, 11.186 ], [ 36.736, 11.186 ], [ 36.736, 11.194 ], [ 36.744, 11.194 ], [ 36.744, 11.202 ], [ 36.752, 11.202 ] ] ] } },
{ "type": "Feature", "properties": { "value": 58.0 }, "geometry": { "type": "Polygon", "coordinates": [ [ [ 36.792, 11.202 ], [ 36.792, 11.194 ], [ 36.8, 11.194 ], [ 36.8, 11.202 ], [ 36.816, 11.202 ], [ 36.816, 11.194 ], [ 36.824, 11.194 ], [ 36.824, 11.17 ], [ 36.84, 11.17 ], [ 36.84, 11.162 ], [ 36.848, 11.162 ], [ 36.848, 11.154 ], [ 36.856, 11.154 ], [ 36.856, 11.138 ], [ 36.848, 11.138 ], [ 36.848, 11.13 ], [ 36.84, 11.13 ], [ 36.84, 11.122 ], [ 36.824, 11.122 ], [ 36.824, 11.114 ], [ 36.792, 11.114 ], [ 36.792, 11.106 ], [ 36.776, 11.106 ], [ 36.776, 11.114 ], [ 36.768, 11.114 ], [ 36.768, 11.122 ], [ 36.76, 11.122 ], [ 36.76, 11.114 ], [ 36.744, 11.114 ], [ 36.744, 11.122 ], [ 36.736, 11.122 ], [ 36.736, 11.13 ], [ 36.744, 11.13 ], [ 36.744, 11.146 ], [ 36.752, 11.146 ], [ 36.752, 11.154 ], [ 36.736, 11.154 ], [ 36.736, 11.186 ], [ 36.752, 11.186 ], [ 36.752, 11.194 ], [ 36.784, 11.194 ], [ 36.784, 11.202 ], [ 36.792, 11.202 ] ] ] } },
{ "type": "Feature", "properties": { "value": 59.0 }, "geometry": { "type": "Polygon", "coordinates": [ [ [ 37.4, 11.178 ], [ 37.4, 11.17 ], [ 37.392, 11.17 ], [ 37.392, 11.178 ], [ 37.4, 11.178 ] ] ] } },
{ "type": "Feature", "properties": { "value": 60.0 }, "geometry": { "type": "Polygon", "coordinates": [ [ [ 37.4, 11.17 ], [ 37.4, 11.146 ], [ 37.392, 11.146 ], [ 37.392, 11.138 ], [ 37.384, 11.138 ], [ 37.384, 11.162 ], [ 37.392, 11.162 ], [ 37.392, 11.17 ], [ 37.4, 11.17 ] ] ] } },
{ "type": "Feature", "properties": { "value": 61.0 }, "geometry": { "type": "Polygon", "coordinates": [ [ [ 36.752, 11.154 ], [ 36.752, 11.146 ], [ 36.744, 11.146 ], [ 36.744, 11.13 ], [ 36.736, 11.13 ], [ 36.736, 11.154 ], [ 36.752, 11.154 ] ] ] } },
{ "type": "Feature", "properties": { "value": 62.0 }, "geometry": { "type": "Polygon", "coordinates": [ [ [ 37.4, 11.146 ], [ 37.4, 11.114 ], [ 37.392, 11.114 ], [ 37.392, 11.122 ], [ 37.384, 11.122 ], [ 37.384, 11.138 ], [ 37.392, 11.138 ], [ 37.392, 11.146 ], [ 37.4, 11.146 ] ] ] } },
{ "type": "Feature", "properties": { "value": 63.0 }, "geometry": { "type": "Polygon", "coordinates": [ [ [ 36.744, 11.122 ], [ 36.744, 11.106 ], [ 36.736, 11.106 ], [ 36.736, 11.122 ], [ 36.744, 11.122 ] ] ] } },
{ "type": "Feature", "properties": { "value": 64.0 }, "geometry": { "type": "Polygon", "coordinates": [ [ [ 36.768, 11.122 ], [ 36.768, 11.114 ], [ 36.776, 11.114 ], [ 36.776, 11.106 ], [ 36.792, 11.106 ], [ 36.792, 11.114 ], [ 36.824, 11.114 ], [ 36.824, 11.122 ], [ 36.832, 11.122 ], [ 36.832, 11.098 ], [ 36.84, 11.098 ], [ 36.84, 11.09 ], [ 36.856, 11.09 ], [ 36.856, 11.082 ], [ 36.864, 11.082 ], [ 36.864, 11.074 ], [ 36.896, 11.074 ], [ 36.896, 11.05 ], [ 36.888, 11.05 ], [ 36.888, 11.01 ], [ 36.88, 11.01 ], [ 36.88, 10.994 ], [ 36.872, 10.994 ], [ 36.872, 10.986 ], [ 36.864, 10.986 ], [ 36.864, 10.978 ], [ 36.856, 10.978 ], [ 36.856, 11.026 ], [ 36.832, 11.026 ], [ 36.832, 11.042 ], [ 36.824, 11.042 ], [ 36.824, 11.05 ], [ 36.816, 11.05 ], [ 36.816, 11.058 ], [ 36.808, 11.058 ], [ 36.808, 11.066 ], [ 36.792, 11.066 ], [ 36.792, 11.058 ], [ 36.784, 11.058 ], [ 36.784, 11.066 ], [ 36.776, 11.066 ], [ 36.776, 11.058 ], [ 36.768, 11.058 ], [ 36.768, 11.066 ], [ 36.752, 11.066 ], [ 36.752, 11.058 ], [ 36.736, 11.058 ], [ 36.736, 11.106 ], [ 36.744, 11.106 ], [ 36.744, 11.114 ], [ 36.76, 11.114 ], [ 36.76, 11.122 ], [ 36.768, 11.122 ] ] ] } },
{ "type": "Feature", "properties": { "value": 65.0 }, "geometry": { "type": "MultiPolygon", "coordinates": [ [ [ [ 36.752, 11.066 ], [ 36.76, 11.066 ], [ 36.76, 11.058 ], [ 36.752, 11.058 ], [ 36.752, 11.066 ] ] ], [ [ [ 36.752, 11.05 ], [ 36.736, 11.05 ], [ 36.736, 11.058 ], [ 36.752, 11.058 ], [ 36.752, 11.05 ] ] ] ] } },
{ "type": "Feature", "properties": { "value": 66.0 }, "geometry": { "type": "Polygon", "coordinates": [ [ [ 36.768, 11.066 ], [ 36.768, 11.058 ], [ 36.776, 11.058 ], [ 36.776, 11.066 ], [ 36.784, 11.066 ], [ 36.784, 11.058 ], [ 36.792, 11.058 ], [ 36.792, 11.066 ], [ 36.808, 11.066 ], [ 36.808, 11.058 ], [ 36.816, 11.058 ], [ 36.816, 11.05 ], [ 36.824, 11.05 ], [ 36.824, 11.042 ], [ 36.832, 11.042 ], [ 36.832, 11.026 ], [ 36.856, 11.026 ], [ 36.856, 10.978 ], [ 36.84, 10.978 ], [ 36.84, 10.97 ], [ 36.832, 10.97 ], [ 36.832, 10.994 ], [ 36.816, 10.994 ], [ 36.816, 11.002 ], [ 36.792, 11.002 ], [ 36.792, 11.01 ], [ 36.784, 11.01 ], [ 36.784, 11.018 ], [ 36.76, 11.018 ], [ 36.76, 11.026 ], [ 36.752, 11.026 ], [ 36.752, 11.034 ], [ 36.736, 11.034 ], [ 36.736, 11.05 ], [ 36.752, 11.05 ], [ 36.752, 11.058 ], [ 36.76, 11.058 ], [ 36.76, 11.066 ], [ 36.768, 11.066 ] ] ] } },
{ "type": "Feature", "properties": { "value": 67.0 }, "geometry": { "type": "Polygon", "coordinates": [ [ [ 37.4, 11.042 ], [ 37.4, 11.026 ], [ 37.392, 11.026 ], [ 37.392, 11.042 ], [ 37.4, 11.042 ] ] ] } },
{ "type": "Feature", "properties": { "value": 68.0 }, "geometry": { "type": "Polygon", "coordinates": [ [ [ 37.4, 11.026 ], [ 37.4, 11.018 ], [ 37.392, 11.018 ], [ 37.392, 11.026 ], [ 37.4, 11.026 ] ] ] } },
{ "type": "Feature", "properties": { "value": 69.0 }, "geometry": { "type": "Polygon", "coordinates": [ [ [ 36.752, 11.034 ], [ 36.752, 11.026 ], [ 36.76, 11.026 ], [ 36.76, 11.018 ], [ 36.784, 11.018 ], [ 36.784, 11.01 ], [ 36.792, 11.01 ], [ 36.792, 11.002 ], [ 36.816, 11.002 ], [ 36.816, 10.986 ], [ 36.808, 10.986 ], [ 36.808, 10.978 ], [ 36.784, 10.978 ], [ 36.784, 10.986 ], [ 36.776, 10.986 ], [ 36.776, 10.994 ], [ 36.752, 10.994 ], [ 36.752, 11.002 ], [ 36.736, 11.002 ], [ 36.736, 11.034 ], [ 36.752, 11.034 ] ] ] } },
{ "type": "Feature", "properties": { "value": 70.0 }, "geometry": { "type": "Polygon", "coordinates": [ [ [ 37.4, 11.018 ], [ 37.4, 11.01 ], [ 37.392, 11.01 ], [ 37.392, 11.018 ], [ 37.4, 11.018 ] ] ] } },
{ "type": "Feature", "properties": { "value": 71.0 }, "geometry": { "type": "Polygon", "coordinates": [ [ [ 36.752, 11.002 ], [ 36.752, 10.994 ], [ 36.76, 10.994 ], [ 36.76, 10.986 ], [ 36.752, 10.986 ], [ 36.752, 10.978 ], [ 36.744, 10.978 ], [ 36.744, 10.986 ], [ 36.736, 10.986 ], [ 36.736, 11.002 ], [ 36.752, 11.002 ] ] ] } },
{ "type": "Feature", "properties": { "value": 72.0 }, "geometry": { "type": "Polygon", "coordinates": [ [ [ 36.744, 10.986 ], [ 36.744, 10.978 ], [ 36.736, 10.978 ], [ 36.736, 10.986 ], [ 36.744, 10.986 ] ] ] } },
{ "type": "Feature", "properties": { "value": 73.0 }, "geometry": { "type": "Polygon", "coordinates": [ [ [ 36.776, 10.994 ], [ 36.776, 10.986 ], [ 36.784, 10.986 ], [ 36.784, 10.978 ], [ 36.808, 10.978 ], [ 36.808, 10.986 ], [ 36.816, 10.986 ], [ 36.816, 10.994 ], [ 36.832, 10.994 ], [ 36.832, 10.962 ], [ 36.824, 10.962 ], [ 36.824, 10.946 ], [ 36.736, 10.946 ], [ 36.736, 10.978 ], [ 36.752, 10.978 ], [ 36.752, 10.986 ], [ 36.76, 10.986 ], [ 36.76, 10.994 ], [ 36.776, 10.994 ] ] ] } },
{ "type": "Feature", "properties": { "value": 74.0 }, "geometry": { "type": "Polygon", "coordinates": [ [ [ 36.84, 10.962 ], [ 36.84, 10.946 ], [ 36.824, 10.946 ], [ 36.824, 10.962 ], [ 36.84, 10.962 ] ] ] } },
{ "type": "Feature", "properties": { "value": 75.0 }, "geometry": { "type": "Polygon", "coordinates": [ [ [ 36.856, 10.978 ], [ 36.856, 10.946 ], [ 36.84, 10.946 ], [ 36.84, 10.962 ], [ 36.832, 10.962 ], [ 36.832, 10.97 ], [ 36.84, 10.97 ], [ 36.84, 10.978 ], [ 36.856, 10.978 ] ] ] } },
{ "type": "Feature", "properties": { "value": 76.0 }, "geometry": { "type": "Polygon", "coordinates": [ [ [ 36.864, 10.978 ], [ 36.864, 10.97 ], [ 36.88, 10.97 ], [ 36.88, 10.962 ], [ 36.872, 10.962 ], [ 36.872, 10.946 ], [ 36.856, 10.946 ], [ 36.856, 10.978 ], [ 36.864, 10.978 ] ] ] } },
{ "type": "Feature", "properties": { "value": 77.0 }, "geometry": { "type": "Polygon", "coordinates": [ [ [ 36.88, 10.962 ], [ 36.88, 10.954 ], [ 36.888, 10.954 ], [ 36.888, 10.946 ], [ 36.872, 10.946 ], [ 36.872, 10.962 ], [ 36.88, 10.962 ] ] ] } },
{ "type": "Feature", "properties": { "value": 78.0 }, "geometry": { "type": "Polygon", "coordinates": [ [ [ 36.896, 11.002 ], [ 36.896, 10.994 ], [ 36.904, 10.994 ], [ 36.904, 10.986 ], [ 36.912, 10.986 ], [ 36.912, 10.962 ], [ 36.904, 10.962 ], [ 36.904, 10.946 ], [ 36.888, 10.946 ], [ 36.888, 10.954 ], [ 36.88, 10.954 ], [ 36.88, 10.97 ], [ 36.864, 10.97 ], [ 36.864, 10.986 ], [ 36.872, 10.986 ], [ 36.872, 10.994 ], [ 36.88, 10.994 ], [ 36.88, 11.002 ], [ 36.896, 11.002 ] ] ] } },
{ "type": "Feature", "properties": { "value": 79.0 }, "geometry": { "type": "Polygon", "coordinates": [ [ [ 36.912, 10.954 ], [ 36.912, 10.946 ], [ 36.904, 10.946 ], [ 36.904, 10.954 ], [ 36.912, 10.954 ] ] ] } },
{ "type": "Feature", "properties": { "value": 80.0 }, "geometry": { "type": "Polygon", "coordinates": [ [ [ 36.92, 10.97 ], [ 36.92, 10.954 ], [ 36.928, 10.954 ], [ 36.928, 10.946 ], [ 36.912, 10.946 ], [ 36.912, 10.954 ], [ 36.904, 10.954 ], [ 36.904, 10.962 ], [ 36.912, 10.962 ], [ 36.912, 10.97 ], [ 36.92, 10.97 ] ] ] } },
{ "type": "Feature", "properties": { "value": 81.0 }, "geometry": { "type": "Polygon", "coordinates": [ [ [ 36.92, 11.002 ], [ 36.92, 10.994 ], [ 36.928, 10.994 ], [ 36.928, 10.978 ], [ 36.944, 10.978 ], [ 36.944, 10.962 ], [ 36.936, 10.962 ], [ 36.936, 10.946 ], [ 36.928, 10.946 ], [ 36.928, 10.954 ], [ 36.92, 10.954 ], [ 36.92, 10.97 ], [ 36.912, 10.97 ], [ 36.912, 10.986 ], [ 36.904, 10.986 ], [ 36.904, 11.002 ], [ 36.92, 11.002 ] ] ] } },
{ "type": "Feature", "properties": { "value": 82.0 }, "geometry": { "type": "Polygon", "coordinates": [ [ [ 36.952, 10.97 ], [ 36.952, 10.946 ], [ 36.936, 10.946 ], [ 36.936, 10.962 ], [ 36.944, 10.962 ], [ 36.944, 10.97 ], [ 36.952, 10.97 ] ] ] } },
{ "type": "Feature", "properties": { "value": 83.0 }, "geometry": { "type": "Polygon", "coordinates": [ [ [ 36.944, 11.002 ], [ 36.944, 10.994 ], [ 36.952, 10.994 ], [ 36.952, 10.986 ], [ 36.96, 10.986 ], [ 36.96, 10.962 ], [ 36.968, 10.962 ], [ 36.968, 10.954 ], [ 36.976, 10.954 ], [ 36.976, 10.946 ], [ 36.952, 10.946 ], [ 36.952, 10.97 ], [ 36.944, 10.97 ], [ 36.944, 10.978 ], [ 36.928, 10.978 ], [ 36.928, 10.994 ], [ 36.936, 10.994 ], [ 36.936, 11.002 ], [ 36.944, 11.002 ] ] ] } },
{ "type": "Feature", "properties": { "value": 84.0 }, "geometry": { "type": "Polygon", "coordinates": [ [ [ 36.984, 11.01 ], [ 36.984, 11.002 ], [ 37.008, 11.002 ], [ 37.008, 10.994 ], [ 37.032, 10.994 ], [ 37.032, 10.986 ], [ 37.04, 10.986 ], [ 37.04, 10.978 ], [ 37.048, 10.978 ], [ 37.048, 10.97 ], [ 37.04, 10.97 ], [ 37.04, 10.954 ], [ 37.032, 10.954 ], [ 37.032, 10.946 ], [ 37.024, 10.946 ], [ 37.024, 10.954 ], [ 37.016, 10.954 ], [ 37.016, 10.962 ], [ 37.008, 10.962 ], [ 37.008, 10.954 ], [ 36.992, 10.954 ], [ 36.992, 10.946 ], [ 36.976, 10.946 ], [ 36.976, 10.954 ], [ 36.968, 10.954 ], [ 36.968, 10.962 ], [ 36.96, 10.962 ], [ 36.96, 10.986 ], [ 36.952, 10.986 ], [ 36.952, 10.994 ], [ 36.944, 10.994 ], [ 36.944, 11.002 ], [ 36.968, 11.002 ], [ 36.968, 11.01 ], [ 36.984, 11.01 ] ] ] } },
{ "type": "Feature", "properties": { "value": 85.0 }, "geometry": { "type": "Polygon", "coordinates": [ [ [ 37.016, 10.962 ], [ 37.016, 10.954 ], [ 37.024, 10.954 ], [ 37.024, 10.946 ], [ 36.992, 10.946 ], [ 36.992, 10.954 ], [ 37.008, 10.954 ], [ 37.008, 10.962 ], [ 37.016, 10.962 ] ] ] } },
{ "type": "Feature", "properties": { "value": 86.0 }, "geometry": { "type": "Polygon", "coordinates": [ [ [ 37.128, 10.978 ], [ 37.128, 10.97 ], [ 37.152, 10.97 ], [ 37.152, 10.954 ], [ 37.16, 10.954 ], [ 37.16, 10.946 ], [ 37.112, 10.946 ], [ 37.112, 10.954 ], [ 37.104, 10.954 ], [ 37.104, 10.946 ], [ 37.032, 10.946 ], [ 37.032, 10.954 ], [ 37.04, 10.954 ], [ 37.04, 10.97 ], [ 37.072, 10.97 ], [ 37.072, 10.978 ], [ 37.128, 10.978 ] ] ] } },
{ "type": "Feature", "properties": { "value": 87.0 }, "geometry": { "type": "Polygon", "coordinates": [ [ [ 37.112, 10.954 ], [ 37.112, 10.946 ], [ 37.104, 10.946 ], [ 37.104, 10.954 ], [ 37.112, 10.954 ] ] ] } },
{ "type": "Feature", "properties": { "value": 88.0 }, "geometry": { "type": "Polygon", "coordinates": [ [ [ 37.232, 10.97 ], [ 37.232, 10.946 ], [ 37.176, 10.946 ], [ 37.176, 10.954 ], [ 37.184, 10.954 ], [ 37.184, 10.962 ], [ 37.2, 10.962 ], [ 37.2, 10.97 ], [ 37.232, 10.97 ] ] ] } },
{ "type": "Feature", "properties": { "value": 89.0 }, "geometry": { "type": "Polygon", "coordinates": [ [ [ 37.248, 10.978 ], [ 37.248, 10.97 ], [ 37.256, 10.97 ], [ 37.256, 10.954 ], [ 37.248, 10.954 ], [ 37.248, 10.946 ], [ 37.232, 10.946 ], [ 37.232, 10.97 ], [ 37.24, 10.97 ], [ 37.24, 10.978 ], [ 37.248, 10.978 ] ] ] } },
{ "type": "Feature", "properties": { "value": 90.0 }, "geometry": { "type": "Polygon", "coordinates": [ [ [ 37.256, 10.954 ], [ 37.256, 10.946 ], [ 37.248, 10.946 ], [ 37.248, 10.954 ], [ 37.256, 10.954 ] ] ] } },
{ "type": "Feature", "properties": { "value": 91.0 }, "geometry": { "type": "Polygon", "coordinates": [ [ [ 37.264, 10.978 ], [ 37.264, 10.97 ], [ 37.28, 10.97 ], [ 37.28, 10.954 ], [ 37.272, 10.954 ], [ 37.272, 10.946 ], [ 37.256, 10.946 ], [ 37.256, 10.97 ], [ 37.248, 10.97 ], [ 37.248, 10.978 ], [ 37.264, 10.978 ] ] ] } },
{ "type": "Feature", "properties": { "value": 92.0 }, "geometry": { "type": "Polygon", "coordinates": [ [ [ 37.28, 10.954 ], [ 37.28, 10.946 ], [ 37.272, 10.946 ], [ 37.272, 10.954 ], [ 37.28, 10.954 ] ] ] } },
{ "type": "Feature", "properties": { "value": 93.0 }, "geometry": { "type": "Polygon", "coordinates": [ [ [ 37.288, 10.954 ], [ 37.288, 10.946 ], [ 37.28, 10.946 ], [ 37.28, 10.954 ], [ 37.288, 10.954 ] ] ] } },
{ "type": "Feature", "properties": { "value": 94.0 }, "geometry": { "type": "Polygon", "coordinates": [ [ [ 37.344, 10.962 ], [ 37.344, 10.946 ], [ 37.32, 10.946 ], [ 37.32, 10.954 ], [ 37.336, 10.954 ], [ 37.336, 10.962 ], [ 37.344, 10.962 ] ] ] } },
{ "type": "Feature", "properties": { "value": 95.0 }, "geometry": { "type": "Polygon", "coordinates": [ [ [ 37.352, 10.962 ], [ 37.352, 10.954 ], [ 37.368, 10.954 ], [ 37.368, 10.946 ], [ 37.344, 10.946 ], [ 37.344, 10.962 ], [ 37.352, 10.962 ] ] ] } },
{ "type": "Feature", "properties": { "value": 96.0 }, "geometry": { "type": "Polygon", "coordinates": [ [ [ 37.4, 11.114 ], [ 37.4, 11.042 ], [ 37.392, 11.042 ], [ 37.392, 11.01 ], [ 37.4, 11.01 ], [ 37.4, 11.002 ], [ 37.392, 11.002 ], [ 37.392, 10.986 ], [ 37.384, 10.986 ], [ 37.384, 10.962 ], [ 37.376, 10.962 ], [ 37.376, 10.946 ], [ 37.368, 10.946 ], [ 37.368, 10.954 ], [ 37.352, 10.954 ], [ 37.352, 10.962 ], [ 37.336, 10.962 ], [ 37.336, 10.954 ], [ 37.32, 10.954 ], [ 37.32, 10.946 ], [ 37.288, 10.946 ], [ 37.288, 10.954 ], [ 37.28, 10.954 ], [ 37.28, 10.97 ], [ 37.264, 10.97 ], [ 37.264, 10.994 ], [ 37.256, 10.994 ], [ 37.256, 11.01 ], [ 37.248, 11.01 ], [ 37.248, 11.026 ], [ 37.256, 11.026 ], [ 37.256, 11.042 ], [ 37.272, 11.042 ], [ 37.272, 11.05 ], [ 37.288, 11.05 ], [ 37.288, 11.058 ], [ 37.36, 11.058 ], [ 37.36, 11.066 ], [ 37.368, 11.066 ], [ 37.368, 11.074 ], [ 37.376, 11.074 ], [ 37.376, 11.082 ], [ 37.384, 11.082 ], [ 37.384, 11.09 ], [ 37.392, 11.09 ], [ 37.392, 11.106 ], [ 37.384, 11.106 ], [ 37.384, 11.114 ], [ 37.4, 11.114 ] ] ] } },
{ "type": "Feature", "properties": { "value": 97.0 }, "geometry": { "type": "Polygon", "coordinates": [ [ [ 37.4, 11.002 ], [ 37.4, 10.962 ], [ 37.392, 10.962 ], [ 37.392, 10.954 ], [ 37.384, 10.954 ], [ 37.384, 10.946 ], [ 37.376, 10.946 ], [ 37.376, 10.962 ], [ 37.384, 10.962 ], [ 37.384, 10.986 ], [ 37.392, 10.986 ], [ 37.392, 11.002 ], [ 37.4, 11.002 ] ] ] } },
{ "type": "Feature", "properties": { "value": 98.0 }, "geometry": { "type": "Polygon", "coordinates": [ [ [ 37.4, 10.962 ], [ 37.4, 10.946 ], [ 37.384, 10.946 ], [ 37.384, 10.954 ], [ 37.392, 10.954 ], [ 37.392, 10.962 ], [ 37.4, 10.962 ] ] ] } }
]
}
