{
"type": "FeatureCollection",
"name": "gauges",
"crs": { "type": "name", "properties": { "name": "urn:ogc:def:crs:OGC:1.3:CRS84" } },
"features": [
{ "type": "Feature", "properties": { "fid": 4 }, "geometry": { "type": "Point", "coordinates": [ 37.036, 11.518 ] } },
{ "type": "Feature", "properties": { "fid": 6 }, "geometry": { "type": "Point", "coordinates": [ 37.068, 11.518 ] } },
{ "type": "Feature", "properties": { "fid": 9 }, "geometry": { "type": "Point", "coordinates": [ 37.092, 11.518 ] } },
{ "type": "Feature", "properties": { "fid": 13 }, "geometry": { "type": "Point", "coordinates": [ 37.132, 11.518 ] } },
{ "type": "Feature", "properties": { "fid": 17 }, "geometry": { "type": "Point", "coordinates": [ 37.212, 11.518 ] } },
{ "type": "Feature", "properties": { "fid": 21 }, "geometry": { "type": "Point", "coordinates": [ 37.268, 11.518 ] } },
{ "type": "Feature", "properties": { "fid": 29 }, "geometry": { "type": "Point", "coordinates": [ 37.396, 11.51 ] } },
{ "type": "Feature", "properties": { "fid": 33 }, "geometry": { "type": "Point", "coordinates": [ 37.396, 11.478 ] } },
{ "type": "Feature", "properties": { "fid": 35 }, "geometry": { "type": "Point", "coordinates": [ 36.74, 11.438 ] } },
{ "type": "Feature", "properties": { "fid": 37 }, "geometry": { "type": "Point", "coordinates": [ 36.74, 11.398 ] } },
{ "type": "Feature", "properties": { "fid": 46 }, "geometry": { "type": "Point", "coordinates": [ 37.396, 11.294 ] } },
{ "type": "Feature", "properties": { "fid": 49 }, "geometry": { "type": "Point", "coordinates": [ 37.396, 11.262 ] } },
{ "type": "Feature", "properties": { "fid": 54 }, "geometry": { "type": "Point", "coordinates": [ 37.396, 11.222 ] } },
{ "type": "Feature", "properties": { "fid": 56 }, "geometry": { "type": "Point", "coordinates": [ 36.74, 11.206 ] } },
{ "type": "Feature", "properties": { "fid": 58 }, "geometry": { "type": "Point", "coordinates": [ 36.74, 11.182 ] } },
{ "type": "Feature", "properties": { "fid": 64 }, "geometry": { "type": "Point", "coordinates": [ 36.74, 11.07 ] } },
{ "type": "Feature", "properties": { "fid": 66 }, "geometry": { "type": "Point", "coordinates": [ 36.74, 11.046 ] } },
{ "type": "Feature", "properties": { "fid": 69 }, "geometry": { "type": "Point", "coordinates": [ 36.74, 11.014 ] } },
{ "type": "Feature", "properties": { "fid": 73 }, "geometry": { "type": "Point", "coordinates": [ 36.74, 10.974 ] } },
{ "type": "Feature", "properties": { "fid": 78 }, "geometry": { "type": "Point", "coordinates": [ 36.9, 10.95 ] } },
{ "type": "Feature", "properties": { "fid": 81 }, "geometry": { "type": "Point", "coordinates": [ 36.932, 10.95 ] } },
{ "type": "Feature", "properties": { "fid": 83 }, "geometry": { "type": "Point", "coordinates": [ 36.972, 10.95 ] } },
{ "type": "Feature", "properties": { "fid": 84 }, "geometry": { "type": "Point", "coordinates": [ 36.98, 10.95 ] } },
{ "type": "Feature", "properties": { "fid": 86 }, "geometry": { "type": "Point", "coordinates": [ 37.052, 10.95 ] } },
{ "type": "Feature", "properties": { "fid": 88 }, "geometry": { "type": "Point", "coordinates": [ 37.212, 10.95 ] } },
{ "type": "Feature", "properties": { "fid": 96 }, "geometry": { "type": "Point", "coordinates": [ 37.372, 10.95 ] } }
]
}
