{
"type": "FeatureCollection",
"name": "rivers",
"crs": { "type": "name", "properties": { "name": "urn:ogc:def:crs:OGC:1.3:CRS84" } },
"features": [
{ "type": "Feature", "properties": { "idx": 5452, "idx_ds": 4528, "pit": false, "strord": 1 }, "geometry": { "type": "LineString", "coordinates": [ [ 37.196, 10.998 ], [ 37.188, 10.998 ], [ 37.18, 10.99 ], [ 37.172, 10.99 ], [ 37.172, 10.982 ], [ 37.164, 10.982 ], [ 37.156, 10.99 ], [ 37.156, 10.998 ], [ 37.156, 11.006 ], [ 37.148, 11.014 ], [ 37.148, 11.022 ], [ 37.14, 11.03 ], [ 37.148, 11.03 ], [ 37.14, 11.038 ], [ 37.132, 11.046 ], [ 37.124, 11.054 ], [ 37.116, 11.062 ], [ 37.116, 11.07 ], [ 37.108, 11.07 ], [ 37.108, 11.078 ], [ 37.1, 11.078 ], [ 37.108, 11.086 ] ] } },
{ "type": "Feature", "properties": { "idx": 4795, "idx_ds": 4539, "pit": false, "strord": 1 }, "geometry": { "type": "LineString", "coordinates": [ [ 37.252, 11.062 ], [ 37.252, 11.07 ], [ 37.244, 11.07 ], [ 37.244, 11.078 ], [ 37.236, 11.078 ], [ 37.228, 11.078 ], [ 37.22, 11.078 ], [ 37.212, 11.078 ], [ 37.204, 11.086 ], [ 37.196, 11.086 ] ] } },
{ "type": "Feature", "properties": { "idx": 5373, "idx_ds": 4528, "pit": false, "strord": 1 }, "geometry": { "type": "LineString", "coordinates": [ [ 37.228, 11.006 ], [ 37.22, 11.014 ], [ 37.212, 11.022 ], [ 37.204, 11.022 ], [ 37.204, 11.03 ], [ 37.196, 11.03 ], [ 37.188, 11.03 ], [ 37.18, 11.03 ], [ 37.18, 11.038 ], [ 37.172, 11.038 ], [ 37.164, 11.046 ], [ 37.156, 11.054 ], [ 37.148, 11.054 ], [ 37.148, 11.062 ], [ 37.14, 11.062 ], [ 37.132, 11.07 ], [ 37.124, 11.078 ], [ 37.116, 11.078 ], [ 37.108, 11.086 ] ] } },
{ "type": "Feature", "properties": { "idx": 4476, "idx_ds": 4387, "pit": false, "strord": 1 }, "geometry": { "type": "LineString", "coordinates": [ [ 37.356, 11.094 ], [ 37.356, 11.086 ], [ 37.348, 11.086 ], [ 37.348, 11.078 ], [ 37.348, 11.07 ], [ 37.34, 11.07 ], [ 37.332, 11.07 ], [ 37.332, 11.078 ], [ 37.324, 11.07 ], [ 37.324, 11.078 ], [ 37.316, 11.078 ], [ 37.316, 11.086 ], [ 37.308, 11.086 ], [ 37.308, 11.094 ], [ 37.308, 11.102 ] ] } },
{ "type": "Feature", "properties": { "idx": 4790, "idx_ds": 4539, "pit": false, "strord": 1 }, "geometry": { "type": "LineString", "coordinates": [ [ 37.212, 11.062 ], [ 37.204, 11.062 ], [ 37.204, 11.07 ], [ 37.196, 11.07 ], [ 37.196, 11.078 ], [ 37.196, 11.086 ] ] } },
{ "type": "Feature", "properties": { "idx": 5606, "idx_ds": 4524, "pit": false, "strord": 1 }, "geometry": { "type": "LineString", "coordinates": [ [ 37.1, 10.982 ], [ 37.092, 10.982 ], [ 37.092, 10.99 ], [ 37.084, 10.99 ], [ 37.076, 10.998 ], [ 37.068, 11.006 ], [ 37.06, 11.006 ], [ 37.052, 11.014 ], [ 37.052, 11.022 ], [ 37.06, 11.03 ], [ 37.068, 11.03 ], [ 37.068, 11.038 ], [ 37.076, 11.046 ], [ 37.084, 11.046 ], [ 37.076, 11.054 ], [ 37.076, 11.062 ], [ 37.076, 11.07 ], [ 37.076, 11.078 ], [ 37.076, 11.086 ] ] } },
{ "type": "Feature", "properties": { "idx": 5095, "idx_ds": 4517, "pit": false, "strord": 1 }, "geometry": { "type": "LineString", "coordinates": [ [ 36.996, 11.03 ], [ 36.988, 11.038 ], [ 36.988, 11.046 ], [ 36.988, 11.054 ], [ 36.996, 11.054 ], [ 36.996, 11.062 ], [ 37.004, 11.062 ], [ 37.004, 11.07 ], [ 37.012, 11.07 ], [ 37.012, 11.078 ], [ 37.02, 11.078 ], [ 37.02, 11.086 ] ] } },
{ "type": "Feature", "properties": { "idx": 4539, "idx_ds": 4027, "pit": false, "strord": 2 }, "geometry": { "type": "LineString", "coordinates": [ [ 37.196, 11.086 ], [ 37.188, 11.086 ], [ 37.18, 11.086 ], [ 37.18, 11.094 ], [ 37.172, 11.094 ], [ 37.164, 11.094 ], [ 37.156, 11.094 ], [ 37.156, 11.102 ], [ 37.148, 11.102 ], [ 37.14, 11.102 ], [ 37.14, 11.11 ], [ 37.132, 11.11 ], [ 37.124, 11.11 ], [ 37.116, 11.11 ], [ 37.108, 11.11 ], [ 37.108, 11.118 ], [ 37.1, 11.126 ], [ 37.1, 11.134 ], [ 37.092, 11.134 ], [ 37.084, 11.134 ] ] } },
{ "type": "Feature", "properties": { "idx": 5351, "idx_ds": 3773, "pit": false, "strord": 1 }, "geometry": { "type": "LineString", "coordinates": [ [ 37.052, 11.006 ], [ 37.044, 11.006 ], [ 37.044, 11.014 ], [ 37.044, 11.022 ], [ 37.044, 11.03 ], [ 37.052, 11.03 ], [ 37.052, 11.038 ], [ 37.06, 11.046 ], [ 37.052, 11.054 ], [ 37.044, 11.062 ], [ 37.044, 11.07 ], [ 37.052, 11.07 ], [ 37.044, 11.078 ], [ 37.044, 11.086 ], [ 37.044, 11.094 ], [ 37.052, 11.102 ], [ 37.052, 11.11 ], [ 37.052, 11.118 ], [ 37.06, 11.126 ], [ 37.068, 11.126 ], [ 37.06, 11.134 ], [ 37.06, 11.142 ], [ 37.06, 11.15 ], [ 37.052, 11.158 ], [ 37.044, 11.158 ] ] } },
{ "type": "Feature", "properties": { "idx": 5194, "idx_ds": 4524, "pit": false, "strord": 1 }, "geometry": { "type": "LineString", "coordinates": [ [ 37.124, 11.022 ], [ 37.116, 11.03 ], [ 37.116, 11.038 ], [ 37.108, 11.038 ], [ 37.1, 11.046 ], [ 37.1, 11.054 ], [ 37.092, 11.054 ], [ 37.092, 11.062 ], [ 37.084, 11.07 ], [ 37.084, 11.078 ], [ 37.076, 11.086 ] ] } },
{ "type": "Feature", "properties": { "idx": 5084, "idx_ds": 5003, "pit": false, "strord": 1 }, "geometry": { "type": "LineString", "coordinates": [ [ 36.908, 11.03 ], [ 36.916, 11.03 ], [ 36.924, 11.03 ], [ 36.924, 11.038 ] ] } },
{ "type": "Feature", "properties": { "idx": 4921, "idx_ds": 5003, "pit": false, "strord": 1 }, "geometry": { "type": "LineString", "coordinates": [ [ 36.932, 11.046 ], [ 36.924, 11.038 ] ] } },
{ "type": "Feature", "properties": { "idx": 4768, "idx_ds": 4517, "pit": false, "strord": 1 }, "geometry": { "type": "LineString", "coordinates": [ [ 37.036, 11.062 ], [ 37.028, 11.07 ], [ 37.028, 11.078 ], [ 37.02, 11.086 ] ] } },
{ "type": "Feature", "properties": { "idx": 4761, "idx_ds": 4510, "pit": false, "strord": 1 }, "geometry": { "type": "LineString", "coordinates": [ [ 36.98, 11.062 ], [ 36.98, 11.07 ], [ 36.972, 11.078 ], [ 36.964, 11.078 ], [ 36.964, 11.086 ] ] } },
{ "type": "Feature", "properties": { "idx": 5003, "idx_ds": 3595, "pit": false, "strord": 2 }, "geometry": { "type": "LineString", "coordinates": [ [ 36.924, 11.038 ], [ 36.924, 11.046 ], [ 36.924, 11.054 ], [ 36.916, 11.054 ], [ 36.916, 11.062 ], [ 36.916, 11.07 ], [ 36.924, 11.078 ], [ 36.924, 11.086 ], [ 36.924, 11.094 ], [ 36.924, 11.102 ], [ 36.924, 11.11 ], [ 36.924, 11.118 ], [ 36.932, 11.118 ], [ 36.932, 11.126 ], [ 36.932, 11.134 ], [ 36.94, 11.134 ], [ 36.94, 11.142 ], [ 36.94, 11.15 ], [ 36.948, 11.158 ], [ 36.948, 11.166 ], [ 36.948, 11.174 ] ] } },
{ "type": "Feature", "properties": { "idx": 4388, "idx_ds": 4387, "pit": false, "strord": 1 }, "geometry": { "type": "LineString", "coordinates": [ [ 37.316, 11.102 ], [ 37.308, 11.102 ] ] } },
{ "type": "Feature", "properties": { "idx": 4387, "idx_ds": 4299, "pit": false, "strord": 2 }, "geometry": { "type": "LineString", "coordinates": [ [ 37.308, 11.102 ], [ 37.3, 11.102 ], [ 37.292, 11.102 ], [ 37.284, 11.102 ], [ 37.284, 11.11 ], [ 37.276, 11.11 ], [ 37.268, 11.11 ] ] } },
{ "type": "Feature", "properties": { "idx": 4517, "idx_ds": 3773, "pit": false, "strord": 2 }, "geometry": { "type": "LineString", "coordinates": [ [ 37.02, 11.086 ], [ 37.02, 11.094 ], [ 37.028, 11.102 ], [ 37.036, 11.102 ], [ 37.036, 11.11 ], [ 37.036, 11.118 ], [ 37.044, 11.126 ], [ 37.044, 11.134 ], [ 37.036, 11.142 ], [ 37.028, 11.15 ], [ 37.02, 11.158 ], [ 37.028, 11.158 ], [ 37.036, 11.158 ], [ 37.036, 11.166 ], [ 37.044, 11.158 ] ] } },
{ "type": "Feature", "properties": { "idx": 4509, "idx_ds": 4510, "pit": false, "strord": 1 }, "geometry": { "type": "LineString", "coordinates": [ [ 36.956, 11.086 ], [ 36.964, 11.086 ] ] } },
{ "type": "Feature", "properties": { "idx": 4528, "idx_ds": 4027, "pit": false, "strord": 2 }, "geometry": { "type": "LineString", "coordinates": [ [ 37.108, 11.086 ], [ 37.108, 11.094 ], [ 37.1, 11.102 ], [ 37.092, 11.102 ], [ 37.1, 11.11 ], [ 37.092, 11.11 ], [ 37.092, 11.118 ], [ 37.092, 11.126 ], [ 37.084, 11.134 ] ] } },
{ "type": "Feature", "properties": { "idx": 4510, "idx_ds": 3683, "pit": false, "strord": 2 }, "geometry": { "type": "LineString", "coordinates": [ [ 36.964, 11.086 ], [ 36.964, 11.094 ], [ 36.964, 11.102 ], [ 36.964, 11.11 ], [ 36.956, 11.118 ], [ 36.956, 11.126 ], [ 36.964, 11.126 ], [ 36.964, 11.134 ], [ 36.972, 11.134 ], [ 36.972, 11.142 ], [ 36.972, 11.15 ], [ 36.972, 11.158 ], [ 36.98, 11.158 ], [ 36.98, 11.166 ], [ 36.988, 11.166 ] ] } },
{ "type": "Feature", "properties": { "idx": 4465, "idx_ds": 4299, "pit": false, "strord": 1 }, "geometry": { "type": "LineString", "coordinates": [ [ 37.268, 11.094 ], [ 37.268, 11.102 ], [ 37.268, 11.11 ] ] } },
{ "type": "Feature", "properties": { "idx": 4053, "idx_ds": 4132, "pit": false, "strord": 1 }, "geometry": { "type": "LineString", "coordinates": [ [ 37.292, 11.134 ], [ 37.284, 11.134 ], [ 37.276, 11.134 ], [ 37.268, 11.126 ], [ 37.26, 11.126 ] ] } },
{ "type": "Feature", "properties": { "idx": 4524, "idx_ds": 3944, "pit": false, "strord": 2 }, "geometry": { "type": "LineString", "coordinates": [ [ 37.076, 11.086 ], [ 37.084, 11.094 ], [ 37.084, 11.102 ], [ 37.084, 11.11 ], [ 37.076, 11.118 ], [ 37.076, 11.126 ], [ 37.076, 11.134 ], [ 37.084, 11.142 ] ] } },
{ "type": "Feature", "properties": { "idx": 3418, "idx_ds": 2669, "pit": false, "strord": 1 }, "geometry": { "type": "LineString", "coordinates": [ [ 36.86, 11.19 ], [ 36.86, 11.198 ], [ 36.868, 11.206 ], [ 36.876, 11.206 ], [ 36.884, 11.214 ], [ 36.884, 11.222 ], [ 36.884, 11.23 ], [ 36.876, 11.23 ], [ 36.876, 11.238 ], [ 36.868, 11.238 ], [ 36.86, 11.246 ], [ 36.86, 11.254 ], [ 36.852, 11.254 ], [ 36.86, 11.262 ], [ 36.852, 11.262 ], [ 36.844, 11.27 ], [ 36.844, 11.262 ] ] } },
{ "type": "Feature", "properties": { "idx": 4299, "idx_ds": 4132, "pit": false, "strord": 2 }, "geometry": { "type": "LineString", "coordinates": [ [ 37.268, 11.11 ], [ 37.268, 11.118 ], [ 37.26, 11.126 ] ] } },
{ "type": "Feature", "properties": { "idx": 4164, "idx_ds": 3341, "pit": false, "strord": 1 }, "geometry": { "type": "LineString", "coordinates": [ [ 36.852, 11.118 ], [ 36.86, 11.118 ], [ 36.86, 11.126 ], [ 36.868, 11.126 ], [ 36.868, 11.134 ], [ 36.876, 11.134 ], [ 36.884, 11.134 ], [ 36.884, 11.142 ], [ 36.892, 11.15 ], [ 36.892, 11.158 ], [ 36.884, 11.158 ], [ 36.892, 11.166 ], [ 36.9, 11.174 ], [ 36.9, 11.182 ], [ 36.908, 11.182 ], [ 36.908, 11.19 ], [ 36.908, 11.198 ] ] } },
{ "type": "Feature", "properties": { "idx": 4132, "idx_ds": 3962, "pit": false, "strord": 2 }, "geometry": { "type": "LineString", "coordinates": [ [ 37.26, 11.126 ], [ 37.252, 11.126 ], [ 37.244, 11.126 ], [ 37.244, 11.134 ], [ 37.236, 11.134 ], [ 37.236, 11.142 ], [ 37.228, 11.142 ] ] } },
{ "type": "Feature", "properties": { "idx": 3696, "idx_ds": 3609, "pit": false, "strord": 1 }, "geometry": { "type": "LineString", "coordinates": [ [ 37.092, 11.166 ], [ 37.092, 11.174 ], [ 37.084, 11.166 ], [ 37.084, 11.174 ], [ 37.076, 11.174 ], [ 37.076, 11.182 ], [ 37.068, 11.182 ], [ 37.068, 11.174 ], [ 37.06, 11.174 ] ] } },
{ "type": "Feature", "properties": { "idx": 3799, "idx_ds": 3962, "pit": false, "strord": 1 }, "geometry": { "type": "LineString", "coordinates": [ [ 37.252, 11.158 ], [ 37.252, 11.15 ], [ 37.244, 11.15 ], [ 37.236, 11.15 ], [ 37.228, 11.142 ] ] } },
{ "type": "Feature", "properties": { "idx": 4027, "idx_ds": 3944, "pit": false, "strord": 3 }, "geometry": { "type": "LineString", "coordinates": [ [ 37.084, 11.134 ], [ 37.084, 11.142 ] ] } },
{ "type": "Feature", "properties": { "idx": 4180, "idx_ds": 3683, "pit": false, "strord": 1 }, "geometry": { "type": "LineString", "coordinates": [ [ 36.98, 11.118 ], [ 36.98, 11.126 ], [ 36.98, 11.134 ], [ 36.988, 11.142 ], [ 36.98, 11.15 ], [ 36.988, 11.158 ], [ 36.988, 11.166 ] ] } },
{ "type": "Feature", "properties": { "idx": 3944, "idx_ds": 3609, "pit": false, "strord": 3 }, "geometry": { "type": "LineString", "coordinates": [ [ 37.084, 11.142 ], [ 37.084, 11.15 ], [ 37.084, 11.158 ], [ 37.076, 11.158 ], [ 37.076, 11.166 ], [ 37.068, 11.166 ], [ 37.06, 11.174 ] ] } },
{ "type": "Feature", "properties": { "idx": 2743, "idx_ds": 2334, "pit": false, "strord": 1 }, "geometry": { "type": "LineString", "coordinates": [ [ 36.772, 11.254 ], [ 36.78, 11.254 ], [ 36.788, 11.254 ], [ 36.788, 11.246 ], [ 36.796, 11.246 ], [ 36.804, 11.246 ], [ 36.804, 11.254 ], [ 36.812, 11.254 ], [ 36.812, 11.262 ], [ 36.812, 11.27 ], [ 36.804, 11.27 ], [ 36.812, 11.278 ], [ 36.804, 11.278 ], [ 36.812, 11.286 ], [ 36.82, 11.294 ] ] } },
{ "type": "Feature", "properties": { "idx": 3962, "idx_ds": 2873, "pit": false, "strord": 2 }, "geometry": { "type": "LineString", "coordinates": [ [ 37.228, 11.142 ], [ 37.228, 11.15 ], [ 37.22, 11.15 ], [ 37.212, 11.158 ], [ 37.212, 11.166 ], [ 37.204, 11.174 ], [ 37.196, 11.182 ], [ 37.196, 11.19 ], [ 37.188, 11.198 ], [ 37.18, 11.198 ], [ 37.18, 11.206 ], [ 37.172, 11.206 ], [ 37.172, 11.214 ], [ 37.164, 11.222 ], [ 37.156, 11.222 ], [ 37.156, 11.23 ], [ 37.148, 11.238 ], [ 37.148, 11.246 ] ] } },
{ "type": "Feature", "properties": { "idx": 3773, "idx_ds": 3609, "pit": false, "strord": 2 }, "geometry": { "type": "LineString", "coordinates": [ [ 37.044, 11.158 ], [ 37.052, 11.166 ], [ 37.06, 11.174 ] ] } },
{ "type": "Feature", "properties": { "idx": 3084, "idx_ds": 2917, "pit": false, "strord": 1 }, "geometry": { "type": "LineString", "coordinates": [ [ 36.844, 11.222 ], [ 36.836, 11.23 ], [ 36.836, 11.238 ] ] } },
{ "type": "Feature", "properties": { "idx": 3082, "idx_ds": 2917, "pit": false, "strord": 1 }, "geometry": { "type": "LineString", "coordinates": [ [ 36.828, 11.222 ], [ 36.828, 11.23 ], [ 36.836, 11.238 ] ] } },
{ "type": "Feature", "properties": { "idx": 3683, "idx_ds": 2680, "pit": false, "strord": 2 }, "geometry": { "type": "LineString", "coordinates": [ [ 36.988, 11.166 ], [ 36.988, 11.174 ], [ 36.98, 11.174 ], [ 36.98, 11.182 ], [ 36.98, 11.19 ], [ 36.98, 11.198 ], [ 36.98, 11.206 ], [ 36.98, 11.214 ], [ 36.972, 11.214 ], [ 36.972, 11.222 ], [ 36.964, 11.23 ], [ 36.964, 11.238 ], [ 36.964, 11.246 ], [ 36.956, 11.254 ], [ 36.948, 11.254 ], [ 36.94, 11.254 ], [ 36.932, 11.262 ] ] } },
{ "type": "Feature", "properties": { "idx": 3609, "idx_ds": 2355, "pit": false, "strord": 3 }, "geometry": { "type": "LineString", "coordinates": [ [ 37.06, 11.174 ], [ 37.06, 11.182 ], [ 37.052, 11.182 ], [ 37.044, 11.182 ], [ 37.036, 11.182 ], [ 37.036, 11.19 ], [ 37.028, 11.19 ], [ 37.02, 11.19 ], [ 37.012, 11.19 ], [ 37.012, 11.198 ], [ 37.012, 11.206 ], [ 37.004, 11.214 ], [ 36.996, 11.214 ], [ 36.996, 11.222 ], [ 36.988, 11.23 ], [ 36.988, 11.238 ], [ 36.988, 11.246 ], [ 36.988, 11.254 ], [ 36.98, 11.254 ], [ 36.98, 11.262 ], [ 36.98, 11.27 ], [ 36.98, 11.278 ], [ 36.988, 11.278 ], [ 36.988, 11.286 ], [ 36.988, 11.294 ] ] } },
{ "type": "Feature", "properties": { "idx": 3677, "idx_ds": 3595, "pit": false, "strord": 1 }, "geometry": { "type": "LineString", "coordinates": [ [ 36.94, 11.166 ], [ 36.948, 11.174 ] ] } },
{ "type": "Feature", "properties": { "idx": 3303, "idx_ds": 1796, "pit": false, "strord": 1 }, "geometry": { "type": "LineString", "coordinates": [ [ 37.268, 11.206 ], [ 37.268, 11.214 ], [ 37.268, 11.222 ], [ 37.268, 11.23 ], [ 37.26, 11.238 ], [ 37.252, 11.246 ], [ 37.244, 11.254 ], [ 37.244, 11.262 ], [ 37.244, 11.27 ], [ 37.244, 11.278 ], [ 37.244, 11.286 ], [ 37.236, 11.294 ], [ 37.228, 11.302 ], [ 37.22, 11.31 ], [ 37.212, 11.318 ], [ 37.204, 11.318 ], [ 37.196, 11.326 ], [ 37.196, 11.334 ], [ 37.188, 11.342 ], [ 37.18, 11.35 ], [ 37.172, 11.35 ], [ 37.164, 11.35 ] ] } },
{ "type": "Feature", "properties": { "idx": 2917, "idx_ds": 2669, "pit": false, "strord": 2 }, "geometry": { "type": "LineString", "coordinates": [ [ 36.836, 11.238 ], [ 36.836, 11.246 ], [ 36.844, 11.254 ], [ 36.844, 11.262 ] ] } },
{ "type": "Feature", "properties": { "idx": 3871, "idx_ds": 3118, "pit": false, "strord": 1 }, "geometry": { "type": "LineString", "coordinates": [ [ 37.164, 11.15 ], [ 37.156, 11.15 ], [ 37.148, 11.158 ], [ 37.14, 11.158 ], [ 37.14, 11.166 ], [ 37.132, 11.166 ], [ 37.124, 11.174 ], [ 37.116, 11.182 ], [ 37.108, 11.19 ], [ 37.1, 11.198 ], [ 37.1, 11.206 ], [ 37.108, 11.214 ], [ 37.116, 11.222 ] ] } },
{ "type": "Feature", "properties": { "idx": 3595, "idx_ds": 2846, "pit": false, "strord": 2 }, "geometry": { "type": "LineString", "coordinates": [ [ 36.948, 11.174 ], [ 36.948, 11.182 ], [ 36.956, 11.19 ], [ 36.956, 11.198 ], [ 36.956, 11.206 ], [ 36.964, 11.206 ], [ 36.956, 11.214 ], [ 36.956, 11.222 ], [ 36.956, 11.23 ], [ 36.948, 11.238 ], [ 36.94, 11.23 ], [ 36.94, 11.238 ], [ 36.932, 11.246 ] ] } },
{ "type": "Feature", "properties": { "idx": 2881, "idx_ds": 2873, "pit": false, "strord": 1 }, "geometry": { "type": "LineString", "coordinates": [ [ 37.212, 11.246 ], [ 37.212, 11.254 ], [ 37.212, 11.262 ], [ 37.204, 11.262 ], [ 37.196, 11.262 ], [ 37.188, 11.254 ], [ 37.188, 11.246 ], [ 37.18, 11.246 ], [ 37.172, 11.246 ], [ 37.164, 11.238 ], [ 37.164, 11.246 ], [ 37.156, 11.246 ], [ 37.148, 11.246 ] ] } },
{ "type": "Feature", "properties": { "idx": 2669, "idx_ds": 2334, "pit": false, "strord": 2 }, "geometry": { "type": "LineString", "coordinates": [ [ 36.844, 11.262 ], [ 36.836, 11.27 ], [ 36.828, 11.278 ], [ 36.828, 11.286 ], [ 36.82, 11.286 ], [ 36.82, 11.294 ] ] } },
{ "type": "Feature", "properties": { "idx": 2506, "idx_ds": 2009, "pit": false, "strord": 1 }, "geometry": { "type": "LineString", "coordinates": [ [ 36.868, 11.278 ], [ 36.86, 11.278 ], [ 36.86, 11.286 ], [ 36.86, 11.294 ], [ 36.86, 11.302 ], [ 36.86, 11.31 ], [ 36.852, 11.31 ], [ 36.844, 11.318 ], [ 36.852, 11.326 ], [ 36.852, 11.318 ], [ 36.86, 11.318 ], [ 36.86, 11.326 ], [ 36.868, 11.326 ], [ 36.876, 11.326 ] ] } },
{ "type": "Feature", "properties": { "idx": 3257, "idx_ds": 3341, "pit": false, "strord": 1 }, "geometry": { "type": "LineString", "coordinates": [ [ 36.9, 11.206 ], [ 36.908, 11.206 ], [ 36.908, 11.198 ] ] } },
{ "type": "Feature", "properties": { "idx": 3341, "idx_ds": 2846, "pit": false, "strord": 2 }, "geometry": { "type": "LineString", "coordinates": [ [ 36.908, 11.198 ], [ 36.916, 11.206 ], [ 36.916, 11.214 ], [ 36.916, 11.222 ], [ 36.916, 11.23 ], [ 36.924, 11.238 ], [ 36.932, 11.238 ], [ 36.932, 11.246 ] ] } },
{ "type": "Feature", "properties": { "idx": 1560, "idx_ds": 1549, "pit": false, "strord": 1 }, "geometry": { "type": "LineString", "coordinates": [ [ 37.268, 11.374 ], [ 37.26, 11.366 ], [ 37.252, 11.366 ], [ 37.244, 11.358 ], [ 37.236, 11.366 ], [ 37.228, 11.374 ], [ 37.22, 11.366 ], [ 37.212, 11.374 ], [ 37.204, 11.374 ], [ 37.196, 11.374 ], [ 37.188, 11.374 ], [ 37.18, 11.374 ] ] } },
{ "type": "Feature", "properties": { "idx": 1996, "idx_ds": 1998, "pit": false, "strord": 1 }, "geometry": { "type": "LineString", "coordinates": [ [ 36.772, 11.326 ], [ 36.78, 11.326 ], [ 36.788, 11.326 ] ] } },
{ "type": "Feature", "properties": { "idx": 1832, "idx_ds": 1998, "pit": false, "strord": 1 }, "geometry": { "type": "LineString", "coordinates": [ [ 36.788, 11.342 ], [ 36.788, 11.334 ], [ 36.788, 11.326 ] ] } },
{ "type": "Feature", "properties": { "idx": 2334, "idx_ds": 2084, "pit": false, "strord": 2 }, "geometry": { "type": "LineString", "coordinates": [ [ 36.82, 11.294 ], [ 36.812, 11.302 ], [ 36.804, 11.302 ], [ 36.812, 11.31 ], [ 36.812, 11.318 ] ] } },
{ "type": "Feature", "properties": { "idx": 1998, "idx_ds": 2084, "pit": false, "strord": 2 }, "geometry": { "type": "LineString", "coordinates": [ [ 36.788, 11.326 ], [ 36.796, 11.326 ], [ 36.796, 11.318 ], [ 36.804, 11.318 ], [ 36.812, 11.318 ] ] } },
{ "type": "Feature", "properties": { "idx": 2052, "idx_ds": 1549, "pit": false, "strord": 1 }, "geometry": { "type": "LineString", "coordinates": [ [ 37.22, 11.326 ], [ 37.22, 11.334 ], [ 37.212, 11.334 ], [ 37.204, 11.334 ], [ 37.204, 11.342 ], [ 37.196, 11.35 ], [ 37.188, 11.358 ], [ 37.188, 11.366 ], [ 37.18, 11.374 ] ] } },
{ "type": "Feature", "properties": { "idx": 2344, "idx_ds": 2009, "pit": false, "strord": 1 }, "geometry": { "type": "LineString", "coordinates": [ [ 36.9, 11.294 ], [ 36.9, 11.302 ], [ 36.892, 11.302 ], [ 36.892, 11.31 ], [ 36.884, 11.31 ], [ 36.884, 11.318 ], [ 36.876, 11.326 ] ] } },
{ "type": "Feature", "properties": { "idx": 3202, "idx_ds": 3118, "pit": false, "strord": 1 }, "geometry": { "type": "LineString", "coordinates": [ [ 37.124, 11.214 ], [ 37.116, 11.222 ] ] } },
{ "type": "Feature", "properties": { "idx": 2084, "idx_ds": 1673, "pit": false, "strord": 3 }, "geometry": { "type": "LineString", "coordinates": [ [ 36.812, 11.318 ], [ 36.82, 11.326 ], [ 36.828, 11.326 ], [ 36.828, 11.334 ], [ 36.836, 11.334 ], [ 36.836, 11.342 ], [ 36.844, 11.342 ], [ 36.844, 11.35 ], [ 36.844, 11.358 ] ] } },
{ "type": "Feature", "properties": { "idx": 3118, "idx_ds": 2953, "pit": false, "strord": 2 }, "geometry": { "type": "LineString", "coordinates": [ [ 37.116, 11.222 ], [ 37.124, 11.23 ], [ 37.124, 11.238 ] ] } },
{ "type": "Feature", "properties": { "idx": 2846, "idx_ds": 2680, "pit": false, "strord": 3 }, "geometry": { "type": "LineString", "coordinates": [ [ 36.932, 11.246 ], [ 36.932, 11.254 ], [ 36.932, 11.262 ] ] } },
{ "type": "Feature", "properties": { "idx": 3477, "idx_ds": 1821, "pit": false, "strord": 1 }, "geometry": { "type": "LineString", "coordinates": [ [ 37.332, 11.19 ], [ 37.332, 11.198 ], [ 37.332, 11.206 ], [ 37.332, 11.214 ], [ 37.34, 11.222 ], [ 37.34, 11.23 ], [ 37.34, 11.238 ], [ 37.34, 11.246 ], [ 37.34, 11.254 ], [ 37.348, 11.254 ], [ 37.348, 11.262 ], [ 37.348, 11.27 ], [ 37.356, 11.278 ], [ 37.356, 11.286 ], [ 37.356, 11.294 ], [ 37.356, 11.302 ], [ 37.356, 11.31 ], [ 37.356, 11.318 ], [ 37.356, 11.326 ], [ 37.356, 11.334 ], [ 37.356, 11.342 ], [ 37.364, 11.35 ] ] } },
{ "type": "Feature", "properties": { "idx": 2954, "idx_ds": 2953, "pit": false, "strord": 1 }, "geometry": { "type": "LineString", "coordinates": [ [ 37.132, 11.238 ], [ 37.124, 11.238 ] ] } },
{ "type": "Feature", "properties": { "idx": 2873, "idx_ds": 2790, "pit": false, "strord": 2 }, "geometry": { "type": "LineString", "coordinates": [ [ 37.148, 11.246 ], [ 37.148, 11.254 ] ] } },
{ "type": "Feature", "properties": { "idx": 2707, "idx_ds": 2790, "pit": false, "strord": 1 }, "geometry": { "type": "LineString", "coordinates": [ [ 37.148, 11.262 ], [ 37.148, 11.254 ] ] } },
{ "type": "Feature", "properties": { "idx": 2861, "idx_ds": 1776, "pit": false, "strord": 1 }, "geometry": { "type": "LineString", "coordinates": [ [ 37.052, 11.246 ], [ 37.044, 11.246 ], [ 37.044, 11.254 ], [ 37.036, 11.254 ], [ 37.028, 11.254 ], [ 37.028, 11.262 ], [ 37.02, 11.262 ], [ 37.02, 11.27 ], [ 37.012, 11.27 ], [ 37.012, 11.278 ], [ 37.012, 11.286 ], [ 37.012, 11.294 ], [ 37.004, 11.302 ], [ 37.004, 11.31 ], [ 37.004, 11.318 ], [ 37.004, 11.326 ], [ 37.012, 11.334 ], [ 37.012, 11.342 ], [ 37.004, 11.342 ], [ 37.004, 11.35 ] ] } },
{ "type": "Feature", "properties": { "idx": 3224, "idx_ds": 1648, "pit": false, "strord": 1 }, "geometry": { "type": "LineString", "coordinates": [ [ 37.3, 11.214 ], [ 37.3, 11.222 ], [ 37.3, 11.23 ], [ 37.308, 11.238 ], [ 37.316, 11.246 ], [ 37.316, 11.254 ], [ 37.316, 11.262 ], [ 37.316, 11.27 ], [ 37.324, 11.278 ], [ 37.332, 11.286 ], [ 37.332, 11.294 ], [ 37.34, 11.294 ], [ 37.34, 11.302 ], [ 37.34, 11.31 ], [ 37.34, 11.318 ], [ 37.34, 11.326 ], [ 37.34, 11.334 ], [ 37.332, 11.342 ], [ 37.324, 11.342 ], [ 37.324, 11.35 ], [ 37.316, 11.35 ], [ 37.316, 11.358 ], [ 37.308, 11.366 ] ] } },
{ "type": "Feature", "properties": { "idx": 2953, "idx_ds": 2703, "pit": false, "strord": 2 }, "geometry": { "type": "LineString", "coordinates": [ [ 37.124, 11.238 ], [ 37.124, 11.246 ], [ 37.116, 11.246 ], [ 37.116, 11.254 ], [ 37.116, 11.262 ] ] } },
{ "type": "Feature", "properties": { "idx": 2790, "idx_ds": 2703, "pit": false, "strord": 2 }, "geometry": { "type": "LineString", "coordinates": [ [ 37.148, 11.254 ], [ 37.14, 11.262 ], [ 37.132, 11.262 ], [ 37.124, 11.262 ], [ 37.116, 11.262 ] ] } },
{ "type": "Feature", "properties": { "idx": 2680, "idx_ds": 1858, "pit": false, "strord": 3 }, "geometry": { "type": "LineString", "coordinates": [ [ 36.932, 11.262 ], [ 36.932, 11.27 ], [ 36.94, 11.278 ], [ 36.94, 11.286 ], [ 36.948, 11.286 ], [ 36.948, 11.294 ], [ 36.948, 11.302 ], [ 36.948, 11.31 ], [ 36.948, 11.318 ], [ 36.956, 11.318 ], [ 36.964, 11.318 ], [ 36.964, 11.326 ], [ 36.964, 11.334 ], [ 36.964, 11.342 ], [ 36.972, 11.342 ], [ 36.98, 11.342 ], [ 36.988, 11.342 ], [ 36.996, 11.342 ] ] } },
{ "type": "Feature", "properties": { "idx": 2009, "idx_ds": 1680, "pit": false, "strord": 2 }, "geometry": { "type": "LineString", "coordinates": [ [ 36.876, 11.326 ], [ 36.876, 11.334 ], [ 36.868, 11.334 ], [ 36.868, 11.342 ], [ 36.868, 11.35 ], [ 36.868, 11.358 ], [ 36.876, 11.358 ], [ 36.876, 11.35 ], [ 36.884, 11.358 ], [ 36.892, 11.366 ], [ 36.892, 11.358 ], [ 36.9, 11.358 ] ] } },
{ "type": "Feature", "properties": { "idx": 1549, "idx_ds": 1796, "pit": false, "strord": 2 }, "geometry": { "type": "LineString", "coordinates": [ [ 37.18, 11.374 ], [ 37.172, 11.366 ], [ 37.164, 11.366 ], [ 37.164, 11.358 ], [ 37.164, 11.35 ] ] } },
{ "type": "Feature", "properties": { "idx": 1588, "idx_ds": 1673, "pit": false, "strord": 1 }, "geometry": { "type": "LineString", "coordinates": [ [ 36.828, 11.366 ], [ 36.836, 11.366 ], [ 36.836, 11.358 ], [ 36.844, 11.358 ] ] } },
{ "type": "Feature", "properties": { "idx": 2621, "idx_ds": 2619, "pit": false, "strord": 1 }, "geometry": { "type": "LineString", "coordinates": [ [ 37.124, 11.27 ], [ 37.116, 11.27 ], [ 37.108, 11.27 ] ] } },
{ "type": "Feature", "properties": { "idx": 2703, "idx_ds": 2619, "pit": false, "strord": 3 }, "geometry": { "type": "LineString", "coordinates": [ [ 37.116, 11.262 ], [ 37.108, 11.27 ] ] } },
{ "type": "Feature", "properties": { "idx": 2619, "idx_ds": 2117, "pit": false, "strord": 3 }, "geometry": { "type": "LineString", "coordinates": [ [ 37.108, 11.27 ], [ 37.1, 11.278 ], [ 37.1, 11.286 ], [ 37.1, 11.294 ], [ 37.092, 11.294 ], [ 37.092, 11.302 ], [ 37.092, 11.31 ], [ 37.084, 11.31 ], [ 37.076, 11.318 ] ] } },
{ "type": "Feature", "properties": { "idx": 2688, "idx_ds": 2355, "pit": false, "strord": 1 }, "geometry": { "type": "LineString", "coordinates": [ [ 36.996, 11.262 ], [ 36.996, 11.27 ], [ 36.996, 11.278 ], [ 36.996, 11.286 ], [ 36.988, 11.294 ] ] } },
{ "type": "Feature", "properties": { "idx": 1673, "idx_ds": 934, "pit": false, "strord": 3 }, "geometry": { "type": "LineString", "coordinates": [ [ 36.844, 11.358 ], [ 36.852, 11.366 ], [ 36.86, 11.358 ], [ 36.86, 11.366 ], [ 36.86, 11.374 ], [ 36.868, 11.374 ], [ 36.868, 11.366 ], [ 36.876, 11.366 ], [ 36.884, 11.366 ], [ 36.884, 11.374 ], [ 36.884, 11.382 ], [ 36.892, 11.382 ], [ 36.9, 11.39 ], [ 36.908, 11.39 ], [ 36.908, 11.398 ], [ 36.908, 11.406 ], [ 36.908, 11.414 ], [ 36.916, 11.422 ], [ 36.908, 11.43 ] ] } },
{ "type": "Feature", "properties": { "idx": 2616, "idx_ds": 2117, "pit": false, "strord": 1 }, "geometry": { "type": "LineString", "coordinates": [ [ 37.084, 11.27 ], [ 37.084, 11.278 ], [ 37.076, 11.278 ], [ 37.076, 11.286 ], [ 37.076, 11.294 ], [ 37.084, 11.302 ], [ 37.076, 11.31 ], [ 37.076, 11.318 ] ] } },
{ "type": "Feature", "properties": { "idx": 1796, "idx_ds": 1703, "pit": false, "strord": 2 }, "geometry": { "type": "LineString", "coordinates": [ [ 37.164, 11.35 ], [ 37.156, 11.35 ], [ 37.148, 11.35 ], [ 37.14, 11.342 ], [ 37.14, 11.35 ], [ 37.132, 11.35 ], [ 37.124, 11.35 ], [ 37.116, 11.35 ], [ 37.108, 11.35 ], [ 37.108, 11.358 ], [ 37.1, 11.358 ], [ 37.092, 11.366 ], [ 37.084, 11.358 ] ] } },
{ "type": "Feature", "properties": { "idx": 1006, "idx_ds": 934, "pit": false, "strord": 1 }, "geometry": { "type": "LineString", "coordinates": [ [ 36.82, 11.422 ], [ 36.828, 11.414 ], [ 36.836, 11.406 ], [ 36.844, 11.406 ], [ 36.844, 11.398 ], [ 36.852, 11.398 ], [ 36.86, 11.398 ], [ 36.868, 11.406 ], [ 36.876, 11.406 ], [ 36.884, 11.406 ], [ 36.884, 11.414 ], [ 36.884, 11.422 ], [ 36.892, 11.422 ], [ 36.9, 11.422 ], [ 36.9, 11.43 ], [ 36.908, 11.43 ] ] } },
{ "type": "Feature", "properties": { "idx": 2355, "idx_ds": 1858, "pit": false, "strord": 3 }, "geometry": { "type": "LineString", "coordinates": [ [ 36.988, 11.294 ], [ 36.988, 11.302 ], [ 36.98, 11.302 ], [ 36.98, 11.31 ], [ 36.988, 11.318 ], [ 36.996, 11.326 ], [ 36.988, 11.326 ], [ 36.996, 11.334 ], [ 36.996, 11.342 ] ] } },
{ "type": "Feature", "properties": { "idx": 2205, "idx_ds": 1703, "pit": false, "strord": 1 }, "geometry": { "type": "LineString", "coordinates": [ [ 37.116, 11.31 ], [ 37.108, 11.318 ], [ 37.1, 11.318 ], [ 37.1, 11.326 ], [ 37.1, 11.334 ], [ 37.1, 11.342 ], [ 37.092, 11.342 ], [ 37.084, 11.35 ], [ 37.084, 11.358 ] ] } },
{ "type": "Feature", "properties": { "idx": 1847, "idx_ds": 1680, "pit": false, "strord": 1 }, "geometry": { "type": "LineString", "coordinates": [ [ 36.908, 11.342 ], [ 36.9, 11.35 ], [ 36.9, 11.358 ] ] } },
{ "type": "Feature", "properties": { "idx": 344, "idx_ds": 606, "pit": false, "strord": 1 }, "geometry": { "type": "LineString", "coordinates": [ [ 36.836, 11.486 ], [ 36.844, 11.478 ], [ 36.852, 11.478 ], [ 36.852, 11.47 ], [ 36.86, 11.47 ], [ 36.86, 11.478 ], [ 36.868, 11.47 ], [ 36.868, 11.478 ], [ 36.876, 11.47 ], [ 36.884, 11.47 ], [ 36.884, 11.478 ], [ 36.892, 11.478 ], [ 36.9, 11.47 ], [ 36.908, 11.47 ], [ 36.916, 11.47 ], [ 36.924, 11.47 ], [ 36.932, 11.47 ], [ 36.94, 11.47 ], [ 36.94, 11.462 ] ] } },
{ "type": "Feature", "properties": { "idx": 2476, "idx_ds": 2228, "pit": false, "strord": 1 }, "geometry": { "type": "LineString", "coordinates": [ [ 37.292, 11.286 ], [ 37.292, 11.294 ], [ 37.3, 11.302 ], [ 37.3, 11.31 ] ] } },
{ "type": "Feature", "properties": { "idx": 1458, "idx_ds": 1703, "pit": false, "strord": 1 }, "geometry": { "type": "LineString", "coordinates": [ [ 37.116, 11.382 ], [ 37.108, 11.374 ], [ 37.108, 11.382 ], [ 37.1, 11.382 ], [ 37.092, 11.374 ], [ 37.084, 11.366 ], [ 37.084, 11.358 ] ] } },
{ "type": "Feature", "properties": { "idx": 1680, "idx_ds": 688, "pit": false, "strord": 2 }, "geometry": { "type": "LineString", "coordinates": [ [ 36.9, 11.358 ], [ 36.908, 11.366 ], [ 36.908, 11.374 ], [ 36.908, 11.382 ], [ 36.916, 11.382 ], [ 36.916, 11.39 ], [ 36.924, 11.39 ], [ 36.924, 11.398 ], [ 36.924, 11.406 ], [ 36.932, 11.414 ], [ 36.924, 11.422 ], [ 36.932, 11.43 ], [ 36.94, 11.438 ], [ 36.94, 11.446 ], [ 36.94, 11.454 ], [ 36.932, 11.454 ] ] } },
{ "type": "Feature", "properties": { "idx": 2395, "idx_ds": 2228, "pit": false, "strord": 1 }, "geometry": { "type": "LineString", "coordinates": [ [ 37.308, 11.294 ], [ 37.308, 11.302 ], [ 37.3, 11.31 ] ] } },
{ "type": "Feature", "properties": { "idx": 2198, "idx_ds": 2116, "pit": false, "strord": 1 }, "geometry": { "type": "LineString", "coordinates": [ [ 37.06, 11.31 ], [ 37.06, 11.318 ], [ 37.068, 11.318 ] ] } },
{ "type": "Feature", "properties": { "idx": 2117, "idx_ds": 2116, "pit": false, "strord": 3 }, "geometry": { "type": "LineString", "coordinates": [ [ 37.076, 11.318 ], [ 37.068, 11.326 ], [ 37.068, 11.318 ] ] } },
{ "type": "Feature", "properties": { "idx": 2225, "idx_ds": 1731, "pit": false, "strord": 1 }, "geometry": { "type": "LineString", "coordinates": [ [ 37.276, 11.31 ], [ 37.284, 11.318 ], [ 37.292, 11.326 ], [ 37.292, 11.334 ], [ 37.3, 11.342 ], [ 37.3, 11.35 ], [ 37.3, 11.358 ], [ 37.308, 11.358 ] ] } },
{ "type": "Feature", "properties": { "idx": 2228, "idx_ds": 1731, "pit": false, "strord": 2 }, "geometry": { "type": "LineString", "coordinates": [ [ 37.3, 11.31 ], [ 37.3, 11.318 ], [ 37.3, 11.326 ], [ 37.3, 11.334 ], [ 37.308, 11.342 ], [ 37.308, 11.35 ], [ 37.308, 11.358 ] ] } },
{ "type": "Feature", "properties": { "idx": 2116, "idx_ds": 1697, "pit": false, "strord": 3 }, "geometry": { "type": "LineString", "coordinates": [ [ 37.068, 11.318 ], [ 37.06, 11.326 ], [ 37.06, 11.334 ], [ 37.052, 11.334 ], [ 37.052, 11.342 ], [ 37.044, 11.342 ], [ 37.036, 11.342 ], [ 37.036, 11.35 ], [ 37.036, 11.358 ] ] } },
{ "type": "Feature", "properties": { "idx": 1656, "idx_ds": 1821, "pit": false, "strord": 1 }, "geometry": { "type": "LineString", "coordinates": [ [ 37.372, 11.366 ], [ 37.372, 11.358 ], [ 37.364, 11.358 ], [ 37.364, 11.35 ] ] } },
{ "type": "Feature", "properties": { "idx": 1858, "idx_ds": 1776, "pit": false, "strord": 4 }, "geometry": { "type": "LineString", "coordinates": [ [ 36.996, 11.342 ], [ 37.004, 11.35 ] ] } },
{ "type": "Feature", "properties": { "idx": 1290, "idx_ds": 1531, "pit": false, "strord": 1 }, "geometry": { "type": "LineString", "coordinates": [ [ 37.1, 11.398 ], [ 37.092, 11.398 ], [ 37.084, 11.39 ], [ 37.076, 11.39 ], [ 37.068, 11.39 ], [ 37.06, 11.382 ], [ 37.052, 11.382 ], [ 37.044, 11.382 ], [ 37.036, 11.374 ] ] } },
{ "type": "Feature", "properties": { "idx": 100, "idx_ds": 442, "pit": false, "strord": 1 }, "geometry": { "type": "LineString", "coordinates": [ [ 36.876, 11.51 ], [ 36.876, 11.502 ], [ 36.884, 11.502 ], [ 36.892, 11.502 ], [ 36.9, 11.502 ], [ 36.908, 11.502 ], [ 36.916, 11.502 ], [ 36.924, 11.502 ], [ 36.924, 11.494 ], [ 36.932, 11.494 ], [ 36.932, 11.486 ], [ 36.94, 11.486 ], [ 36.94, 11.478 ], [ 36.948, 11.478 ], [ 36.956, 11.478 ] ] } },
{ "type": "Feature", "properties": { "idx": 1776, "idx_ds": 1697, "pit": false, "strord": 4 }, "geometry": { "type": "LineString", "coordinates": [ [ 37.004, 11.35 ], [ 37.012, 11.35 ], [ 37.02, 11.35 ], [ 37.028, 11.35 ], [ 37.028, 11.358 ], [ 37.036, 11.358 ] ] } },
{ "type": "Feature", "properties": { "idx": 1703, "idx_ds": 1531, "pit": false, "strord": 2 }, "geometry": { "type": "LineString", "coordinates": [ [ 37.084, 11.358 ], [ 37.076, 11.358 ], [ 37.068, 11.358 ], [ 37.06, 11.358 ], [ 37.052, 11.366 ], [ 37.044, 11.366 ], [ 37.044, 11.374 ], [ 37.036, 11.374 ] ] } },
{ "type": "Feature", "properties": { "idx": 1905, "idx_ds": 1821, "pit": false, "strord": 1 }, "geometry": { "type": "LineString", "coordinates": [ [ 37.372, 11.342 ], [ 37.364, 11.35 ] ] } },
{ "type": "Feature", "properties": { "idx": 1821, "idx_ds": 1485, "pit": false, "strord": 2 }, "geometry": { "type": "LineString", "coordinates": [ [ 37.364, 11.35 ], [ 37.356, 11.358 ], [ 37.348, 11.358 ], [ 37.34, 11.366 ], [ 37.332, 11.366 ], [ 37.332, 11.374 ], [ 37.332, 11.382 ] ] } },
{ "type": "Feature", "properties": { "idx": 1731, "idx_ds": 1648, "pit": false, "strord": 2 }, "geometry": { "type": "LineString", "coordinates": [ [ 37.308, 11.358 ], [ 37.308, 11.366 ] ] } },
{ "type": "Feature", "properties": { "idx": 1606, "idx_ds": 1363, "pit": false, "strord": 1 }, "geometry": { "type": "LineString", "coordinates": [ [ 36.972, 11.366 ], [ 36.98, 11.366 ], [ 36.988, 11.366 ], [ 36.996, 11.366 ], [ 37.004, 11.366 ], [ 37.012, 11.374 ], [ 37.012, 11.382 ], [ 37.02, 11.39 ] ] } },
{ "type": "Feature", "properties": { "idx": 767, "idx_ds": 934, "pit": false, "strord": 1 }, "geometry": { "type": "LineString", "coordinates": [ [ 36.9, 11.446 ], [ 36.908, 11.438 ], [ 36.908, 11.43 ] ] } },
{ "type": "Feature", "properties": { "idx": 1648, "idx_ds": 1485, "pit": false, "strord": 2 }, "geometry": { "type": "LineString", "coordinates": [ [ 37.308, 11.366 ], [ 37.316, 11.374 ], [ 37.324, 11.374 ], [ 37.324, 11.382 ], [ 37.332, 11.382 ] ] } },
{ "type": "Feature", "properties": { "idx": 5244, "idx_ds": 4912, "pit": false, "strord": 1 }, "geometry": { "type": "LineString", "coordinates": [ [ 36.86, 11.014 ], [ 36.86, 11.022 ], [ 36.852, 11.03 ], [ 36.852, 11.038 ], [ 36.86, 11.038 ], [ 36.86, 11.046 ] ] } },
{ "type": "Feature", "properties": { "idx": 1697, "idx_ds": 1531, "pit": false, "strord": 4 }, "geometry": { "type": "LineString", "coordinates": [ [ 37.036, 11.358 ], [ 37.036, 11.366 ], [ 37.036, 11.374 ] ] } },
{ "type": "Feature", "properties": { "idx": 934, "idx_ds": 688, "pit": false, "strord": 3 }, "geometry": { "type": "LineString", "coordinates": [ [ 36.908, 11.43 ], [ 36.916, 11.438 ], [ 36.924, 11.446 ], [ 36.932, 11.446 ], [ 36.932, 11.454 ] ] } },
{ "type": "Feature", "properties": { "idx": 1531, "idx_ds": 1363, "pit": false, "strord": 4 }, "geometry": { "type": "LineString", "coordinates": [ [ 37.036, 11.374 ], [ 37.028, 11.374 ], [ 37.02, 11.382 ], [ 37.02, 11.39 ] ] } },
{ "type": "Feature", "properties": { "idx": 1485, "idx_ds": 243, "pit": false, "strord": 3 }, "geometry": { "type": "LineString", "coordinates": [ [ 37.332, 11.382 ], [ 37.332, 11.39 ], [ 37.332, 11.398 ], [ 37.34, 11.406 ], [ 37.34, 11.414 ], [ 37.34, 11.422 ], [ 37.34, 11.43 ], [ 37.34, 11.438 ], [ 37.34, 11.446 ], [ 37.332, 11.454 ], [ 37.332, 11.462 ], [ 37.34, 11.47 ], [ 37.34, 11.478 ], [ 37.348, 11.478 ], [ 37.348, 11.486 ], [ 37.348, 11.494 ], [ 37.356, 11.502 ] ] } },
{ "type": "Feature", "properties": { "idx": 982, "idx_ds": 243, "pit": false, "strord": 1 }, "geometry": { "type": "LineString", "coordinates": [ [ 37.292, 11.43 ], [ 37.292, 11.438 ], [ 37.292, 11.446 ], [ 37.292, 11.454 ], [ 37.292, 11.462 ], [ 37.292, 11.47 ], [ 37.292, 11.478 ], [ 37.3, 11.478 ], [ 37.308, 11.486 ], [ 37.316, 11.486 ], [ 37.324, 11.486 ], [ 37.332, 11.478 ], [ 37.332, 11.486 ], [ 37.34, 11.494 ], [ 37.34, 11.502 ], [ 37.348, 11.502 ], [ 37.356, 11.502 ] ] } },
{ "type": "Feature", "properties": { "idx": 4829, "idx_ds": 4912, "pit": false, "strord": 1 }, "geometry": { "type": "LineString", "coordinates": [ [ 36.86, 11.054 ], [ 36.86, 11.046 ] ] } },
{ "type": "Feature", "properties": { "idx": 688, "idx_ds": 606, "pit": false, "strord": 3 }, "geometry": { "type": "LineString", "coordinates": [ [ 36.932, 11.454 ], [ 36.932, 11.462 ], [ 36.94, 11.462 ] ] } },
{ "type": "Feature", "properties": { "idx": 4912, "idx_ds": 4661, "pit": false, "strord": 2 }, "geometry": { "type": "LineString", "coordinates": [ [ 36.86, 11.046 ], [ 36.852, 11.054 ], [ 36.852, 11.062 ], [ 36.844, 11.062 ], [ 36.844, 11.07 ] ] } },
{ "type": "Feature", "properties": { "idx": 1138, "idx_ds": 384, "pit": false, "strord": 1 }, "geometry": { "type": "LineString", "coordinates": [ [ 37.212, 11.414 ], [ 37.22, 11.422 ], [ 37.212, 11.43 ], [ 37.212, 11.438 ], [ 37.204, 11.446 ], [ 37.204, 11.454 ], [ 37.196, 11.462 ], [ 37.196, 11.47 ], [ 37.196, 11.478 ], [ 37.188, 11.486 ], [ 37.18, 11.486 ], [ 37.18, 11.494 ], [ 37.172, 11.494 ], [ 37.164, 11.494 ], [ 37.156, 11.494 ], [ 37.156, 11.486 ] ] } },
{ "type": "Feature", "properties": { "idx": 1363, "idx_ds": 698, "pit": false, "strord": 4 }, "geometry": { "type": "LineString", "coordinates": [ [ 37.02, 11.39 ], [ 37.028, 11.39 ], [ 37.028, 11.398 ], [ 37.028, 11.406 ], [ 37.028, 11.414 ], [ 37.028, 11.422 ], [ 37.02, 11.43 ], [ 37.02, 11.438 ], [ 37.02, 11.446 ], [ 37.012, 11.454 ] ] } },
{ "type": "Feature", "properties": { "idx": 606, "idx_ds": 442, "pit": false, "strord": 3 }, "geometry": { "type": "LineString", "coordinates": [ [ 36.94, 11.462 ], [ 36.948, 11.47 ], [ 36.956, 11.478 ] ] } },
{ "type": "Feature", "properties": { "idx": 4811, "idx_ds": 5721, "pit": false, "strord": 1 }, "geometry": { "type": "LineString", "coordinates": [ [ 37.38, 11.062 ], [ 37.38, 11.054 ], [ 37.372, 11.046 ], [ 37.372, 11.038 ], [ 37.364, 11.03 ], [ 37.364, 11.022 ], [ 37.364, 11.014 ], [ 37.364, 11.006 ], [ 37.364, 10.998 ], [ 37.364, 10.99 ], [ 37.364, 10.982 ], [ 37.356, 10.982 ], [ 37.356, 10.974 ] ] } },
{ "type": "Feature", "properties": { "idx": 5217, "idx_ds": 5466, "pit": false, "strord": 1 }, "geometry": { "type": "LineString", "coordinates": [ [ 37.308, 11.022 ], [ 37.316, 11.014 ], [ 37.316, 11.006 ], [ 37.308, 11.006 ], [ 37.308, 10.998 ] ] } },
{ "type": "Feature", "properties": { "idx": 4662, "idx_ds": 4661, "pit": false, "strord": 1 }, "geometry": { "type": "LineString", "coordinates": [ [ 36.852, 11.07 ], [ 36.844, 11.07 ] ] } },
{ "type": "Feature", "properties": { "idx": 442, "idx_ds": 448, "pit": false, "strord": 3 }, "geometry": { "type": "LineString", "coordinates": [ [ 36.956, 11.478 ], [ 36.964, 11.486 ], [ 36.964, 11.478 ], [ 36.972, 11.478 ], [ 36.972, 11.47 ], [ 36.98, 11.47 ], [ 36.98, 11.478 ], [ 36.988, 11.478 ], [ 36.996, 11.478 ], [ 37.004, 11.478 ] ] } },
{ "type": "Feature", "properties": { "idx": 5297, "idx_ds": 5466, "pit": false, "strord": 1 }, "geometry": { "type": "LineString", "coordinates": [ [ 37.284, 11.014 ], [ 37.292, 11.006 ], [ 37.3, 11.006 ], [ 37.308, 10.998 ] ] } },
{ "type": "Feature", "properties": { "idx": 4661, "idx_ds": 4649, "pit": false, "strord": 2 }, "geometry": { "type": "LineString", "coordinates": [ [ 36.844, 11.07 ], [ 36.836, 11.07 ], [ 36.828, 11.07 ], [ 36.82, 11.07 ], [ 36.82, 11.078 ], [ 36.812, 11.078 ], [ 36.812, 11.086 ], [ 36.812, 11.094 ], [ 36.804, 11.094 ], [ 36.796, 11.094 ], [ 36.788, 11.086 ], [ 36.78, 11.086 ], [ 36.772, 11.086 ], [ 36.764, 11.078 ], [ 36.756, 11.07 ], [ 36.748, 11.07 ] ] } },
{ "type": "Feature", "properties": { "idx": 1133, "idx_ds": 384, "pit": false, "strord": 1 }, "geometry": { "type": "LineString", "coordinates": [ [ 37.172, 11.414 ], [ 37.164, 11.422 ], [ 37.156, 11.422 ], [ 37.148, 11.43 ], [ 37.14, 11.438 ], [ 37.14, 11.446 ], [ 37.132, 11.454 ], [ 37.14, 11.462 ], [ 37.14, 11.47 ], [ 37.148, 11.478 ], [ 37.148, 11.486 ], [ 37.156, 11.486 ] ] } },
{ "type": "Feature", "properties": { "idx": 946, "idx_ds": 862, "pit": false, "strord": 1 }, "geometry": { "type": "LineString", "coordinates": [ [ 37.004, 11.43 ], [ 37.004, 11.438 ], [ 36.996, 11.438 ] ] } },
{ "type": "Feature", "properties": { "idx": 5137, "idx_ds": 5552, "pit": false, "strord": 1 }, "geometry": { "type": "LineString", "coordinates": [ [ 37.332, 11.03 ], [ 37.332, 11.022 ], [ 37.332, 11.014 ], [ 37.324, 11.014 ], [ 37.324, 11.006 ], [ 37.332, 10.998 ], [ 37.332, 10.99 ] ] } },
{ "type": "Feature", "properties": { "idx": 861, "idx_ds": 862, "pit": false, "strord": 1 }, "geometry": { "type": "LineString", "coordinates": [ [ 36.988, 11.438 ], [ 36.996, 11.438 ] ] } },
{ "type": "Feature", "properties": { "idx": 862, "idx_ds": 698, "pit": false, "strord": 2 }, "geometry": { "type": "LineString", "coordinates": [ [ 36.996, 11.438 ], [ 37.004, 11.446 ], [ 37.012, 11.446 ], [ 37.012, 11.454 ] ] } },
{ "type": "Feature", "properties": { "idx": 5466, "idx_ds": 5550, "pit": false, "strord": 2 }, "geometry": { "type": "LineString", "coordinates": [ [ 37.308, 10.998 ], [ 37.316, 10.998 ], [ 37.316, 10.99 ] ] } },
{ "type": "Feature", "properties": { "idx": 896, "idx_ds": 230, "pit": false, "strord": 1 }, "geometry": { "type": "LineString", "coordinates": [ [ 37.268, 11.438 ], [ 37.268, 11.446 ], [ 37.268, 11.454 ], [ 37.268, 11.462 ], [ 37.268, 11.47 ], [ 37.276, 11.478 ], [ 37.268, 11.478 ], [ 37.26, 11.486 ], [ 37.252, 11.494 ], [ 37.252, 11.502 ] ] } },
{ "type": "Feature", "properties": { "idx": 953, "idx_ds": 786, "pit": false, "strord": 1 }, "geometry": { "type": "LineString", "coordinates": [ [ 37.06, 11.43 ], [ 37.06, 11.438 ], [ 37.052, 11.438 ], [ 37.052, 11.446 ] ] } },
{ "type": "Feature", "properties": { "idx": 789, "idx_ds": 786, "pit": false, "strord": 1 }, "geometry": { "type": "LineString", "coordinates": [ [ 37.076, 11.446 ], [ 37.068, 11.446 ], [ 37.06, 11.446 ], [ 37.052, 11.446 ] ] } },
{ "type": "Feature", "properties": { "idx": 5549, "idx_ds": 5550, "pit": false, "strord": 1 }, "geometry": { "type": "LineString", "coordinates": [ [ 37.308, 10.99 ], [ 37.316, 10.99 ] ] } },
{ "type": "Feature", "properties": { "idx": 3827, "idx_ds": 3660, "pit": false, "strord": 1 }, "geometry": { "type": "LineString", "coordinates": [ [ 36.812, 11.15 ], [ 36.812, 11.158 ], [ 36.804, 11.158 ], [ 36.804, 11.166 ] ] } },
{ "type": "Feature", "properties": { "idx": 3745, "idx_ds": 3660, "pit": false, "strord": 1 }, "geometry": { "type": "LineString", "coordinates": [ [ 36.82, 11.158 ], [ 36.82, 11.166 ], [ 36.812, 11.166 ], [ 36.804, 11.166 ] ] } },
{ "type": "Feature", "properties": { "idx": 3811, "idx_ds": 3565, "pit": false, "strord": 1 }, "geometry": { "type": "LineString", "coordinates": [ [ 37.348, 11.158 ], [ 37.348, 11.166 ], [ 37.356, 11.166 ], [ 37.364, 11.174 ], [ 37.372, 11.182 ] ] } },
{ "type": "Feature", "properties": { "idx": 5550, "idx_ds": 5552, "pit": false, "strord": 2 }, "geometry": { "type": "LineString", "coordinates": [ [ 37.316, 10.99 ], [ 37.324, 10.99 ], [ 37.332, 10.99 ] ] } },
{ "type": "Feature", "properties": { "idx": 5240, "idx_ds": 4899, "pit": false, "strord": 1 }, "geometry": { "type": "LineString", "coordinates": [ [ 36.828, 11.014 ], [ 36.82, 11.014 ], [ 36.812, 11.022 ], [ 36.804, 11.022 ], [ 36.796, 11.022 ], [ 36.788, 11.03 ], [ 36.78, 11.038 ], [ 36.772, 11.038 ], [ 36.764, 11.046 ], [ 36.756, 11.046 ] ] } },
{ "type": "Feature", "properties": { "idx": 643, "idx_ds": 230, "pit": false, "strord": 1 }, "geometry": { "type": "LineString", "coordinates": [ [ 37.236, 11.462 ], [ 37.236, 11.47 ], [ 37.236, 11.478 ], [ 37.236, 11.486 ], [ 37.236, 11.494 ], [ 37.244, 11.494 ], [ 37.244, 11.502 ], [ 37.252, 11.502 ] ] } },
{ "type": "Feature", "properties": { "idx": 698, "idx_ds": 448, "pit": false, "strord": 4 }, "geometry": { "type": "LineString", "coordinates": [ [ 37.012, 11.454 ], [ 37.012, 11.462 ], [ 37.012, 11.47 ], [ 37.004, 11.478 ] ] } },
{ "type": "Feature", "properties": { "idx": 5774, "idx_ds": 5932, "pit": false, "strord": 1 }, "geometry": { "type": "LineString", "coordinates": [ [ 37.116, 10.966 ], [ 37.108, 10.974 ], [ 37.108, 10.966 ], [ 37.1, 10.974 ], [ 37.092, 10.974 ], [ 37.084, 10.974 ], [ 37.076, 10.966 ], [ 37.068, 10.966 ], [ 37.06, 10.966 ], [ 37.052, 10.958 ], [ 37.052, 10.95 ] ] } },
{ "type": "Feature", "properties": { "idx": 5932, "idx_ds": 5932, "pit": true, "strord": 1 }, "geometry": { "type": "LineString", "coordinates": [ ] } },
{ "type": "Feature", "properties": { "idx": 3732, "idx_ds": 3565, "pit": false, "strord": 1 }, "geometry": { "type": "LineString", "coordinates": [ [ 37.38, 11.166 ], [ 37.372, 11.174 ], [ 37.372, 11.182 ] ] } },
{ "type": "Feature", "properties": { "idx": 786, "idx_ds": 203, "pit": false, "strord": 2 }, "geometry": { "type": "LineString", "coordinates": [ [ 37.052, 11.446 ], [ 37.044, 11.446 ], [ 37.044, 11.454 ], [ 37.036, 11.462 ], [ 37.036, 11.47 ], [ 37.028, 11.478 ], [ 37.036, 11.486 ], [ 37.036, 11.494 ], [ 37.036, 11.502 ] ] } },
{ "type": "Feature", "properties": { "idx": 5552, "idx_ds": 5636, "pit": false, "strord": 2 }, "geometry": { "type": "LineString", "coordinates": [ [ 37.332, 10.99 ], [ 37.34, 10.99 ], [ 37.34, 10.982 ] ] } },
{ "type": "Feature", "properties": { "idx": 3660, "idx_ds": 3489, "pit": false, "strord": 2 }, "geometry": { "type": "LineString", "coordinates": [ [ 36.804, 11.166 ], [ 36.804, 11.174 ], [ 36.796, 11.182 ], [ 36.788, 11.19 ], [ 36.78, 11.19 ], [ 36.772, 11.182 ], [ 36.764, 11.182 ] ] } },
{ "type": "Feature", "properties": { "idx": 5635, "idx_ds": 5636, "pit": false, "strord": 1 }, "geometry": { "type": "LineString", "coordinates": [ [ 37.332, 10.982 ], [ 37.34, 10.982 ] ] } },
{ "type": "Feature", "properties": { "idx": 5596, "idx_ds": 5842, "pit": false, "strord": 1 }, "geometry": { "type": "LineString", "coordinates": [ [ 37.02, 10.982 ], [ 37.012, 10.974 ], [ 37.02, 10.974 ], [ 37.02, 10.966 ], [ 37.012, 10.966 ], [ 37.004, 10.966 ], [ 36.996, 10.958 ] ] } },
{ "type": "Feature", "properties": { "idx": 3904, "idx_ds": 3489, "pit": false, "strord": 1 }, "geometry": { "type": "LineString", "coordinates": [ [ 36.764, 11.142 ], [ 36.764, 11.15 ], [ 36.764, 11.158 ], [ 36.764, 11.166 ], [ 36.772, 11.174 ], [ 36.764, 11.182 ] ] } },
{ "type": "Feature", "properties": { "idx": 3565, "idx_ds": 3153, "pit": false, "strord": 2 }, "geometry": { "type": "LineString", "coordinates": [ [ 37.372, 11.182 ], [ 37.38, 11.19 ], [ 37.38, 11.198 ], [ 37.38, 11.206 ], [ 37.388, 11.206 ], [ 37.388, 11.214 ], [ 37.396, 11.214 ], [ 37.388, 11.222 ], [ 37.396, 11.222 ] ] } },
{ "type": "Feature", "properties": { "idx": 3153, "idx_ds": 3153, "pit": true, "strord": 2 }, "geometry": { "type": "LineString", "coordinates": [ ] } },
{ "type": "Feature", "properties": { "idx": 448, "idx_ds": 203, "pit": false, "strord": 4 }, "geometry": { "type": "LineString", "coordinates": [ [ 37.004, 11.478 ], [ 37.004, 11.486 ], [ 37.012, 11.486 ], [ 37.02, 11.494 ], [ 37.028, 11.494 ], [ 37.028, 11.502 ], [ 37.036, 11.502 ] ] } },
{ "type": "Feature", "properties": { "idx": 5636, "idx_ds": 5721, "pit": false, "strord": 2 }, "geometry": { "type": "LineString", "coordinates": [ [ 37.34, 10.982 ], [ 37.348, 10.982 ], [ 37.356, 10.974 ] ] } },
{ "type": "Feature", "properties": { "idx": 5734, "idx_ds": 5644, "pit": false, "strord": 1 }, "geometry": { "type": "LineString", "coordinates": [ [ 36.796, 10.966 ], [ 36.788, 10.966 ], [ 36.78, 10.958 ], [ 36.772, 10.966 ], [ 36.764, 10.974 ], [ 36.756, 10.974 ], [ 36.748, 10.974 ], [ 36.74, 10.974 ] ] } },
{ "type": "Feature", "properties": { "idx": 5644, "idx_ds": 5644, "pit": true, "strord": 1 }, "geometry": { "type": "LineString", "coordinates": [ ] } },
{ "type": "Feature", "properties": { "idx": 4903, "idx_ds": 4899, "pit": false, "strord": 1 }, "geometry": { "type": "LineString", "coordinates": [ [ 36.788, 11.046 ], [ 36.78, 11.046 ], [ 36.78, 11.054 ], [ 36.772, 11.054 ], [ 36.764, 11.054 ], [ 36.756, 11.046 ] ] } },
{ "type": "Feature", "properties": { "idx": 669, "idx_ds": 583, "pit": false, "strord": 1 }, "geometry": { "type": "LineString", "coordinates": [ [ 36.78, 11.454 ], [ 36.772, 11.454 ], [ 36.764, 11.454 ], [ 36.764, 11.462 ], [ 36.756, 11.462 ] ] } },
{ "type": "Feature", "properties": { "idx": 253, "idx_ds": 583, "pit": false, "strord": 1 }, "geometry": { "type": "LineString", "coordinates": [ [ 36.772, 11.494 ], [ 36.772, 11.486 ], [ 36.772, 11.478 ], [ 36.764, 11.47 ], [ 36.756, 11.462 ] ] } },
{ "type": "Feature", "properties": { "idx": 551, "idx_ds": 384, "pit": false, "strord": 1 }, "geometry": { "type": "LineString", "coordinates": [ [ 37.164, 11.47 ], [ 37.164, 11.478 ], [ 37.156, 11.486 ] ] } },
{ "type": "Feature", "properties": { "idx": 543, "idx_ds": 44, "pit": false, "strord": 1 }, "geometry": { "type": "LineString", "coordinates": [ [ 37.1, 11.47 ], [ 37.1, 11.478 ], [ 37.1, 11.486 ], [ 37.1, 11.494 ], [ 37.1, 11.502 ], [ 37.1, 11.51 ], [ 37.092, 11.51 ], [ 37.092, 11.518 ] ] } },
{ "type": "Feature", "properties": { "idx": 44, "idx_ds": 44, "pit": true, "strord": 1 }, "geometry": { "type": "LineString", "coordinates": [ ] } },
{ "type": "Feature", "properties": { "idx": 5591, "idx_ds": 5842, "pit": false, "strord": 1 }, "geometry": { "type": "LineString", "coordinates": [ [ 36.98, 10.982 ], [ 36.988, 10.974 ], [ 36.988, 10.966 ], [ 36.996, 10.966 ], [ 36.996, 10.958 ] ] } },
{ "type": "Feature", "properties": { "idx": 995, "idx_ds": 497, "pit": false, "strord": 1 }, "geometry": { "type": "LineString", "coordinates": [ [ 37.396, 11.43 ], [ 37.396, 11.438 ], [ 37.396, 11.446 ], [ 37.396, 11.454 ], [ 37.388, 11.462 ], [ 37.396, 11.47 ], [ 37.396, 11.478 ] ] } },
{ "type": "Feature", "properties": { "idx": 497, "idx_ds": 497, "pit": true, "strord": 1 }, "geometry": { "type": "LineString", "coordinates": [ ] } },
{ "type": "Feature", "properties": { "idx": 243, "idx_ds": 165, "pit": false, "strord": 3 }, "geometry": { "type": "LineString", "coordinates": [ [ 37.356, 11.502 ], [ 37.364, 11.51 ], [ 37.372, 11.502 ], [ 37.38, 11.494 ], [ 37.388, 11.494 ], [ 37.388, 11.502 ], [ 37.396, 11.51 ] ] } },
{ "type": "Feature", "properties": { "idx": 165, "idx_ds": 165, "pit": true, "strord": 3 }, "geometry": { "type": "LineString", "coordinates": [ ] } },
{ "type": "Feature", "properties": { "idx": 5721, "idx_ds": 5972, "pit": false, "strord": 2 }, "geometry": { "type": "LineString", "coordinates": [ [ 37.356, 10.974 ], [ 37.356, 10.966 ], [ 37.364, 10.966 ], [ 37.364, 10.958 ], [ 37.372, 10.958 ], [ 37.372, 10.95 ] ] } },
{ "type": "Feature", "properties": { "idx": 5972, "idx_ds": 5972, "pit": true, "strord": 2 }, "geometry": { "type": "LineString", "coordinates": [ ] } },
{ "type": "Feature", "properties": { "idx": 5662, "idx_ds": 5913, "pit": false, "strord": 1 }, "geometry": { "type": "LineString", "coordinates": [ [ 36.884, 10.974 ], [ 36.892, 10.974 ], [ 36.9, 10.974 ], [ 36.9, 10.966 ], [ 36.9, 10.958 ], [ 36.9, 10.95 ] ] } },
{ "type": "Feature", "properties": { "idx": 5913, "idx_ds": 5913, "pit": true, "strord": 1 }, "geometry": { "type": "LineString", "coordinates": [ ] } },
{ "type": "Feature", "properties": { "idx": 5400, "idx_ds": 5229, "pit": false, "strord": 1 }, "geometry": { "type": "LineString", "coordinates": [ [ 36.78, 10.998 ], [ 36.772, 10.998 ], [ 36.764, 11.006 ], [ 36.756, 11.006 ], [ 36.748, 11.014 ], [ 36.74, 11.014 ] ] } },
{ "type": "Feature", "properties": { "idx": 5229, "idx_ds": 5229, "pit": true, "strord": 1 }, "geometry": { "type": "LineString", "coordinates": [ ] } },
{ "type": "Feature", "properties": { "idx": 3159, "idx_ds": 3237, "pit": false, "strord": 1 }, "geometry": { "type": "LineString", "coordinates": [ [ 36.78, 11.214 ], [ 36.772, 11.214 ], [ 36.764, 11.214 ], [ 36.756, 11.214 ], [ 36.748, 11.206 ], [ 36.74, 11.206 ] ] } },
{ "type": "Feature", "properties": { "idx": 3237, "idx_ds": 3237, "pit": true, "strord": 1 }, "geometry": { "type": "LineString", "coordinates": [ ] } },
{ "type": "Feature", "properties": { "idx": 384, "idx_ds": 49, "pit": false, "strord": 2 }, "geometry": { "type": "LineString", "coordinates": [ [ 37.156, 11.486 ], [ 37.148, 11.494 ], [ 37.14, 11.502 ], [ 37.14, 11.51 ], [ 37.132, 11.51 ], [ 37.132, 11.518 ] ] } },
{ "type": "Feature", "properties": { "idx": 49, "idx_ds": 49, "pit": true, "strord": 2 }, "geometry": { "type": "LineString", "coordinates": [ ] } },
{ "type": "Feature", "properties": { "idx": 230, "idx_ds": 66, "pit": false, "strord": 2 }, "geometry": { "type": "LineString", "coordinates": [ [ 37.252, 11.502 ], [ 37.252, 11.51 ], [ 37.26, 11.51 ], [ 37.26, 11.518 ], [ 37.268, 11.518 ] ] } },
{ "type": "Feature", "properties": { "idx": 66, "idx_ds": 66, "pit": true, "strord": 2 }, "geometry": { "type": "LineString", "coordinates": [ ] } },
{ "type": "Feature", "properties": { "idx": 372, "idx_ds": 41, "pit": false, "strord": 1 }, "geometry": { "type": "LineString", "coordinates": [ [ 37.06, 11.486 ], [ 37.068, 11.494 ], [ 37.068, 11.502 ], [ 37.068, 11.51 ], [ 37.068, 11.518 ] ] } },
{ "type": "Feature", "properties": { "idx": 41, "idx_ds": 41, "pit": true, "strord": 1 }, "geometry": { "type": "LineString", "coordinates": [ ] } },
{ "type": "Feature", "properties": { "idx": 3489, "idx_ds": 3486, "pit": false, "strord": 2 }, "geometry": { "type": "LineString", "coordinates": [ [ 36.764, 11.182 ], [ 36.756, 11.182 ], [ 36.748, 11.182 ], [ 36.74, 11.182 ] ] } },
{ "type": "Feature", "properties": { "idx": 3486, "idx_ds": 3486, "pit": true, "strord": 2 }, "geometry": { "type": "LineString", "coordinates": [ ] } },
{ "type": "Feature", "properties": { "idx": 583, "idx_ds": 830, "pit": false, "strord": 2 }, "geometry": { "type": "LineString", "coordinates": [ [ 36.756, 11.462 ], [ 36.748, 11.454 ], [ 36.748, 11.446 ], [ 36.74, 11.438 ] ] } },
{ "type": "Feature", "properties": { "idx": 830, "idx_ds": 830, "pit": true, "strord": 2 }, "geometry": { "type": "LineString", "coordinates": [ ] } },
{ "type": "Feature", "properties": { "idx": 5842, "idx_ds": 5923, "pit": false, "strord": 2 }, "geometry": { "type": "LineString", "coordinates": [ [ 36.996, 10.958 ], [ 36.988, 10.958 ], [ 36.98, 10.95 ] ] } },
{ "type": "Feature", "properties": { "idx": 5923, "idx_ds": 5923, "pit": true, "strord": 2 }, "geometry": { "type": "LineString", "coordinates": [ ] } },
{ "type": "Feature", "properties": { "idx": 5751, "idx_ds": 5917, "pit": false, "strord": 1 }, "geometry": { "type": "LineString", "coordinates": [ [ 36.932, 10.966 ], [ 36.932, 10.958 ], [ 36.932, 10.95 ] ] } },
{ "type": "Feature", "properties": { "idx": 5917, "idx_ds": 5917, "pit": true, "strord": 1 }, "geometry": { "type": "LineString", "coordinates": [ ] } },
{ "type": "Feature", "properties": { "idx": 4899, "idx_ds": 4897, "pit": false, "strord": 2 }, "geometry": { "type": "LineString", "coordinates": [ [ 36.756, 11.046 ], [ 36.748, 11.046 ], [ 36.74, 11.046 ] ] } },
{ "type": "Feature", "properties": { "idx": 4897, "idx_ds": 4897, "pit": true, "strord": 2 }, "geometry": { "type": "LineString", "coordinates": [ ] } },
{ "type": "Feature", "properties": { "idx": 4566, "idx_ds": 4649, "pit": false, "strord": 1 }, "geometry": { "type": "LineString", "coordinates": [ [ 36.748, 11.078 ], [ 36.748, 11.07 ] ] } },
{ "type": "Feature", "properties": { "idx": 1413, "idx_ds": 1245, "pit": false, "strord": 1 }, "geometry": { "type": "LineString", "coordinates": [ [ 36.756, 11.382 ], [ 36.748, 11.39 ], [ 36.74, 11.398 ] ] } },
{ "type": "Feature", "properties": { "idx": 1245, "idx_ds": 1245, "pit": true, "strord": 1 }, "geometry": { "type": "LineString", "coordinates": [ ] } },
{ "type": "Feature", "properties": { "idx": 203, "idx_ds": 37, "pit": false, "strord": 4 }, "geometry": { "type": "LineString", "coordinates": [ [ 37.036, 11.502 ], [ 37.036, 11.51 ], [ 37.036, 11.518 ] ] } },
{ "type": "Feature", "properties": { "idx": 37, "idx_ds": 37, "pit": true, "strord": 4 }, "geometry": { "type": "LineString", "coordinates": [ ] } },
{ "type": "Feature", "properties": { "idx": 5838, "idx_ds": 5922, "pit": false, "strord": 1 }, "geometry": { "type": "LineString", "coordinates": [ [ 36.964, 10.958 ], [ 36.972, 10.95 ] ] } },
{ "type": "Feature", "properties": { "idx": 5922, "idx_ds": 5922, "pit": true, "strord": 1 }, "geometry": { "type": "LineString", "coordinates": [ ] } },
{ "type": "Feature", "properties": { "idx": 4649, "idx_ds": 4648, "pit": false, "strord": 2 }, "geometry": { "type": "LineString", "coordinates": [ [ 36.748, 11.07 ], [ 36.74, 11.07 ] ] } },
{ "type": "Feature", "properties": { "idx": 4648, "idx_ds": 4648, "pit": true, "strord": 2 }, "geometry": { "type": "LineString", "coordinates": [ ] } },
{ "type": "Feature", "properties": { "idx": 2820, "idx_ds": 2738, "pit": false, "strord": 1 }, "geometry": { "type": "LineString", "coordinates": [ [ 37.388, 11.254 ], [ 37.396, 11.262 ] ] } },
{ "type": "Feature", "properties": { "idx": 2738, "idx_ds": 2738, "pit": true, "strord": 1 }, "geometry": { "type": "LineString", "coordinates": [ ] } },
{ "type": "Feature", "properties": { "idx": 2405, "idx_ds": 2406, "pit": false, "strord": 1 }, "geometry": { "type": "LineString", "coordinates": [ [ 37.388, 11.294 ], [ 37.396, 11.294 ] ] } },
{ "type": "Feature", "properties": { "idx": 2406, "idx_ds": 2406, "pit": true, "strord": 1 }, "geometry": { "type": "LineString", "coordinates": [ ] } },
{ "type": "Feature", "properties": { "idx": 142, "idx_ds": 59, "pit": false, "strord": 1 }, "geometry": { "type": "LineString", "coordinates": [ [ 37.212, 11.51 ], [ 37.212, 11.518 ] ] } },
{ "type": "Feature", "properties": { "idx": 59, "idx_ds": 59, "pit": true, "strord": 1 }, "geometry": { "type": "LineString", "coordinates": [ ] } },
{ "type": "Feature", "properties": { "idx": 5952, "idx_ds": 5952, "pit": true, "strord": 1 }, "geometry": { "type": "LineString", "coordinates": [ ] } }
]
}
